{"type": "FeatureCollection", "features": [{"type": "Feature", "properties": {"name": "Kota Solok"}, "geometry": {"type": "Polygon", "coordinates": [[[100.67503583200006, -0.7888950279999656, 0.0], [100.67494315400003, -0.789114218999898, 0.0], [100.67489585300002, -0.7891946459999839, 0.0], [100.67484097000002, -0.7892884849999238, 0.0], [100.6748053920001, -0.78937285099989, 0.0], [100.67480297100006, -0.7894517929999414, 0.0], [100.67482348100008, -0.7895445199999849, 0.0], [100.67485973700006, -0.7896192609999371, 0.0], [100.67505157300013, -0.7900082299999692, 0.0], [100.67511634000006, -0.7901765849999625, 0.0], [100.67520466399999, -0.7903492029999387, 0.0], [100.67528130600003, -0.7904597999999514, 0.0], [100.67538255400007, -0.7905961279999444, 0.0], [100.67561361900009, -0.7908471149999338, 0.0], [100.67591059200005, -0.7910272729999173, 0.0], [100.67613077300008, -0.7912261379999401, 0.0], [100.67631508400005, -0.7915877999999256, 0.0], [100.6764404150001, -0.7920671819998858, 0.0], [100.67667512400007, -0.7925008859999877, 0.0], [100.67670166400005, -0.7925516690000061, 0.0], [100.67716589100009, -0.7931633659999008, 0.0], [100.67723171700003, -0.7932610379999934, 0.0], [100.67727154100004, -0.793366142999994, 0.0], [100.67727394400006, -0.7934427589999379, 0.0], [100.67727633800008, -0.7935040419999385, 0.0], [100.67729336300006, -0.7935559949999769, 0.0], [100.67744115700003, -0.7937214639999085, 0.0], [100.67752352000011, -0.7938835829999854, 0.0], [100.67752355700011, -0.7939751649999368, 0.0], [100.67750802200007, -0.7940291109999484, 0.0], [100.67746716500005, -0.7940963490000051, 0.0], [100.67737038000004, -0.7941917409999977, 0.0], [100.67734691800005, -0.7942139859999771, 0.0], [100.67732521900004, -0.7942522409999339, 0.0], [100.67732369600009, -0.7942719119999778, 0.0], [100.677331253, -0.7943304649999313, 0.0], [100.67734978200012, -0.7943698089999057, 0.0], [100.67739753300008, -0.7944556969998915, 0.0], [100.67742874300008, -0.7945079999999602, 0.0], [100.6774321110001, -0.7945870749999389, 0.0], [100.6774183830001, -0.7946575819999936, 0.0], [100.6774030840001, -0.7947030839999425, 0.0], [100.67740363600005, -0.794711101999978, 0.0], [100.67741019600005, -0.7947187999999092, 0.0], [100.67743040800003, -0.7947318289999163, 0.0], [100.67748548300007, -0.7947559039999537, 0.0], [100.67755751600008, -0.7948350799999352, 0.0], [100.67761763300008, -0.7949453859999143, 0.0], [100.67769121300003, -0.7950835169999827, 0.0], [100.67801879600005, -0.7958095509999195, 0.0], [100.67820550700013, -0.7963706909998916, 0.0], [100.6782169730001, -0.79642945299996, 0.0], [100.67824983500007, -0.7967330179999389, 0.0], [100.67824667600007, -0.7968373069999547, 0.0], [100.67823810800007, -0.7969050309999602, 0.0], [100.67818876200008, -0.7969911069999817, 0.0], [100.67804639200003, -0.7970493960000072, 0.0], [100.67800943900008, -0.7970748349998895, 0.0], [100.67802699000002, -0.7970738989998988, 0.0], [100.67815948800006, -0.7970703679999696, 0.0], [100.67825810600004, -0.7971163139999559, 0.0], [100.67830214400004, -0.7973135409999214, 0.0], [100.67834132500009, -0.7975743439999202, 0.0], [100.67826011700004, -0.7980548879999861, 0.0], [100.67822131800001, -0.7981655239999927, 0.0], [100.67817499100009, -0.7982468979999616, 0.0], [100.67812523500007, -0.798301915999986, 0.0], [100.67803481700004, -0.7983794409999223, 0.0], [100.67799415500005, -0.7984236259999367, 0.0], [100.6779668240001, -0.7984641589999124, 0.0], [100.67793060900003, -0.7985371399999184, 0.0], [100.6779087680001, -0.7985897870000087, 0.0], [100.67782128200005, -0.798771104000001, 0.0], [100.67778065900006, -0.7988368189999255, 0.0], [100.67769217900012, -0.7989591319999203, 0.0], [100.67764013600006, -0.7990115620000054, 0.0], [100.67757948500011, -0.7990652849999091, 0.0], [100.67749428100008, -0.7991286499999105, 0.0], [100.67744259400007, -0.7991636669999771, 0.0], [100.67741894300006, -0.7991854539999109, 0.0], [100.67738020900006, -0.7992336539999956, 0.0], [100.67736368300011, -0.7992663029999465, 0.0], [100.67734578800005, -0.7993211679999522, 0.0], [100.67734025900003, -0.7993721499999895, 0.0], [100.67734363200005, -0.7994016429999454, 0.0], [100.677395635, -0.7994893269999193, 0.0], [100.67758276200003, -0.7997205839999585, 0.0], [100.67762233600011, -0.7998471559999513, 0.0], [100.67763362700006, -0.7999558849999715, 0.0], [100.67762820500006, -0.800062565999923, 0.0], [100.67761181400003, -0.8001511319999611, 0.0], [100.6776060940001, -0.8002371229999771, 0.0], [100.67761455800009, -0.8003001159999473, 0.0], [100.67764625800005, -0.8003676579999355, 0.0], [100.67770226000006, -0.8004535279999403, 0.0], [100.67776233300006, -0.800553491999942, 0.0], [100.67800922000005, -0.801455171999952, 0.0], [100.67804736800011, -0.8015795269999346, 0.0], [100.67805413800005, -0.8016731929999538, 0.0], [100.67805418200004, -0.8017805479999492, 0.0], [100.67805226800006, -0.8018927199999117, 0.0], [100.67804535300013, -0.8020422379999341, 0.0], [100.67802788500009, -0.8021646829999501, 0.0], [100.67802093900005, -0.8022459179999125, 0.0], [100.67804459500005, -0.8023291309999643, 0.0], [100.67806030400001, -0.8024201959999416, 0.0], [100.6780473850001, -0.8025141539999009, 0.0], [100.67794096000009, -0.80279009699999, 0.0], [100.67792472200009, -0.8028703539999843, 0.0], [100.67792458100007, -0.8028733519999619, 0.0], [100.67795302000012, -0.8029146690000096, 0.0], [100.67798959500003, -0.8029475829999733, 0.0], [100.67802725000004, -0.8030026829999163, 0.0], [100.67803962300009, -0.8030647609999857, 0.0], [100.67803819400005, -0.8031142659999932, 0.0], [100.67802789700009, -0.8031747339999301, 0.0], [100.6780279180001, -0.8032239249999213, 0.0], [100.67803422700008, -0.8033678049999246, 0.0], [100.67803936400006, -0.8033894969999359, 0.0], [100.67805509600004, -0.803420588999933, 0.0], [100.67820373400008, -0.803559348999969, 0.0], [100.67824398800012, -0.8035972459999086, 0.0], [100.67827974200006, -0.8036218889998941, 0.0], [100.67831629900006, -0.8036341339999284, 0.0], [100.67838888500003, -0.8036523739999263, 0.0], [100.67844951900007, -0.8036783199999484, 0.0], [100.67849984200006, -0.8037144629999118, 0.0], [100.6785464800001, -0.8037687709999712, 0.0], [100.67858778200005, -0.8038287729999698, 0.0], [100.67864075700008, -0.8039394149999699, 0.0], [100.67870090900009, -0.8042611359999382, 0.0], [100.67887634500003, -0.8048805359999512, 0.0], [100.67900738200004, -0.805218606999937, 0.0], [100.67909083600001, -0.805289221999912, 0.0], [100.67915823900009, -0.8053668749999484, 0.0], [100.67923617300005, -0.8054634369999435, 0.0], [100.6793236870001, -0.8055672589999208, 0.0], [100.67951411600005, -0.8058012239999153, 0.0], [100.67973529700005, -0.8061229259999745, 0.0], [100.67974380500004, -0.806168857999963, 0.0], [100.67973932700004, -0.8062050339999302, 0.0], [100.67971171400005, -0.8062493289999573, 0.0], [100.67921919400007, -0.806584245999952, 0.0], [100.67891139700001, -0.8067612999999533, 0.0], [100.6784306800001, -0.8069756729999227, 0.0], [100.67836141000006, -0.8069771469999631, 0.0], [100.67802173100003, -0.8068426540000273, 0.0], [100.67734470500005, -0.806590511999935, 0.0], [100.67724215200009, -0.8067417509999314, 0.0], [100.67709523900001, -0.8068924889999753, 0.0], [100.6769277600001, -0.8069879919999615, 0.0], [100.67602787900007, -0.8074447029999187, 0.0], [100.67596067500003, -0.8074753909999765, 0.0], [100.67590886400009, -0.807509590999966, 0.0], [100.67555802400001, -0.8078583359999422, 0.0], [100.67535331600004, -0.8081127119999396, 0.0], [100.67522603600008, -0.8081655129999608, 0.0], [100.67450014600006, -0.8083314899999262, 0.0], [100.67395147000005, -0.8084840969999517, 0.0], [100.673529085, -0.8086326669998933, 0.0], [100.67335497900008, -0.8087230779999947, 0.0], [100.67284089700009, -0.8090466689999559, 0.0], [100.6723621550001, -0.8093538309999692, 0.0], [100.67200408000012, -0.8095446449999403, 0.0], [100.67150083600005, -0.809742017999929, 0.0], [100.67047700900007, -0.8100841499999885, 0.0], [100.67010685700009, -0.8102543419999602, 0.0], [100.66967184000006, -0.8104878439999941, 0.0], [100.66955296400009, -0.8105453439999558, 0.0], [100.66940329300004, -0.8105964449999198, 0.0], [100.66879209600012, -0.8107229440000041, 0.0], [100.66831339300002, -0.8108422210000147, 0.0], [100.66812250000004, -0.8108957469999948, 0.0], [100.66802232100011, -0.8109179269999722, 0.0], [100.66791119600005, -0.810927700999973, 0.0], [100.66753439700005, -0.8109436619999738, 0.0], [100.66698631300008, -0.8109982459999456, 0.0], [100.66662931000005, -0.8110364330000062, 0.0], [100.66593129800002, -0.8111166379998976, 0.0], [100.66557624600003, -0.8111752539999454, 0.0], [100.66542938900005, -0.8112227999999703, 0.0], [100.66532069400004, -0.8112597049999106, 0.0], [100.66513731500004, -0.8113237199999739, 0.0], [100.6650196600001, -0.8113311709999664, 0.0], [100.6645218660001, -0.8113894139999902, 0.0], [100.66413933700007, -0.8114699409998962, 0.0], [100.66390932500005, -0.8115232559999608, 0.0], [100.66361087900005, -0.8115928499999489, 0.0], [100.66350042600006, -0.8115967749999213, 0.0], [100.66339347800009, -0.8115880559999068, 0.0], [100.66315522700009, -0.8115404249999559, 0.0], [100.66268868400003, -0.8114268749999773, 0.0], [100.66238837800006, -0.8112624989999649, 0.0], [100.66201629700001, -0.8110686979999129, 0.0], [100.66182758100011, -0.810933122999896, 0.0], [100.66149952500005, -0.8105760429999325, 0.0], [100.66102311300007, -0.8099160659999435, 0.0], [100.66069953600004, -0.8095273300000118, 0.0], [100.66043443200003, -0.8093284819999933, 0.0], [100.66015878100005, -0.80911809399991, 0.0], [100.65997235400009, -0.8090391689999439, 0.0], [100.66001507900006, -0.8086685300000196, 0.0], [100.65998712400007, -0.8086123149999899, 0.0], [100.66000840000007, -0.8085193309999191, 0.0], [100.65989585500006, -0.8084946619999291, 0.0], [100.65984433400006, -0.8083550749999264, 0.0], [100.65970982300003, -0.8083690809999289, 0.0], [100.6594046100001, -0.8080562379999855, 0.0], [100.6593242170001, -0.8080169969999308, 0.0], [100.65921080800004, -0.8079773739999374, 0.0], [100.6590945170001, -0.8079436629998988, 0.0], [100.6589633820001, -0.8078818909999378, 0.0], [100.65886065800002, -0.8078237109999213, 0.0], [100.65863786700008, -0.8076616079999176, 0.0], [100.65861441500009, -0.8073848849999397, 0.0], [100.65868168000006, -0.807104507999921, 0.0], [100.65877588400012, -0.8067924699999511, 0.0], [100.65887458300004, -0.8064894729999342, 0.0], [100.65887901900004, -0.8063492959999604, 0.0], [100.65883403700005, -0.8061955759999502, 0.0], [100.65874862800008, -0.8060373499999193, 0.0], [100.65866773500005, -0.8059424269999585, 0.0], [100.65852396500006, -0.805874659999946, 0.0], [100.65837123100003, -0.8058521129999584, 0.0], [100.65808375900005, -0.8058793629999955, 0.0], [100.65765707400001, -0.8059971029999591, 0.0], [100.65725286300005, -0.8061510079999876, 0.0], [100.65688908400007, -0.8063184609998993, 0.0], [100.65662100300008, -0.8064850429999247, 0.0], [100.65622446600004, -0.8067799509999856, 0.0], [100.65571256600006, -0.8072232929998995, 0.0], [100.65536225600005, -0.8073726530000023, 0.0], [100.6547469330001, -0.807549253999948, 0.0], [100.65443250800011, -0.8075765129999835, 0.0], [100.65416747000002, -0.8075404479999293, 0.0], [100.65396529700008, -0.807450095000007, 0.0], [100.65376310300005, -0.8073100039999683, 0.0], [100.65353840000002, -0.8070478339999403, 0.0], [100.6533406180001, -0.8067087829999543, 0.0], [100.65326867500009, -0.8065279429999179, 0.0], [100.65321474900009, -0.8064737039999642, 0.0], [100.65306648800005, -0.8064059379999423, 0.0], [100.6529317210001, -0.8063833849999508, 0.0], [100.65274311400003, -0.8063873550000084, 0.0], [100.65247707700004, -0.8064125709999579, 0.0], [100.65233140400008, -0.8064594099999246, 0.0], [100.65194196900009, -0.80659515899988, 0.0], [100.65162674800004, -0.8066999479999433, 0.0], [100.65081386400001, -0.8069997499999669, 0.0], [100.65033053300007, -0.8072409609999419, 0.0], [100.65019047700012, -0.8073196169999592, 0.0], [100.6495449760001, -0.8076853299999384, 0.0], [100.64914795100002, -0.8078785849999319, 0.0], [100.6488312540001, -0.8080535899999451, 0.0], [100.64870154300003, -0.8080657389999639, 0.0], [100.6485038600001, -0.8080475089999737, 0.0], [100.64803510900005, -0.8079906399999738, 0.0], [100.64800190900006, -0.807980211000003, 0.0], [100.64795332600004, -0.8079571159999438, 0.0], [100.64792647700003, -0.8079416859999207, 0.0], [100.64785948700008, -0.8078535759999995, 0.0], [100.64778327400008, -0.8077937489999361, 0.0], [100.64767065600009, -0.8077518719999328, 0.0], [100.647170412, -0.807659895999957, 0.0], [100.646724012, -0.8075634029999712, 0.0], [100.64621436700013, -0.8073604309999707, 0.0], [100.64600518800005, -0.8072814309999921, 0.0], [100.64576290800007, -0.8071259669999287, 0.0], [100.6455978720001, -0.8070429859999018, 0.0], [100.645468958, -0.8070194449999955, 0.0], [100.6453585670001, -0.8070181349999703, 0.0], [100.64506353400012, -0.8070454610000107, 0.0], [100.64502238700008, -0.8070454779999278, 0.0], [100.64497795500004, -0.8070269699999124, 0.0], [100.64471533400008, -0.8068672959999234, 0.0], [100.64460109800004, -0.8068523439999378, 0.0], [100.64451542700007, -0.806852377999933, 0.0], [100.64447379100008, -0.8068457149999226, 0.0], [100.64444148500007, -0.8068265029999293, 0.0], [100.64438987300007, -0.8067784349999428, 0.0], [100.64432655400006, -0.8067230039998918, 0.0], [100.6442409010001, -0.8066512119999951, 0.0], [100.64390923500008, -0.8064713349999354, 0.0], [100.6435755750001, -0.8063270469999886, 0.0], [100.64331311100005, -0.8062471749999479, 0.0], [100.64295554700004, -0.8061990229999666, 0.0], [100.64272822300006, -0.8061518489999704, 0.0], [100.64265404200006, -0.8061162669999609, 0.0], [100.64261359100009, -0.8060575009999844, 0.0], [100.64261492500002, -0.8059243909999797, 0.0], [100.64264124100006, -0.8057667919999056, 0.0], [100.64263945100001, -0.8056352369999497, 0.0], [100.64261825100003, -0.805491581999961, 0.0], [100.64254051900008, -0.8052953439999798, 0.0], [100.64243259100003, -0.8051446529999506, 0.0], [100.64232960500004, -0.8050035479999115, 0.0], [100.64217889100009, -0.8048157979999198, 0.0], [100.64207221000005, -0.8045843719999495, 0.0], [100.64207084800003, -0.8045652909999754, 0.0], [100.64208010700008, -0.8045169049999724, 0.0], [100.64211425300007, -0.8044468939999546, 0.0], [100.64219504600001, -0.8042840709998829, 0.0], [100.64222158700007, -0.8041502039999077, 0.0], [100.64222154500007, -0.8040442749999418, 0.0], [100.64221848000008, -0.8038960239999378, 0.0], [100.64220869000007, -0.8037393389999409, 0.0], [100.6421585730001, -0.803542448999985, 0.0], [100.64211916300003, -0.8033167309999645, 0.0], [100.64203991700005, -0.8029937599999772, 0.0], [100.6420049880001, -0.8028124919998928, 0.0], [100.64197337800005, -0.8026753369999147, 0.0], [100.64195513900005, -0.8025576269999406, 0.0], [100.64195389000012, -0.802445763000015, 0.0], [100.64196738700011, -0.8023745219999814, 0.0], [100.642009247, -0.8022796109999405, 0.0], [100.64205101700009, -0.8021690979999486, 0.0], [100.6420705150001, -0.8020259600000171, 0.0], [100.64206881900013, -0.8019165149999288, 0.0], [100.64206137800005, -0.8017574839999175, 0.0], [100.6420511890001, -0.8015137609999976, 0.0], [100.642051129, -0.8013660669999444, 0.0], [100.64205496400007, -0.8012515989999761, 0.0], [100.64207625300013, -0.801154981999985, 0.0], [100.64211284200005, -0.8010604869999777, 0.0], [100.64216682400007, -0.8009857069999093, 0.0], [100.64221284500006, -0.8009599439999158, 0.0], [100.64231517800009, -0.8009419849999365, 0.0], [100.64250571100004, -0.8009363489999102, 0.0], [100.64264909900001, -0.8009348219999707, 0.0], [100.64279322800013, -0.8009298689999222, 0.0], [100.64290733300005, -0.8009040819999096, 0.0], [100.64302661700006, -0.8008415809998899, 0.0], [100.64310409000008, -0.8007244899999787, 0.0], [100.64311155700008, -0.8005906100000052, 0.0], [100.64308300200011, -0.8004647749999818, 0.0], [100.64303887600002, -0.8003961869999076, 0.0], [100.64294169300005, -0.8002360039999634, 0.0], [100.64289756800005, -0.8001134229999459, 0.0], [100.64289517300003, -0.8000688009999838, 0.0], [100.64290106500007, -0.8000402729999404, 0.0], [100.64291178100007, -0.8000235559998853, 0.0], [100.64295005200003, -0.8000368440000046, 0.0], [100.64300767900001, -0.8000704629999499, 0.0], [100.64308574500008, -0.8001236959999211, 0.0], [100.6431837810001, -0.8002019009999911, 0.0], [100.64332057100005, -0.8002514989999153, 0.0], [100.64344327400008, -0.8002423999999617, 0.0], [100.64355900400007, -0.8001672709999708, 0.0], [100.64364555200002, -0.8000473709999111, 0.0], [100.64368737800002, -0.7999082229999452, 0.0], [100.64368522500011, -0.7997651959999245, 0.0], [100.6435422760001, -0.7993536539999644, 0.0], [100.64333401500001, -0.7990802199999092, 0.0], [100.643219054, -0.7989550849999528, 0.0], [100.6427629660001, -0.7985404490000123, 0.0], [100.64266119600003, -0.7984316009999756, 0.0], [100.6426008810001, -0.7983308889998942, 0.0], [100.64257357300006, -0.7982298719999881, 0.0], [100.64257163000008, -0.7981462729998982, 0.0], [100.64258643000008, -0.7981089829999285, 0.0], [100.64260373900008, -0.7980911579999632, 0.0], [100.64262389400005, -0.7980872849999119, 0.0], [100.64270030300007, -0.7981078329999138, 0.0], [100.6428574560001, -0.7981435839999514, 0.0], [100.64298919300008, -0.7981738889999688, 0.0], [100.64312734200006, -0.7981825199999768, 0.0], [100.64329630200008, -0.798166792000005, 0.0], [100.64341305900007, -0.7980517719999825, 0.0], [100.64347321100007, -0.7979260679998891, 0.0], [100.64348827100007, -0.7977642939999203, 0.0], [100.64347634300006, -0.79763478299995, 0.0], [100.64341306100006, -0.7974869259999781, 0.0], [100.64333681400007, -0.79737458099991, 0.0], [100.64325452700011, -0.7972872969999746, 0.0], [100.64319967700008, -0.7972133649999903, 0.0], [100.64318952100004, -0.7971991069999569, 0.0], [100.64317154300007, -0.79717198399993, 0.0], [100.64315356800009, -0.7971539039999509, 0.0], [100.64313559600002, -0.797144867999997, 0.0], [100.64282113300003, -0.7970771669999108, 0.0], [100.64251565600007, -0.797013986000015, 0.0], [100.64102863300005, -0.7965397949999375, 0.0], [100.63986507000004, -0.7961649529999192, 0.0], [100.63817140900007, -0.7956727559999686, 0.0], [100.63752449500001, -0.7954921429999461, 0.0], [100.63668893600007, -0.7953523010000079, 0.0], [100.63621278000001, -0.7953298829999306, 0.0], [100.63602862300006, -0.7953661309999999, 0.0], [100.63582202900001, -0.7954566489999373, 0.0], [100.6356846190001, -0.7955944589999752, 0.0], [100.63533281300003, -0.7964923360000197, 0.0], [100.63491092900004, -0.7974059059999292, 0.0], [100.63428709100002, -0.7987853029999342, 0.0], [100.63369011100009, -0.7999295559999235, 0.0], [100.63330855800005, -0.8005989369999852, 0.0], [100.63300329400002, -0.8010783689999477, 0.0], [100.63254530500005, -0.8015669069999475, 0.0], [100.63212771700006, -0.8019830809999235, 0.0], [100.63186277800007, -0.8022047559999645, 0.0], [100.63171907800009, -0.8023133359999032, 0.0], [100.63158355100006, -0.8023721989999716, 0.0], [100.63146862200006, -0.8023838149999472, 0.0], [100.63136631700011, -0.8024132840000031, 0.0], [100.63121428400007, -0.8024364459999535, 0.0], [100.63103625100007, -0.8024471499999627, 0.0], [100.63074292400005, -0.8024586869999366, 0.0], [100.63065133700012, -0.8024763729999725, 0.0], [100.63055952100007, -0.8025344589999822, 0.0], [100.63046653, -0.8025998649998969, 0.0], [100.63037047000006, -0.8026875099999515, 0.0], [100.63023800300002, -0.8028440299999307, 0.0], [100.63015037600005, -0.802945386999969, 0.0], [100.63009890800005, -0.8030145260000046, 0.0], [100.63003358000007, -0.8031088039999947, 0.0], [100.62997181800002, -0.8032352829999799, 0.0], [100.6299567010001, -0.8033229879999443, 0.0], [100.62994228300006, -0.8033833799999757, 0.0], [100.62994168600001, -0.8033843619999596, 0.0], [100.62992491500006, -0.8033939629999591, 0.0], [100.62989093000007, -0.8033988640000144, 0.0], [100.62981748400004, -0.8034019109999913, 0.0], [100.62973052300003, -0.8034097279999293, 0.0], [100.62964264000007, -0.8034353739999226, 0.0], [100.62955992700005, -0.803483293999892, 0.0], [100.62947824200003, -0.8035420789999609, 0.0], [100.629395119, -0.8036295429999178, 0.0], [100.62930652700004, -0.8037388299998899, 0.0], [100.62924153200008, -0.8038609589999621, 0.0], [100.62918546000006, -0.8039723009999434, 0.0], [100.62913980400002, -0.804079654999942, 0.0], [100.628989409, -0.804341393999921, 0.0], [100.62872839300007, -0.8047634249999296, 0.0], [100.62865015500009, -0.8048882329999596, 0.0], [100.62860273500007, -0.804980257999936, 0.0], [100.62854177200009, -0.8051247169999942, 0.0], [100.62850785800003, -0.8052126039999792, 0.0], [100.62847666500004, -0.8052951299999563, 0.0], [100.62842869800006, -0.8053599880000061, 0.0], [100.62840913200004, -0.805385700999994, 0.0], [100.62837095700009, -0.8054082759999988, 0.0], [100.62836317800006, -0.8054110039999535, 0.0], [100.62827257900003, -0.805418969999911, 0.0], [100.62820043100001, -0.8054240669999698, 0.0], [100.62810795899999, -0.8054385849999285, 0.0], [100.62801097300006, -0.80547930999992, 0.0], [100.62794108600004, -0.805517720000001, 0.0], [100.62784771200005, -0.8055967379999699, 0.0], [100.62780076500007, -0.8056440349999733, 0.0], [100.62775847000003, -0.805647498999987, 0.0], [100.62773581100002, -0.8056246309999625, 0.0], [100.62771538300011, -0.8055765219999727, 0.0], [100.6276572460001, -0.8054985569999138, 0.0], [100.62755514400008, -0.8054348189999689, 0.0], [100.62746758600012, -0.8054381189999806, 0.0], [100.62734933300001, -0.8054496859999676, 0.0], [100.6272449900001, -0.8054875469998927, 0.0], [100.62703722600013, -0.8056021859999745, 0.0], [100.62697178100004, -0.8056390359999093, 0.0], [100.62689424500012, -0.8057054319999799, 0.0], [100.62679222500012, -0.8058101519999402, 0.0], [100.6267361990001, -0.8059208009999537, 0.0], [100.62670800500007, -0.8060410839999641, 0.0], [100.62671218900006, -0.80618436399991, 0.0], [100.6268218760001, -0.806585965999915, 0.0], [100.62682188400008, -0.8066043449999275, 0.0], [100.62681590300011, -0.8066577119999083, 0.0], [100.62677051800009, -0.8067525249999405, 0.0], [100.62670671500005, -0.8068205119999595, 0.0], [100.62656701800003, -0.8069481569999594, 0.0], [100.62642001800005, -0.8071363269999805, 0.0], [100.62637805500003, -0.8072114939999817, 0.0], [100.62634302200007, -0.8072550949999557, 0.0], [100.62629881500006, -0.8072873129999485, 0.0], [100.62623090300012, -0.8073123019999772, 0.0], [100.62611004300007, -0.8073291319999402, 0.0], [100.62600397100007, -0.8073412319999717, 0.0], [100.62585655600004, -0.8073815989999418, 0.0], [100.62571362300012, -0.8074460369999432, 0.0], [100.62558160600013, -0.8075462199999648, 0.0], [100.6254567440001, -0.8076367959999177, 0.0], [100.6252106210001, -0.8078786929999465, 0.0], [100.62511416900008, -0.8079854209999766, 0.0], [100.62507068000005, -0.8080450169999468, 0.0], [100.62500273200001, -0.8081535389999513, 0.0], [100.62496898800006, -0.8082321809999674, 0.0], [100.62490930100012, -0.80857347499997, 0.0], [100.6248985110001, -0.808639995999969, 0.0], [100.62488154700011, -0.8086818799999718, 0.0], [100.62485339600009, -0.8087199939999149, 0.0], [100.62484441500006, -0.8087279969999539, 0.0], [100.62482457200011, -0.8087355639999599, 0.0], [100.62474985500005, -0.8087497849999882, 0.0], [100.62468226700007, -0.8087725049999959, 0.0], [100.62456078500013, -0.8088607839999393, 0.0], [100.62449555500007, -0.8089455869999328, 0.0], [100.62445235100004, -0.8090326489999496, 0.0], [100.62440760300008, -0.8091090409999635, 0.0], [100.62436205200002, -0.8091645929999333, 0.0], [100.62430342900007, -0.8092262839999783, 0.0], [100.62424356999999, -0.8092801719999048, 0.0], [100.62416194800008, -0.8093405569999232, 0.0], [100.62407615000009, -0.8093891829999569, 0.0], [100.62396488000012, -0.809450994000014, 0.0], [100.62385465900006, -0.8095072319999567, 0.0], [100.62374008700009, -0.809558693999955, 0.0], [100.62367457900008, -0.809583677999967, 0.0], [100.62356663100012, -0.8096582039999302, 0.0], [100.62350458600005, -0.8097342889999196, 0.0], [100.62346783800002, -0.8098497919999653, 0.0], [100.6234548190001, -0.8099681289999943, 0.0], [100.62346367000005, -0.8100938599999061, 0.0], [100.62348947500004, -0.810218623999936, 0.0], [100.62352821300004, -0.8103743389999324, 0.0], [100.62362028600003, -0.8107384799999526, 0.0], [100.6237446810001, -0.8111034699999594, 0.0], [100.62381523000008, -0.8114730929999885, 0.0], [100.62381659000002, -0.8115865979999639, 0.0], [100.6238166140001, -0.8116458539999748, 0.0], [100.62376784400007, -0.8116744449999459, 0.0], [100.62368751200009, -0.8117372049999065, 0.0], [100.62364933900004, -0.8117690989999576, 0.0], [100.62363465200006, -0.8117728679999221, 0.0], [100.62363324100004, -0.81177244199998, 0.0], [100.62358211800007, -0.8117359469999808, 0.0], [100.62322055099999, -0.8116666150000044, 0.0], [100.623105798, -0.8116649799999663, 0.0], [100.62301666000009, -0.8116667149999215, 0.0], [100.62290425500002, -0.81168501299994, 0.0], [100.62279726000006, -0.8117240519999588, 0.0], [100.62269814500011, -0.8117801139998996, 0.0], [100.62262948200002, -0.8118292729999697, 0.0], [100.62254840800007, -0.8119056179999857, 0.0], [100.62247659600008, -0.811996919999975, 0.0], [100.62241277200003, -0.8120977299999784, 0.0], [100.62224130100006, -0.812507932999987, 0.0], [100.62221147100009, -0.8125743229999781, 0.0], [100.6221559040001, -0.8126588939999593, 0.0], [100.6221097520001, -0.8127064499999869, 0.0], [100.62205348500007, -0.812745545999928, 0.0], [100.62201544500003, -0.8127569089999855, 0.0], [100.62191802200005, -0.812754745999975, 0.0], [100.6218413820001, -0.8127398029998967, 0.0], [100.62177215500006, -0.8127150359998874, 0.0], [100.62168388000003, -0.8126712919999205, 0.0], [100.62157266400007, -0.8126030169999535, 0.0], [100.62141017100004, -0.8125181119999467, 0.0], [100.62120863600006, -0.8124505719999418, 0.0], [100.62102959600008, -0.8124258479999401, 0.0], [100.62089143500002, -0.8124225139999341, 0.0], [100.62037744100003, -0.8124938869999755, 0.0], [100.62021845300002, -0.812500844999942, 0.0], [100.62006547500006, -0.8124982739999932, 0.0], [100.61975250800002, -0.8124276299999194, 0.0], [100.61960399200008, -0.8123819299999607, 0.0], [100.61945470700007, -0.8123612629999272, 0.0], [100.61930934600012, -0.8123665429999282, 0.0], [100.61917645500004, -0.8123936769999425, 0.0], [100.61906356800003, -0.8124156719998965, 0.0], [100.61891230500004, -0.8124104369999077, 0.0], [100.61871045200006, -0.8123993079999685, 0.0], [100.61859426400011, -0.8123779659998983, 0.0], [100.61845272000004, -0.8123625369999408, 0.0], [100.61832727200004, -0.8123533469999032, 0.0], [100.61820911800004, -0.8123506609999435, 0.0], [100.61814626700007, -0.8123375969999274, 0.0], [100.61809732000002, -0.8123194649999449, 0.0], [100.61806294700003, -0.8122878349999764, 0.0], [100.61804507000005, -0.8122575589999619, 0.0], [100.61794915800002, -0.8120983929999464, 0.0], [100.61787197500003, -0.812018534999901, 0.0], [100.61777440100003, -0.8119680739999128, 0.0], [100.61760205900008, -0.8119621679999502, 0.0], [100.61750842200006, -0.8119803329999509, 0.0], [100.61738916100005, -0.812008816999906, 0.0], [100.6173114380001, -0.8120345029999837, 0.0], [100.61723393000008, -0.8120389919999043, 0.0], [100.61711447300006, -0.8120331999999593, 0.0], [100.61707296700008, -0.8120156279999395, 0.0], [100.6170622590001, -0.8120062939999598, 0.0], [100.61704703700008, -0.8119800469999172, 0.0], [100.61700683000004, -0.811885725999934, 0.0], [100.61695219600004, -0.811797311999995, 0.0], [100.61685694700007, -0.811734294999929, 0.0], [100.61673800100009, -0.8116950539999649, 0.0], [100.61669308200001, -0.8116865949999698, 0.0], [100.6166210270001, -0.8116606299999506, 0.0], [100.61652746200008, -0.811634688999952, 0.0], [100.61640422200009, -0.8116086240000002, 0.0], [100.61631882800005, -0.8116014949999445, 0.0], [100.61623654000007, -0.8116032129999192, 0.0], [100.61589483500005, -0.8116296969999822, 0.0], [100.61582631000006, -0.8116297259999695, 0.0], [100.61576697400004, -0.8116238739999414, 0.0], [100.61569941900004, -0.8115919059999572, 0.0], [100.6156368570001, -0.8115474869999185, 0.0], [100.61555339200004, -0.8114829099999137, 0.0], [100.61547746500007, -0.8114437099999539, 0.0], [100.61537210200005, -0.8114119309999829, 0.0], [100.61528067800003, -0.8114141659999999, 0.0], [100.61513309900008, -0.8114370819999308, 0.0], [100.61506359000002, -0.8114546049999644, 0.0], [100.6149894380001, -0.811465466999971, 0.0], [100.61493003900006, -0.8114654909999731, 0.0], [100.61488201200008, -0.8114552859999373, 0.0], [100.61486484300009, -0.811447543999998, 0.0], [100.61480324200006, -0.8114036579999324, 0.0], [100.6147425520001, -0.8113640679999371, 0.0], [100.61458645000006, -0.8112785819999656, 0.0], [100.61452489000003, -0.8112502090000168, 0.0], [100.61447344700012, -0.8112119179999541, 0.0], [100.61458064900002, -0.8110572859999502, 0.0], [100.61468478300011, -0.8109708179999057, 0.0], [100.61482655400003, -0.8109053829999942, 0.0], [100.61500389000004, -0.8108213869999783, 0.0], [100.61519087600006, -0.810714366999905, 0.0], [100.6153309900001, -0.8106267009999436, 0.0], [100.61549804100008, -0.8105224359999309, 0.0], [100.61564084500007, -0.8104215799999366, 0.0], [100.61576077700005, -0.8103410199999382, 0.0], [100.61590290100008, -0.8102305119999431, 0.0], [100.61597091200012, -0.8101587339999411, 0.0], [100.61603025100005, -0.8100873339998936, 0.0], [100.61609905800006, -0.8099680349999815, 0.0], [100.61615798800005, -0.809838016999962, 0.0], [100.61619625900002, -0.8096933149999849, 0.0], [100.6162186650001, -0.8095380469999309, 0.0], [100.616247495, -0.8093722339999762, 0.0], [100.61626594600001, -0.8092719739999482, 0.0], [100.6162905210001, -0.8091673419999865, 0.0], [100.61641369200008, -0.8088208920000101, 0.0], [100.6164675540001, -0.8086851829999785, 0.0], [100.61661525000005, -0.8083670939999471, 0.0], [100.61671967800008, -0.8082424399999366, 0.0], [100.6168389840001, -0.8081299509999446, 0.0], [100.61695972100004, -0.8080212060000158, 0.0], [100.6170534880001, -0.807970219999967, 0.0], [100.61711072400001, -0.8079491449999163, 0.0], [100.61719610600007, -0.8079444019999609, 0.0], [100.61725818700005, -0.8079518759999675, 0.0], [100.61740285300003, -0.8079797579999533, 0.0], [100.61802486600007, -0.8080529099999687, 0.0], [100.61816490600003, -0.8080425389999185, 0.0], [100.61837924900009, -0.8079673169999878, 0.0], [100.61845513600007, -0.8079276179999095, 0.0], [100.61864532400007, -0.8078609409999866, 0.0], [100.6187798540001, -0.8078314459999403, 0.0], [100.6189139790001, -0.8077836299999797, 0.0], [100.61903547400001, -0.8077079339999346, 0.0], [100.61914086900003, -0.8076327919999345, 0.0], [100.6191909830001, -0.8075764729998941, 0.0], [100.61926442800005, -0.8074558269999497, 0.0], [100.61940059700004, -0.8071799719999506, 0.0], [100.61951163800009, -0.8070579359999851, 0.0], [100.61964161400007, -0.806979361999957, 0.0], [100.61977141100007, -0.8069215669999705, 0.0], [100.61990214400005, -0.8068227899999838, 0.0], [100.61999823100011, -0.8066833869999797, 0.0], [100.62000382900003, -0.8065485989999447, 0.0], [100.61999761600005, -0.8064275639999547, 0.0], [100.61998460600003, -0.8062971009999124, 0.0], [100.61998320400001, -0.8061774069999558, 0.0], [100.61999583200007, -0.806065157000001, 0.0], [100.62003083500004, -0.8059734339999619, 0.0], [100.62011631800002, -0.8058608229999569, 0.0], [100.62021198700002, -0.8057483729999885, 0.0], [100.62032347500009, -0.805607974999909, 0.0], [100.62045811900005, -0.8053474299999361, 0.0], [100.62052723300008, -0.8051694079999502, 0.0], [100.62064300500006, -0.8047424489999702, 0.0], [100.62063945200003, -0.8046644449999236, 0.0], [100.62063648700006, -0.8045512439999617, 0.0], [100.62063110700007, -0.8044357959999197, 0.0], [100.62065207900011, -0.8043387639999724, 0.0], [100.62068142900004, -0.8042577899999286, 0.0], [100.62069324900006, -0.8041483099999316, 0.0], [100.62066342300007, -0.8040443599999538, 0.0], [100.62063642100006, -0.8039968349999279, 0.0], [100.62061709600006, -0.803955809999912, 0.0], [100.62060873800007, -0.8039033539999101, 0.0], [100.62061109100009, -0.8038107039999811, 0.0], [100.62062909700008, -0.8037505029999622, 0.0], [100.62068164800007, -0.8036952149999324, 0.0], [100.6207399100001, -0.8036264469999276, 0.0], [100.62080388200006, -0.8035132279999742, 0.0], [100.62083351200002, -0.8034003659999587, 0.0], [100.62084794000006, -0.8033363439999934, 0.0], [100.62087868600011, -0.8032258179998946, 0.0], [100.62092318800006, -0.8031335759999002, 0.0], [100.62100133600005, -0.8030201379999322, 0.0], [100.6210834520001, -0.8029334109999573, 0.0], [100.62116561100005, -0.8028644309999379, 0.0], [100.62124917100004, -0.8027571499999387, 0.0], [100.6213197320001, -0.8026404769999625, 0.0], [100.62132780400006, -0.8025486349999104, 0.0], [100.621326104, -0.8024382479999336, 0.0], [100.62129526900013, -0.802290677999968, 0.0], [100.6212154400001, -0.8021855259999855, 0.0], [100.62114305800006, -0.8021248549999421, 0.0], [100.62108721900005, -0.8020605209999386, 0.0], [100.62108391600005, -0.8020142219999309, 0.0], [100.62109043800007, -0.8018978019998805, 0.0], [100.62117113600007, -0.8015234300000059, 0.0], [100.62117107500006, -0.8013683209999556, 0.0], [100.62116653100014, -0.8012194829999857, 0.0], [100.62115380000006, -0.8010480430000141, 0.0], [100.62117111400006, -0.8008905689999481, 0.0], [100.62121071600005, -0.8007322369999983, 0.0], [100.62127150800002, -0.8005665319999687, 0.0], [100.62147162600006, -0.8001632409999836, 0.0], [100.62154789000006, -0.8000402939999492, 0.0], [100.62160769900004, -0.7999577639999498, 0.0], [100.6216770770001, -0.7998943469999401, 0.0], [100.62176200200011, -0.7998283029999886, 0.0], [100.62187433000007, -0.7997151309999446, 0.0], [100.62193645500007, -0.7995881610000138, 0.0], [100.62196224700007, -0.7994779809999563, 0.0], [100.62201164100007, -0.7993456380000112, 0.0], [100.62205802100009, -0.7993068669999148, 0.0], [100.62214844000002, -0.7992471339999532, 0.0], [100.62223328000002, -0.7991707499999451, 0.0], [100.62230578500007, -0.7990396369999312, 0.0], [100.62232040800004, -0.7989307509999748, 0.0], [100.62232196900007, -0.7988421350000225, 0.0], [100.62231751700006, -0.7987237509999895, 0.0], [100.62231746000006, -0.798580286999937, 0.0], [100.62229412400008, -0.7984563859999773, 0.0], [100.6222417100001, -0.7983075969999305, 0.0], [100.62219906600004, -0.7981963879999606, 0.0], [100.62219466000002, -0.7981460879999827, 0.0], [100.62219601300005, -0.7981425229999568, 0.0], [100.62221213400005, -0.7981316949999442, 0.0], [100.62227381800008, -0.7981155269999408, 0.0], [100.62237539600005, -0.798080332999961, 0.0], [100.62249070000009, -0.7980247579999775, 0.0], [100.62259893100008, -0.7979347649999824, 0.0], [100.62266423400006, -0.7978494059999456, 0.0], [100.62272203100005, -0.7977345549999431, 0.0], [100.6228719740001, -0.7973742229999644, 0.0], [100.62295793400004, -0.797238901999968, 0.0], [100.62304640700006, -0.7971337019999606, 0.0], [100.62310126200008, -0.7970507979999468, 0.0], [100.62316263900009, -0.7970072099999803, 0.0], [100.62325514400001, -0.7969845529999746, 0.0], [100.62338414400003, -0.796930134999991, 0.0], [100.6234912470001, -0.7968941549999577, 0.0], [100.62359145900004, -0.7968329039999401, 0.0], [100.62375677900005, -0.7967159989999616, 0.0], [100.62382131300005, -0.7966321579999422, 0.0], [100.62401904700008, -0.7963593909999446, 0.0], [100.62406367700004, -0.7962389109999162, 0.0], [100.62410357400005, -0.796141265999918, 0.0], [100.62411741200003, -0.796109392999941, 0.0], [100.62415959600007, -0.7960640670000116, 0.0], [100.62422815500005, -0.7960346169999737, 0.0], [100.62429606000008, -0.7960113179999114, 0.0], [100.62439074200009, -0.7959725009998944, 0.0], [100.62449423400004, -0.7959108809999472, 0.0], [100.62462388300011, -0.7958269079999348, 0.0], [100.6247181370001, -0.7957436189999644, 0.0], [100.62478999100009, -0.7956527049999157, 0.0], [100.62483669400004, -0.7955715829999501, 0.0], [100.62487896000007, -0.7954893359999873, 0.0], [100.62494299000005, -0.7953785429999581, 0.0], [100.62499955700011, -0.7952976989999293, 0.0], [100.62507735800006, -0.7952161839999315, 0.0], [100.62517813500006, -0.7950116029999778, 0.0], [100.6252493480001, -0.7949242989999423, 0.0], [100.62531017500005, -0.7948931329999434, 0.0], [100.62540239200004, -0.794868593999959, 0.0], [100.62547373200009, -0.7948558969999806, 0.0], [100.6255889060001, -0.7948338309999226, 0.0], [100.62566317900004, -0.7948208650000018, 0.0], [100.62578256200005, -0.7948025620000035, 0.0], [100.62589548100007, -0.7947719749999635, 0.0], [100.62599500900005, -0.7947174329999765, 0.0], [100.62606063800006, -0.7946645369999525, 0.0], [100.62612252000012, -0.7946115469999223, 0.0], [100.62638886900004, -0.7943476119999213, 0.0], [100.62658037300008, -0.7941907769999204, 0.0], [100.62671469600009, -0.7941250289998982, 0.0], [100.62694429900009, -0.7940741979999458, 0.0], [100.62708716600008, -0.794040480000002, 0.0], [100.62723395400006, -0.7939872869999648, 0.0], [100.62735489700003, -0.7938989889999317, 0.0], [100.62742673900003, -0.7938080999999635, 0.0], [100.62747894500009, -0.7937344649999152, 0.0], [100.62756651000005, -0.79360892899992, 0.0], [100.62767028300001, -0.793315766999993, 0.0], [100.62770096900009, -0.7931870249999114, 0.0], [100.62771764500012, -0.793120881999945, 0.0], [100.62775613900001, -0.7930124849999401, 0.0], [100.6277840970001, -0.7929426059999477, 0.0], [100.62783254700012, -0.7928423939999054, 0.0], [100.62785172300002, -0.7927576270000003, 0.0], [100.62785709500011, -0.7926937599999521, 0.0], [100.62786420600007, -0.7925736779999688, 0.0], [100.62787038000005, -0.7925008349999847, 0.0], [100.62789939400005, -0.7924090529999278, 0.0], [100.62793057000006, -0.7923502929999563, 0.0], [100.62798000100007, -0.7922745459999139, 0.0], [100.6283260180001, -0.7919403549999714, 0.0], [100.62843286000005, -0.7918252189999453, 0.0], [100.62852830400004, -0.7917031759999692, 0.0], [100.628597626, -0.7916140719999664, 0.0], [100.62867964200004, -0.7915080039999892, 0.0], [100.62887300000006, -0.7912158059999701, 0.0], [100.62892814700008, -0.7911046639999182, 0.0], [100.62895790500006, -0.790998941999962, 0.0], [100.62896388900002, -0.7909214539999577, 0.0], [100.62898520600002, -0.7908416160000008, 0.0], [100.62900713400006, -0.7907885789999712, 0.0], [100.62904189300008, -0.7906992009999466, 0.0], [100.62907027400003, -0.7906282619999357, 0.0], [100.6291075570001, -0.790552027999931, 0.0], [100.62914927400008, -0.7904830599999251, 0.0], [100.62918619000003, -0.7904354099999781, 0.0], [100.6293105000001, -0.7902492829999412, 0.0], [100.62938187200005, -0.7901784489999298, 0.0], [100.62946543300005, -0.7901110999999559, 0.0], [100.62954931600005, -0.7900520599999687, 0.0], [100.62964030800003, -0.7899909349999713, 0.0], [100.62976189300008, -0.7899149939999821, 0.0], [100.62988883700008, -0.7898181769999698, 0.0], [100.62999548900002, -0.7897543769999319, 0.0], [100.63011613700006, -0.7896964809999335, 0.0], [100.63025529900003, -0.7896334959999651, 0.0], [100.63073685000008, -0.7894253459999735, 0.0], [100.63089543100006, -0.7893383099999624, 0.0], [100.63101428400003, -0.7892364099999754, 0.0], [100.63112113000008, -0.7891467069999212, 0.0], [100.63122618200006, -0.7890592789999693, 0.0], [100.63132906000006, -0.7889943570000189, 0.0], [100.6318052070001, -0.7887057809999446, 0.0], [100.63191983100009, -0.7886047409999426, 0.0], [100.6321046620001, -0.7884918409999132, 0.0], [100.63222288700011, -0.7884167979999319, 0.0], [100.63235090200004, -0.7883434379999902, 0.0], [100.63247155500008, -0.7882753559999521, 0.0], [100.6327250410001, -0.7881180989999992, 0.0], [100.63280151700012, -0.7880379059999348, 0.0], [100.63283909900012, -0.787958172999903, 0.0], [100.63283906400002, -0.7878688639999697, 0.0], [100.63284361700005, -0.7875822879999828, 0.0], [100.6328560480001, -0.7874955129999981, 0.0], [100.6328818800001, -0.7874126619999715, 0.0], [100.6328936580001, -0.7873443029999257, 0.0], [100.63289496300003, -0.7872191989999612, 0.0], [100.632850568, -0.7869245259999095, 0.0], [100.63283371300011, -0.7868346819999339, 0.0], [100.63281441100011, -0.7867734589999376, 0.0], [100.632780768, -0.7867058009999303, 0.0], [100.63272873500004, -0.7866212549999592, 0.0], [100.63269867800004, -0.7865849829999741, 0.0], [100.63264907200002, -0.7864513019999357, 0.0], [100.6326477600001, -0.7864283809999933, 0.0], [100.63265001200001, -0.7863926769999562, 0.0], [100.63266206400003, -0.7863639109999793, 0.0], [100.63267316200006, -0.7863496799999562, 0.0], [100.63274099000009, -0.7862999799999287, 0.0], [100.63279837800003, -0.7862598589998924, 0.0], [100.63288485800008, -0.7862002499999406, 0.0], [100.63297668900005, -0.7861504249999903, 0.0], [100.63300580900007, -0.7861450859999939, 0.0], [100.63306690800006, -0.7861470099999698, 0.0], [100.633107173, -0.7861524069999816, 0.0], [100.63318506400006, -0.7861470219999791, 0.0], [100.63328053200006, -0.7861029969999703, 0.0], [100.6333572720001, -0.7860408459999014, 0.0], [100.6334143060001, -0.7859710889998883, 0.0], [100.63350471500003, -0.7858516089999583, 0.0], [100.63355260800009, -0.7857988659999473, 0.0], [100.63363511400007, -0.7857119729999525, 0.0], [100.63372093600007, -0.785590664999948, 0.0], [100.6337953280001, -0.7854644979999853, 0.0], [100.633861826, -0.7853404219999346, 0.0], [100.63394082700006, -0.7851700079999687, 0.0], [100.63409234400007, -0.7847555059999477, 0.0], [100.63412602700002, -0.7846627069999175, 0.0], [100.63416359300001, -0.7845912279999412, 0.0], [100.63448611700005, -0.7841221239999446, 0.0], [100.63480755400009, -0.7837363880000104, 0.0], [100.63506488300007, -0.783433606999912, 0.0], [100.63515840300008, -0.7832959629999812, 0.0], [100.63518717700008, -0.7832684579999276, 0.0], [100.6351949460001, -0.7832648709999847, 0.0], [100.63522388500009, -0.7832573659998854, 0.0], [100.63523602600013, -0.7832556959999387, 0.0], [100.63529289700001, -0.7832593649999616, 0.0], [100.63533819100003, -0.7832707479999393, 0.0], [100.63547150800005, -0.7833179789999395, 0.0], [100.63554883000006, -0.7833224339999469, 0.0], [100.63563674500004, -0.7833223999999526, 0.0], [100.63572947300008, -0.7833235769999481, 0.0], [100.63580130700008, -0.7833221819999202, 0.0], [100.63587463600003, -0.7833088679999766, 0.0], [100.63594123600011, -0.7832860439999605, 0.0], [100.6362686030001, -0.7831689119999385, 0.0], [100.63630112200003, -0.7830705759999789, 0.0], [100.636336154, -0.7830238669999382, 0.0], [100.63637861400005, -0.7829867939999846, 0.0], [100.63645220100001, -0.7828961739999389, 0.0], [100.63652551700004, -0.782783025999901, 0.0], [100.636571266, -0.7826971819998998, 0.0], [100.63662941000011, -0.7825645779999505, 0.0], [100.63666959200006, -0.782451195999976, 0.0], [100.63669629700006, -0.782294255999959, 0.0], [100.63671106500003, -0.782122520999969, 0.0], [100.63672818600011, -0.7819654089999261, 0.0], [100.63683064100006, -0.7813041429999387, 0.0], [100.63683165800006, -0.7812352139999115, 0.0], [100.63680918500006, -0.7812035699999648, 0.0], [100.6367462850001, -0.7811674209999875, 0.0], [100.636598022, -0.781095129999964, 0.0], [100.63627452700005, -0.7809008199999539, 0.0], [100.63566798500005, -0.7805664449999968, 0.0], [100.63525020200004, -0.7804852159999383, 0.0], [100.63469322100005, -0.7805351739999912, 0.0], [100.6333906570001, -0.780797947999969, 0.0], [100.63271686100003, -0.7807891669999502, 0.0], [100.6323439620001, -0.7806174849999586, 0.0], [100.63208777600003, -0.7802422760000017, 0.0], [100.63181355700009, -0.7796952449999475, 0.0], [100.63158864800003, -0.7788859299999462, 0.0], [100.631557038, -0.7784563709999419, 0.0], [100.631588203, -0.7777283479999211, 0.0], [100.63153416200007, -0.7773711469999395, 0.0], [100.63135431100001, -0.7769235589999399, 0.0], [100.63113406500008, -0.776552855999997, 0.0], [100.63082849800011, -0.7762545359999291, 0.0], [100.63033879000011, -0.7760331579999976, 0.0], [100.62996138900004, -0.7758343439999664, 0.0], [100.62965582300008, -0.7755360239999877, 0.0], [100.62948052200005, -0.7752376519999018, 0.0], [100.62941300400006, -0.7748759339999949, 0.0], [100.62941276000004, -0.7742338369999744, 0.0], [100.62940326800005, -0.772904429999933, 0.0], [100.62942997400005, -0.7722577999999892, 0.0], [100.62959589000009, -0.7715071159999691, 0.0], [100.6297215470001, -0.7711995850000046, 0.0], [100.62986521200008, -0.7709960479999489, 0.0], [100.63010324200006, -0.7708829109999102, 0.0], [100.63039965100008, -0.7707245339999613, 0.0], [100.63045801400001, -0.7706385979999569, 0.0], [100.63047591200008, -0.7704577179999128, 0.0], [100.63046686000004, -0.7702768499999549, 0.0], [100.63039492200004, -0.7701005259999303, 0.0], [100.63019719200011, -0.769879034999987, 0.0], [100.6297074300001, -0.7695084349999726, 0.0], [100.62888517000009, -0.7688937839999231, 0.0], [100.62832791100007, -0.7682157279999487, 0.0], [100.62803123600013, -0.7676687019999752, 0.0], [100.6278828250001, -0.7672030129999912, 0.0], [100.62780176500006, -0.7666604259999658, 0.0], [100.62767587100005, -0.7663439469999741, 0.0], [100.62743318800003, -0.7660320349999222, 0.0], [100.62699734300011, -0.7656975869999673, 0.0], [100.62641324000002, -0.7652998909999151, 0.0], [100.62605375700011, -0.7649654129999611, 0.0], [100.62598181800011, -0.7647845689999949, 0.0], [100.6259817530001, -0.7646127399999929, 0.0], [100.626174824, -0.7643910969999571, 0.0], [100.62638140400006, -0.764259885999933, 0.0], [100.62654754100002, -0.7640879930000182, 0.0], [100.62664631100003, -0.7639477799999593, 0.0], [100.62676300200009, -0.7636809489999021, 0.0], [100.62687961700007, -0.7632151559999124, 0.0], [100.62694682500002, -0.7627584279999547, 0.0], [100.62703208900005, -0.7625368269999139, 0.0], [100.62714881600004, -0.7623694749999257, 0.0], [100.62724761800006, -0.7623151759999733, 0.0], [100.62746768600005, -0.7622156119999799, 0.0], [100.62764286600006, -0.7621974579999026, 0.0], [100.62775518300002, -0.7622471559999261, 0.0], [100.6278720230001, -0.7623782439999467, 0.0], [100.62814166000003, -0.7626991899999338, 0.0], [100.62833487700003, -0.7628664240000106, 0.0], [100.62853702800005, -0.7629025209999717, 0.0], [100.62864033000008, -0.7628708279999363, 0.0], [100.628793005, -0.7627351149999796, 0.0], [100.6288917580001, -0.76254968400001, 0.0], [100.62892313700011, -0.7623778430000043, 0.0], [100.62884799400003, -0.7621070229999759, 0.0], [100.62873432500004, -0.7619754739999244, 0.0], [100.62852305900006, -0.7615912009999241, 0.0], [100.628131808, -0.7603840269999727, 0.0], [100.62799238800002, -0.7599318979999465, 0.0], [100.62787533400011, -0.7592265399999443, 0.0], [100.62773591400011, -0.7587744109999237, 0.0], [100.62760108200007, -0.7585755029999799, 0.0], [100.627318018, -0.7583856939999931, 0.0], [100.62703499600013, -0.7583044079999341, 0.0], [100.62668012700007, -0.7582909769999815, 0.0], [100.62620398000011, -0.7582866359999733, 0.0], [100.62603775800004, -0.758232435999924, 0.0], [100.62583557300009, -0.7581059019999433, 0.0], [100.62553439000004, -0.7575091359999447, 0.0], [100.62496790000006, -0.7561528049998948, 0.0], [100.62482851300008, -0.755786589999976, 0.0], [100.62474303300012, -0.7554248759999854, 0.0], [100.62472940700005, -0.7550224399999933, 0.0], [100.62488199000006, -0.7546335059999606, 0.0], [100.6249446950001, -0.7541451259999603, 0.0], [100.62494447100008, -0.7535392019999183, 0.0], [100.62484984600006, -0.7527479199999139, 0.0], [100.62482080200006, -0.7526205539999468, 0.0], [100.62539115200009, -0.7525861789999323, 0.0], [100.62555128300002, -0.7526013259999577, 0.0], [100.62565289800007, -0.7526074870000122, 0.0], [100.62574684200003, -0.7526277149999974, 0.0], [100.62584158300005, -0.7526611399999239, 0.0], [100.62594370800007, -0.7527149329999291, 0.0], [100.62604848800005, -0.7527857479999394, 0.0], [100.62614018000006, -0.7528779820000204, 0.0], [100.62622385700007, -0.7530073429999659, 0.0], [100.62631182100006, -0.7531393879999666, 0.0], [100.6265687440001, -0.753364517999947, 0.0], [100.62663962400009, -0.7533800039999904, 0.0], [100.62671557700007, -0.753383611999924, 0.0], [100.62680490300009, -0.7533707329999295, 0.0], [100.62690616500005, -0.7533456319998906, 0.0], [100.62704260700004, -0.7533640619999117, 0.0], [100.62724104200002, -0.7537071619999695, 0.0], [100.6272418400001, -0.7537085009999943, 0.0], [100.62732899500011, -0.7538079769999623, 0.0], [100.62741161100011, -0.7537923469999123, 0.0], [100.62750849200005, -0.7537906339999514, 0.0], [100.62760626100005, -0.7537990759999392, 0.0], [100.62777235500002, -0.7538461330000118, 0.0], [100.62784571700006, -0.7538620279999827, 0.0], [100.62793296500008, -0.75388438699997, 0.0], [100.62801094400007, -0.7539277210000017, 0.0], [100.62805650500009, -0.7539247129999422, 0.0], [100.62833727000005, -0.7538038329999748, 0.0], [100.62845752500004, -0.7537629049999625, 0.0], [100.62858190300004, -0.7537352189999778, 0.0], [100.62873113600004, -0.7537271679999263, 0.0], [100.62882270100006, -0.7537317459999642, 0.0], [100.62894718200006, -0.7537361189999674, 0.0], [100.62903901600002, -0.7537415219999705, 0.0], [100.62918208200004, -0.7537226229999187, 0.0], [100.62929057200006, -0.7536963679999674, 0.0], [100.629431642, -0.7536744669999176, 0.0], [100.62958431500002, -0.7536666509999962, 0.0], [100.62979821400005, -0.7536728129999607, 0.0], [100.62991943800004, -0.7537007919999774, 0.0], [100.63004860600007, -0.7537451809999163, 0.0], [100.63014982600001, -0.7538075799999171, 0.0], [100.63027772500001, -0.7538970009999533, 0.0], [100.6304675590001, -0.7540823869999169, 0.0], [100.63047110300003, -0.7540834840000172, 0.0], [100.63051819700013, -0.7540825509999358, 0.0], [100.6305512970001, -0.7540708349999431, 0.0], [100.63058209900007, -0.7540534879999344, 0.0], [100.63064777600009, -0.7539832679999815, 0.0], [100.63074301100006, -0.7539030330000026, 0.0], [100.63084352500005, -0.7538621629999082, 0.0], [100.63097063700006, -0.7538248539999387, 0.0], [100.63107214300003, -0.753813465999975, 0.0], [100.63114343400008, -0.7538084029999107, 0.0], [100.63124089000004, -0.7537698169999922, 0.0], [100.631262872, -0.7537523669999678, 0.0], [100.63128839300006, -0.7537009439999827, 0.0], [100.63130349500007, -0.7536611299999701, 0.0], [100.63132429700002, -0.7535688519999822, 0.0], [100.63134681800001, -0.7534828979999729, 0.0], [100.63140519000005, -0.7533466849999806, 0.0], [100.6314519780001, -0.7532420719999386, 0.0], [100.631504347, -0.7531218709999506, 0.0], [100.63162048300009, -0.7528567059999409, 0.0], [100.63166858900009, -0.7527597739999964, 0.0], [100.631720279, -0.7526411309999594, 0.0], [100.63176908700005, -0.7525304689999511, 0.0], [100.63183686100005, -0.7524140710000063, 0.0], [100.63189685400006, -0.7523209569999398, 0.0], [100.63198465800012, -0.7522307959999347, 0.0], [100.63204095300007, -0.752190550999973, 0.0], [100.63212439300004, -0.7521452829999701, 0.0], [100.63218421800012, -0.7521178859999255, 0.0], [100.63227113200011, -0.752099234999979, 0.0], [100.63240757900012, -0.7520976009999244, 0.0], [100.63251648300007, -0.752097559999925, 0.0], [100.63263743100003, -0.7520865699999872, 0.0], [100.63271718100006, -0.7520702359999699, 0.0], [100.63277568100003, -0.7520453429999628, 0.0], [100.63288646800004, -0.7520015929998842, 0.0], [100.63295701300011, -0.7519769829999793, 0.0], [100.63308810800002, -0.7519049339998888, 0.0], [100.63315995900011, -0.7518473219999116, 0.0], [100.63322407599999, -0.7518128679999034, 0.0], [100.63334457900002, -0.7517929099999471, 0.0], [100.63343220100008, -0.7517945359999919, 0.0], [100.63354802300006, -0.7518020679999887, 0.0], [100.63367254600007, -0.7518139589999101, 0.0], [100.63381418600007, -0.751829235999928, 0.0], [100.63396991900007, -0.7518652259999726, 0.0], [100.634306156, -0.7519807219999441, 0.0], [100.63470575600012, -0.752083589999923, 0.0], [100.63482581100001, -0.752100212999967, 0.0], [100.63492864300008, -0.7521099699999731, 0.0], [100.63499060300005, -0.7521112429999002, 0.0], [100.63509587800006, -0.7521020479999371, 0.0], [100.63531448500002, -0.7520414419999908, 0.0], [100.63544624700009, -0.7519804729999177, 0.0], [100.63554760800004, -0.7519186619999617, 0.0], [100.63566174700007, -0.7518258499999211, 0.0], [100.63577187600004, -0.7517236629999816, 0.0], [100.63589950500003, -0.7516147489999463, 0.0], [100.6361611870001, -0.751418559999972, 0.0], [100.63624032300007, -0.751384077999961, 0.0], [100.63635095100008, -0.7513800599999733, 0.0], [100.63646375600008, -0.7514065109999495, 0.0], [100.63658826800008, -0.7514809749999759, 0.0], [100.63669180400004, -0.7515606139999873, 0.0], [100.63679421200007, -0.7516397349999706, 0.0], [100.63692548700001, -0.7517507780000047, 0.0], [100.63707724200006, -0.7518888889998913, 0.0], [100.63744517900003, -0.7521711429999801, 0.0], [100.63753978900003, -0.7522268739999672, 0.0], [100.63767739900005, -0.7522946919999751, 0.0], [100.63779221900005, -0.752333170999961, 0.0], [100.63797870700003, -0.7523458949999469, 0.0], [100.63812645100008, -0.7523735469999406, 0.0], [100.63829411100009, -0.7523805109999724, 0.0], [100.63837734100005, -0.7523818810000009, 0.0], [100.63847490400005, -0.7523763869999963, 0.0], [100.63854485500006, -0.7523656149999866, 0.0], [100.63864866700003, -0.7523191209999659, 0.0], [100.63870200400001, -0.7522896959999213, 0.0], [100.63878874200007, -0.7522272769999975, 0.0], [100.63885776300002, -0.7521751259999401, 0.0], [100.63898918600005, -0.7520746809999924, 0.0], [100.63902971900004, -0.7519639439999729, 0.0], [100.63906950000003, -0.7517053709999767, 0.0], [100.63908266300005, -0.7513398139999256, 0.0], [100.63906189700003, -0.7511571409999998, 0.0], [100.63902448500005, -0.751063598999992, 0.0], [100.63894354500009, -0.7509789780000022, 0.0], [100.6388921100001, -0.7509161549999692, 0.0], [100.63884411600013, -0.7508017659999205, 0.0], [100.63882051400013, -0.7506865789999666, 0.0], [100.63881710300002, -0.7506251979999603, 0.0], [100.63881555000007, -0.7505272459999285, 0.0], [100.63881845600005, -0.7504310219999643, 0.0], [100.63881843700004, -0.7503809389999926, 0.0], [100.6388159040001, -0.7503547169999608, 0.0], [100.63879838200008, -0.7503159459999534, 0.0], [100.63873703400006, -0.7501356249999561, 0.0], [100.63874144300007, -0.7500891759999262, 0.0], [100.638767451, -0.750034486999931, 0.0], [100.63880994200005, -0.7500017749998825, 0.0], [100.63881224000006, -0.750000005999917, 0.0], [100.6389479030001, -0.7498955659999885, 0.0], [100.63899590700008, -0.7498480619999637, 0.0], [100.63906516300003, -0.7497922439999563, 0.0], [100.63914647200001, -0.7497433059999957, 0.0], [100.63924366000006, -0.7497124909999308, 0.0], [100.63934555300006, -0.7497042479999634, 0.0], [100.63948498400003, -0.7497078599999057, 0.0], [100.63961529400008, -0.7497156819999289, 0.0], [100.63969450800006, -0.7497172979999849, 0.0], [100.63976984700007, -0.7497130179999868, 0.0], [100.63980796400003, -0.7496979869998871, 0.0], [100.63984915600008, -0.7496709789999672, 0.0], [100.63988026500006, -0.7496427089999342, 0.0], [100.63989841900006, -0.7496158479999385, 0.0], [100.63991377500008, -0.7495842289998849, 0.0], [100.63992808000002, -0.7495462309999509, 0.0], [100.63993581700005, -0.7494954570000109, 0.0], [100.63993427200009, -0.7494425129999862, 0.0], [100.63993237500001, -0.7493009379999893, 0.0], [100.63995186900003, -0.7491763349999865, 0.0], [100.63997450600004, -0.7490411259999935, 0.0], [100.63998971200006, -0.7489879359999336, 0.0], [100.6400030840001, -0.7489220099998926, 0.0], [100.64000508600009, -0.7488510559999744, 0.0], [100.6399910270001, -0.7487938459999552, 0.0], [100.63997127600004, -0.7487414909999696, 0.0], [100.63995515000003, -0.7486637589999355, 0.0], [100.63995204900004, -0.7485678949999103, 0.0], [100.63996094100007, -0.748488072999963, 0.0], [100.63997893700005, -0.748390584999901, 0.0], [100.64000483600006, -0.7483045439999649, 0.0], [100.64002934700005, -0.7482408909999494, 0.0], [100.64006269600006, -0.748163949999973, 0.0], [100.64008691500003, -0.7481041169999978, 0.0], [100.64010123800004, -0.7480477149999554, 0.0], [100.64010346300006, -0.7479844259999497, 0.0], [100.64010529100003, -0.7479050539999614, 0.0], [100.64011668200008, -0.7478257579999703, 0.0], [100.64015750099999, -0.7477389069998824, 0.0], [100.64020873400005, -0.7476690839999665, 0.0], [100.64025484800005, -0.7476138149999325, 0.0], [100.64031229600002, -0.7475045779999543, 0.0], [100.640344451, -0.747444532999962, 0.0], [100.64038714500008, -0.7473828289999173, 0.0], [100.64042625600003, -0.7473250929999338, 0.0], [100.64047463000013, -0.7472643879999677, 0.0], [100.64051232700004, -0.7471821970000054, 0.0], [100.64052564800008, -0.7470880369999543, 0.0], [100.64053121000009, -0.7470102789999133, 0.0], [100.64055569800009, -0.7469148709999253, 0.0], [100.64060679200004, -0.7468304609999493, 0.0], [100.64064996000006, -0.7467635459999181, 0.0], [100.64068063600011, -0.7467017259999629, 0.0], [100.640718007, -0.7466452589998964, 0.0], [100.64076971500002, -0.7465748319999315, 0.0], [100.64087985500008, -0.74645933199997, 0.0], [100.64098155900005, -0.7463220449999868, 0.0], [100.64109396300003, -0.7461546919998979, 0.0], [100.64119210300007, -0.7460048689999421, 0.0], [100.64124119200004, -0.7459538609999816, 0.0], [100.64128436600006, -0.7459176259999252, 0.0], [100.64135733300006, -0.7459069580000137, 0.0], [100.64146045600006, -0.7459164379999004, 0.0], [100.64159019300006, -0.74592449699995, 0.0], [100.64165377000009, -0.7459354759999819, 0.0], [100.641733388, -0.7459550329999887, 0.0], [100.64181034800006, -0.7459706759999586, 0.0], [100.641916962, -0.7459955889999695, 0.0], [100.64197836400011, -0.7459999269999724, 0.0], [100.64203425400002, -0.7459969869999197, 0.0], [100.64210949900003, -0.7459834019999372, 0.0], [100.64218895600004, -0.7459655109999728, 0.0], [100.64225688700006, -0.745935869999913, 0.0], [100.64232940000002, -0.74588392299998, 0.0], [100.64242999000008, -0.7457959649999828, 0.0], [100.64270475500008, -0.7454433759999349, 0.0], [100.64296851300006, -0.7450372639999956, 0.0], [100.64321680300009, -0.744774822999953, 0.0], [100.643415475, -0.7446685609999462, 0.0], [100.6438203310001, -0.7445956209999522, 0.0], [100.6445684670001, -0.744487827999917, 0.0], [100.64504944800011, -0.7445234849999357, 0.0], [100.645848028, -0.7447079579999261, 0.0], [100.64673299900005, -0.7449439479999135, 0.0], [100.64724960200007, -0.7449616719999617, 0.0], [100.64773943500009, -0.7448450149999893, 0.0], [100.64794091800007, -0.7447523889999673, 0.0], [100.64812891300008, -0.7445618899999187, 0.0], [100.64832325900008, -0.7443042379999234, 0.0], [100.64849623, -0.7441159029999692, 0.0], [100.64861741000009, -0.7439900749999483, 0.0], [100.64873187000005, -0.7439166810000059, 0.0], [100.64890278100009, -0.7438618679999062, 0.0], [100.64903897800006, -0.7438405769999306, 0.0], [100.64919178200009, -0.7438367739999714, 0.0], [100.64937450600013, -0.7438497079999626, 0.0], [100.64958063000003, -0.7438933089999289, 0.0], [100.64974380200003, -0.7439343059999455, 0.0], [100.64990170600004, -0.743979401999959, 0.0], [100.64998912800007, -0.7440118899999756, 0.0], [100.65010161800005, -0.7440666869998985, 0.0], [100.65024841400003, -0.7441257299999894, 0.0], [100.65041049100003, -0.7441611999999812, 0.0], [100.65055612800009, -0.744171143999915, 0.0], [100.65069995700009, -0.7441778249999367, 0.0], [100.65079952600007, -0.7441715239999539, 0.0], [100.65088850900005, -0.7441517490000068, 0.0], [100.65108927500006, -0.7440607499999345, 0.0], [100.65121210200002, -0.7440672029999326, 0.0], [100.65131549900003, -0.7440781079999501, 0.0], [100.65137780000005, -0.7440721129999874, 0.0], [100.65144939200012, -0.7440564529999292, 0.0], [100.65154193900013, -0.7440461759998905, 0.0], [100.65164580400001, -0.7440550349999963, 0.0], [100.65174090500008, -0.7440932889999595, 0.0], [100.65181843500008, -0.7441452829999965, 0.0], [100.65188244300005, -0.744176804999943, 0.0], [100.65194901600006, -0.7441691470000209, 0.0], [100.651976264, -0.7440935459998929, 0.0], [100.65201481300008, -0.7440017179999273, 0.0], [100.65205988200007, -0.7438829389999736, 0.0], [100.65211379800012, -0.7437511529999851, 0.0], [100.65214364200008, -0.7436782049999969, 0.0], [100.65220365000009, -0.7435631319999733, 0.0], [100.65252180400002, -0.7431683709999863, 0.0], [100.65281537900006, -0.7429051199999741, 0.0], [100.65314365000005, -0.7426752529999647, 0.0], [100.65344773300006, -0.7422807039999179, 0.0], [100.65356257300007, -0.7420358399999842, 0.0], [100.65398619900013, -0.7411105789999002, 0.0], [100.65412483200005, -0.7406899049999236, 0.0], [100.65443300500006, -0.7401115739999332, 0.0], [100.65456940000006, -0.7399513869999164, 0.0], [100.65478477900002, -0.7398256649999913, 0.0], [100.65499633300006, -0.7397940579999503, 0.0], [100.65518178300002, -0.7398097519999245, 0.0], [100.65548481900004, -0.7399593979999671, 0.0], [100.65592212900007, -0.740286387999927, 0.0], [100.65668557000001, -0.740938914999909, 0.0], [100.65720486100007, -0.7412259589999428, 0.0], [100.65776047000013, -0.741450316999954, 0.0], [100.65841990300007, -0.7416380799999367, 0.0], [100.65953091100006, -0.7417231789999643, 0.0], [100.66067215800008, -0.7417227469999242, 0.0], [100.66136244700009, -0.7417780339999706, 0.0], [100.66215399200011, -0.7418703149999749, 0.0], [100.6626487220001, -0.7418922789999236, 0.0], [100.66289591000005, -0.7418601009999343, 0.0], [100.66337030900004, -0.7416914739999256, 0.0], [100.66378090400008, -0.7414867759999463, 0.0], [100.66407330900003, -0.7413595229999843, 0.0], [100.66428719300005, -0.7413020959999461, 0.0], [100.66447059900013, -0.741302024999945, 0.0], [100.6646699570001, -0.7413179919999279, 0.0], [100.66490522700012, -0.7414021279999647, 0.0], [100.6651046280001, -0.7415263809999316, 0.0], [100.66529608300003, -0.7417268409999233, 0.0], [100.66546521, -0.741902596999973, 0.0], [100.66567482900011, -0.741981575999948, 0.0], [100.66590309800007, -0.742003811999912, 0.0], [100.66604481700008, -0.7420042649999581, 0.0], [100.66629761700004, -0.7419911309999268, 0.0], [100.66655474800008, -0.7419997269999277, 0.0], [100.66675787400001, -0.7420409399998867, 0.0], [100.66701620800008, -0.7421757809999405, 0.0], [100.66729950100006, -0.7423513329998976, 0.0], [100.6677142240001, -0.7426210020000017, 0.0], [100.66795298400004, -0.7427611249999694, 0.0], [100.66825086500009, -0.7428240440000222, 0.0], [100.66840067100006, -0.7427889449999576, 0.0], [100.66849819800004, -0.7427048049999133, 0.0], [100.66863236900012, -0.7423189769999773, 0.0], [100.6687459670001, -0.7420031329999501, 0.0], [100.66883128100007, -0.7416656139999195, 0.0], [100.66889327500004, -0.7413904019999594, 0.0], [100.66896884800008, -0.7412437019999899, 0.0], [100.66912253300009, -0.7411128109999154, 0.0], [100.66933178100008, -0.7409589669998838, 0.0], [100.66955049200006, -0.7407663090000133, 0.0], [100.66973002100008, -0.7406512069999112, 0.0], [100.66987405, -0.7405667159999344, 0.0], [100.6700296650001, -0.7405007789998933, 0.0], [100.67019213000003, -0.7404180839998932, 0.0], [100.67031865900003, -0.7403388430000035, 0.0], [100.67045323900005, -0.7402600489999636, 0.0], [100.67065739700007, -0.7401713749999136, 0.0], [100.67070572900008, -0.7401484599999656, 0.0], [100.6708004110001, -0.7400724749999837, 0.0], [100.67089744200004, -0.7399956679999452, 0.0], [100.67096198600005, -0.7399426199999983, 0.0], [100.67100512800008, -0.7399051539999087, 0.0], [100.67105869600006, -0.739837317999977, 0.0], [100.6711137830001, -0.739755798999988, 0.0], [100.6711933400001, -0.7396501519999472, 0.0], [100.67126762000002, -0.7395628419999282, 0.0], [100.67133296300001, -0.7394831629998945, 0.0], [100.67140763800006, -0.7393904349999538, 0.0], [100.67146876800007, -0.7393151649999392, 0.0], [100.6715293330001, -0.7392312670000164, 0.0], [100.67160067500005, -0.7391706289999771, 0.0], [100.67172808900004, -0.7391025379999396, 0.0], [100.67179729700007, -0.7390742669999972, 0.0], [100.67187415900013, -0.7390440399999848, 0.0], [100.67197547100007, -0.7390175619999259, 0.0], [100.6720917200001, -0.7389933669999625, 0.0], [100.67218599600008, -0.7389834439999489, 0.0], [100.67229399600004, -0.7389873609999051, 0.0], [100.6723783250001, -0.739001818999948, 0.0], [100.67246565100004, -0.739031746999946, 0.0], [100.67265824000008, -0.7391184669999296, 0.0], [100.67270990400009, -0.7392353709999238, 0.0], [100.67272277000008, -0.7392526239999192, 0.0], [100.67277063300004, -0.7392834119999845, 0.0], [100.67281729600009, -0.7392939649999742, 0.0], [100.6728948190001, -0.7392977570000075, 0.0], [100.67297654600011, -0.739295334999986, 0.0], [100.67307895600008, -0.7392821169999596, 0.0], [100.67320658000006, -0.7392384189999037, 0.0], [100.67332805400007, -0.7391981689999475, 0.0], [100.67343981100008, -0.739150976999945, 0.0], [100.67357110200001, -0.7390826959999802, 0.0], [100.6736320890001, -0.739050212999963, 0.0], [100.67370600300009, -0.739011945999899, 0.0], [100.67380355800006, -0.7389913979999773, 0.0], [100.67389058000009, -0.7389862150000022, 0.0], [100.67396415800003, -0.7389924599999753, 0.0], [100.674061566, -0.7390378869999165, 0.0], [100.67412652200005, -0.7391359089999536, 0.0], [100.67415638000004, -0.7392352339999865, 0.0], [100.67424467800006, -0.7391989630000055, 0.0], [100.67436593200006, -0.7391428229999821, 0.0], [100.67441840500004, -0.7391088369999226, 0.0], [100.67444291800003, -0.739072749999956, 0.0], [100.67445425000008, -0.7390143289999196, 0.0], [100.67446200100001, -0.7389406719999566, 0.0], [100.67446197000001, -0.7388581559999734, 0.0], [100.67448482400003, -0.7387360029998995, 0.0], [100.67454059700003, -0.7386620779999176, 0.0], [100.67464713100006, -0.7385947309999266, 0.0], [100.67476193300004, -0.7385378059999357, 0.0], [100.67489720500005, -0.7384748929999606, 0.0], [100.67503370600006, -0.7384052519999846, 0.0], [100.67513659000005, -0.7383543079999294, 0.0], [100.675236898, -0.7383037669999308, 0.0], [100.6754785910001, -0.7383323369999885, 0.0], [100.67560433900012, -0.7383579919999794, 0.0], [100.67574768200008, -0.7384261829999368, 0.0], [100.67582928000007, -0.7384772489999888, 0.0], [100.67591965200009, -0.7385301349999146, 0.0], [100.67601052500008, -0.7385707479999969, 0.0], [100.67611923700008, -0.7386236469999282, 0.0], [100.67622313600006, -0.7386725209999826, 0.0], [100.67632518000008, -0.7387101379998916, 0.0], [100.67643308600003, -0.738753543999924, 0.0], [100.67653982000007, -0.7387781859999304, 0.0], [100.67677418700002, -0.7387496729999632, 0.0], [100.67729719300011, -0.7387556879999257, 0.0], [100.67776580000007, -0.7387434249999861, 0.0], [100.67814628000012, -0.7386989699999377, 0.0], [100.6782963670001, -0.7386524579999071, 0.0], [100.67847978600008, -0.7385416819999828, 0.0], [100.67862246300008, -0.7384400179999226, 0.0], [100.67878438800007, -0.7383421259999954, 0.0], [100.67893638400002, -0.7382628509999165, 0.0], [100.6791077730001, -0.7381818949999734, 0.0], [100.67930672900012, -0.7381038229999969, 0.0], [100.67950525800002, -0.7380230969999834, 0.0], [100.67965025100003, -0.7379667599999364, 0.0], [100.6798358120001, -0.7378941399999694, 0.0], [100.68004876900005, -0.7378466219999498, 0.0], [100.68022761900002, -0.7378465549999356, 0.0], [100.68043094200006, -0.7378553019999566, 0.0], [100.6806515490001, -0.7378622129999868, 0.0], [100.68080852600012, -0.7378673599999636, 0.0], [100.68099846600003, -0.7378672879999685, 0.0], [100.68121254600007, -0.7378586519999669, 0.0], [100.68139848599999, -0.7378366639999226, 0.0], [100.68160325000007, -0.737794341999976, 0.0], [100.681743113, -0.7377525139999705, 0.0], [100.68182977200007, -0.7376890159999607, 0.0], [100.68189501600004, -0.7375731959999627, 0.0], [100.68197338900005, -0.7374567349999175, 0.0], [100.68209186800009, -0.7373546959999192, 0.0], [100.6821811630001, -0.7372840149999362, 0.0], [100.6822316170001, -0.7372149319999893, 0.0], [100.68225122300004, -0.7371398449999039, 0.0], [100.68225799300006, -0.7370456489999214, 0.0], [100.68229050700009, -0.7368912989999467, 0.0], [100.68239210700006, -0.7366437389998916, 0.0], [100.68251611900011, -0.7364423349999238, 0.0], [100.6826009810001, -0.7363422800000028, 0.0], [100.68269608500007, -0.7362190999999293, 0.0], [100.68283222800005, -0.7361420939999527, 0.0], [100.68297963600008, -0.736144395999967, 0.0], [100.683074273, -0.7361753209999544, 0.0], [100.68313942800008, -0.7362198739999939, 0.0], [100.6831891090001, -0.7362818569999764, 0.0], [100.68323645900001, -0.7363321969999511, 0.0], [100.68329678900004, -0.7363619419999329, 0.0], [100.68340072800002, -0.736373975999947, 0.0], [100.68353818100012, -0.7363385939999487, 0.0], [100.68364253500005, -0.7362837369999499, 0.0], [100.68373468600002, -0.7362141059999581, 0.0], [100.68387100900011, -0.7360665939999139, 0.0], [100.68398611000005, -0.7359487769999492, 0.0], [100.68408390100006, -0.7358824559999622, 0.0], [100.68420562200001, -0.7357989299998895, 0.0], [100.68434321800002, -0.7357143109999023, 0.0], [100.68448108400005, -0.7356377369999638, 0.0], [100.68461980500008, -0.7355624689999529, 0.0], [100.68478102200001, -0.7354883109999503, 0.0], [100.68500477000005, -0.7353747029999614, 0.0], [100.68514400900001, -0.735321846999939, 0.0], [100.68526916500007, -0.7352769169999532, 0.0], [100.68542932000008, -0.7352077519999108, 0.0], [100.68583054300007, -0.7350831509999987, 0.0], [100.68632986200008, -0.7348364529999235, 0.0], [100.68716119000003, -0.7343374779999414, 0.0], [100.68762526300006, -0.7342022929999471, 0.0], [100.68809671700008, -0.7341569529999279, 0.0], [100.68853825400004, -0.7341643120000074, 0.0], [100.68926422400004, -0.7343070449999956, 0.0], [100.68988542100001, -0.7344573419999169, 0.0], [100.69033451200005, -0.7346528660000041, 0.0], [100.69087344500005, -0.7349462039999396, 0.0], [100.6909932500001, -0.7351192729999646, 0.0], [100.69104115300007, -0.7354567049999028, 0.0], [100.69100481300009, -0.7360109559999327, 0.0], [100.69094448200006, -0.7364300749998816, 0.0], [100.6907430430001, -0.7369303639998915, 0.0], [100.69047439500008, -0.7374374389999192, 0.0], [100.69009822000004, -0.7379580729999177, 0.0], [100.6898564530001, -0.7384516179999039, 0.0], [100.68969699400006, -0.7389173849999819, 0.0], [100.68971312200006, -0.739244689999986, 0.0], [100.68981992700012, -0.739518304999966, 0.0], [100.68998008300014, -0.7398109469999394, 0.0], [100.69026301600009, -0.740258611999935, 0.0], [100.69037520200004, -0.7406449049999241, 0.0], [100.69040195700003, -0.7408595269999133, 0.0], [100.69039672100004, -0.7411170849999089, 0.0], [100.69036689300006, -0.741594514999979, 0.0], [100.69038327000008, -0.7422327359999414, 0.0], [100.69038354800001, -0.7429629119999589, 0.0], [100.69044289200005, -0.7434604909999195, 0.0], [100.69051293300006, -0.7438012129999597, 0.0], [100.690615237, -0.7441365129999811, 0.0], [100.69082606200004, -0.7447003789999281, 0.0], [100.69099303400009, -0.7450309960000076, 0.0], [100.69119003000004, -0.7455622599999115, 0.0], [100.69124210200009, -0.7459388279999791, 0.0], [100.69122581000009, -0.7462219649999587, 0.0], [100.69116115000006, -0.7466570469998971, 0.0], [100.69117120599999, -0.7468137549999917, 0.0], [100.69122334000005, -0.7469839329999445, 0.0], [100.69129498100003, -0.7471039149999354, 0.0], [100.69143389800006, -0.7472827879999885, 0.0], [100.69157717800002, -0.7475183899999437, 0.0], [100.69166621100001, -0.747733792999908, 0.0], [100.69172172100008, -0.7479356109999099, 0.0], [100.69167188300013, -0.7482785009999556, 0.0], [100.69150219700003, -0.748712210999954, 0.0], [100.69133759400009, -0.7489658979999769, 0.0], [100.69096968700002, -0.7493321449999151, 0.0], [100.6905305540001, -0.7495673239999137, 0.0], [100.68997927500006, -0.7498025509999279, 0.0], [100.68932637600004, -0.7500000069999169, 0.0], [100.68887267000007, -0.7501861679999645, 0.0], [100.68853891200008, -0.7503675239999517, 0.0], [100.68835055800012, -0.7505758379999585, 0.0], [100.68806229000008, -0.7510739449999695, 0.0], [100.68782989900002, -0.7515888949999402, 0.0], [100.68755609700011, -0.7521044719999623, 0.0], [100.68743942800005, -0.7524119920000082, 0.0], [100.68736455800007, -0.7527653619999316, 0.0], [100.68726900300008, -0.7530948319999184, 0.0], [100.68716126000004, -0.7532531319999642, 0.0], [100.68699060000004, -0.7533255449999177, 0.0], [100.68670313900006, -0.7533618309999844, 0.0], [100.68643364300006, -0.7533935869999522, 0.0], [100.68623602800004, -0.7534569679999525, 0.0], [100.68591716400005, -0.753597263999923, 0.0], [100.68565106500004, -0.753819678999955, 0.0], [100.68556080800005, -0.754110980999976, 0.0], [100.68552980900006, -0.7543668449999226, 0.0], [100.68552984400006, -0.7544574899999696, 0.0], [100.68553120500007, -0.7545467259999733, 0.0], [100.68555254600008, -0.7547033659999629, 0.0], [100.68557731200008, -0.7548041289999544, 0.0], [100.68563213300008, -0.7549048099999334, 0.0], [100.68578946600005, -0.7551251649999571, 0.0], [100.68585973600008, -0.7552626979999795, 0.0], [100.68587327100005, -0.7553964279999444, 0.0], [100.68587330600005, -0.7554864579999215, 0.0], [100.68581882600007, -0.7556443249999268, 0.0], [100.68578154100001, -0.7557471569999927, 0.0], [100.6855206600001, -0.7560326909999999, 0.0], [100.68539476700008, -0.7561371429999432, 0.0], [100.68528302500006, -0.7562510599999529, 0.0], [100.68507650800004, -0.7565229209999715, 0.0], [100.68504919100008, -0.7565760059999274, 0.0], [100.68502605700012, -0.7566809979999912, 0.0], [100.68502323000006, -0.7567229309999087, 0.0], [100.68503436100009, -0.7568184379999056, 0.0], [100.68504801900006, -0.7568885909999402, 0.0], [100.68505647800006, -0.7569969689999307, 0.0], [100.685054736, -0.7570933599999213, 0.0], [100.68503452200011, -0.7572102089999146, 0.0], [100.68499883900009, -0.7573001079998903, 0.0], [100.68497805400006, -0.7573641809999402, 0.0], [100.68496849300006, -0.7574145589999448, 0.0], [100.68497938700007, -0.7574462669999823, 0.0], [100.68500048600005, -0.7574742749999126, 0.0], [100.68505651600006, -0.7575400269999328, 0.0], [100.68510715300008, -0.7576194949999242, 0.0], [100.68513390300006, -0.7577001409999505, 0.0], [100.68514172400009, -0.7578078139999687, 0.0], [100.68513381200006, -0.7579166459999124, 0.0], [100.68512958700006, -0.7579894959998974, 0.0], [100.6851267600001, -0.758056969999888, 0.0], [100.68512410000005, -0.7581341539999639, 0.0], [100.68512762700009, -0.7581988269999066, 0.0], [100.6851319150001, -0.7582197469999402, 0.0], [100.68519257500013, -0.7583342959999149, 0.0], [100.68526840000001, -0.7584598969999252, 0.0], [100.68534921700004, -0.7586274260000214, 0.0], [100.68537619300004, -0.7587416749999668, 0.0], [100.68537940600004, -0.7588312640000131, 0.0], [100.68539315500003, -0.7589402589999638, 0.0], [100.68542381600008, -0.7591571229999606, 0.0], [100.685428265, -0.7591722139999669, 0.0], [100.68547812300004, -0.7592602639999769, 0.0], [100.68553690700011, -0.7593489519999505, 0.0], [100.68559347000009, -0.7595033319999317, 0.0], [100.68561568100006, -0.7595632620000071, 0.0], [100.6857676690001, -0.7597925699999701, 0.0], [100.68621412, -0.7605331399999584, 0.0], [100.68680703400013, -0.7613124129999522, 0.0], [100.68754435300012, -0.7618764979999082, 0.0], [100.688193449, -0.7624633759999676, 0.0], [100.68838225100009, -0.7628386009999296, 0.0], [100.6885981, -0.7634579849999326, 0.0], [100.68869256600009, -0.7638151589999048, 0.0], [100.68892857900008, -0.764418185999972, 0.0], [100.68911064200003, -0.7646786329999432, 0.0], [100.68953309500009, -0.7652481969999066, 0.0], [100.69058467100005, -0.7665093239999803, 0.0], [100.69015740300004, -0.7666343299999234, 0.0], [100.6897639370001, -0.7666558929999389, 0.0], [100.68953170100006, -0.7666349319998904, 0.0], [100.68928053900007, -0.7665786319999415, 0.0], [100.68902610500005, -0.7665071799999761, 0.0], [100.68885323700006, -0.7664562779999358, 0.0], [100.68871021900013, -0.7664375569999883, 0.0], [100.68857611800004, -0.7664519669999333, 0.0], [100.68849379000007, -0.7664915359999235, 0.0], [100.68837568700006, -0.766594443000007, 0.0], [100.68803322300006, -0.7669468369999343, 0.0], [100.68783009600004, -0.7671344199999117, 0.0], [100.68771235500007, -0.7672352439999157, 0.0], [100.687565641, -0.7673358429999769, 0.0], [100.68735120500013, -0.7674396459999514, 0.0], [100.68716201200002, -0.7674700159999744, 0.0], [100.68696301200006, -0.7674779509999137, 0.0], [100.68662708900007, -0.7674742679999759, 0.0], [100.68620257400003, -0.7674254019999251, 0.0], [100.6860777670001, -0.7674024469999798, 0.0], [100.68603528300004, -0.7674013049999683, 0.0], [100.68599115400012, -0.7674102069999144, 0.0], [100.68594612800004, -0.7674231810000155, 0.0], [100.68586661300012, -0.7674664409999395, 0.0], [100.68562470400009, -0.7675956369999808, 0.0], [100.68537487400002, -0.7676933539999768, 0.0], [100.68512501500004, -0.7676402179999295, 0.0], [100.68499425900006, -0.7675847819999615, 0.0], [100.68498049700008, -0.7675835279999568, 0.0], [100.6849613460001, -0.7675856799999579, 0.0], [100.68492431600005, -0.7675936799999116, 0.0], [100.68483328700006, -0.7676411579999297, 0.0], [100.68478747000009, -0.7676850079999092, 0.0], [100.68475457600003, -0.7677148359998942, 0.0], [100.68469131200004, -0.7678090589999664, 0.0], [100.68459180300007, -0.7679195459999487, 0.0], [100.68447185700009, -0.767965878999966, 0.0], [100.68438666200007, -0.7679951099999965, 0.0], [100.68433586900004, -0.7680006140000051, 0.0], [100.6842261470001, -0.768020859999994, 0.0], [100.68351538800009, -0.7682094469999552, 0.0], [100.68346793000008, -0.7682263299999411, 0.0], [100.68345228700011, -0.7682390400000089, 0.0], [100.68343167500011, -0.7682651919999584, 0.0], [100.68322159400012, -0.7687084749999574, 0.0], [100.68293632700005, -0.769292041999916, 0.0], [100.68268806400003, -0.769700850999908, 0.0], [100.68260786800005, -0.7698087519999571, 0.0], [100.68256759000009, -0.7698633369999414, 0.0], [100.68252781300001, -0.7699401679999867, 0.0], [100.68254674900005, -0.7701236569999864, 0.0], [100.68235638100003, -0.770211476999961, 0.0], [100.68208495700013, -0.7703268939999228, 0.0], [100.68197551400004, -0.7703728499999116, 0.0], [100.68192518400005, -0.7703837320000011, 0.0], [100.6816681130001, -0.7704669099999667, 0.0], [100.68141742900005, -0.7704627499999703, 0.0], [100.68096085400002, -0.7706137599999499, 0.0], [100.6808640390001, -0.7706444609999896, 0.0], [100.68079720400007, -0.7706642849999522, 0.0], [100.68069521100007, -0.7706758689999373, 0.0], [100.68051632000001, -0.7706825309999454, 0.0], [100.6800964870001, -0.7707042099999681, 0.0], [100.67999288500005, -0.7707064689999725, 0.0], [100.67988174800008, -0.7707065129999717, 0.0], [100.67942148300003, -0.7706482319999508, 0.0], [100.679285023, -0.7706220080000009, 0.0], [100.67908029300013, -0.7705503109999347, 0.0], [100.67859491000011, -0.7703296049999642, 0.0], [100.67847356400002, -0.7702744279999301, 0.0], [100.67844475100011, -0.770267138999948, 0.0], [100.67842031400005, -0.7702779649999598, 0.0], [100.67840751200006, -0.7702998929999952, 0.0], [100.6783563030001, -0.7703876059999633, 0.0], [100.6783435, -0.7704095329999195, 0.0], [100.67832353000004, -0.7704164039999614, 0.0], [100.67829412300009, -0.7704150699999343, 0.0], [100.67818440200007, -0.7703658929999422, 0.0], [100.67811125300005, -0.770333108999993, 0.0], [100.67804500000008, -0.7703215580000048, 0.0], [100.67800667400012, -0.7703474919999366, 0.0], [100.67797524300009, -0.7703946579999255, 0.0], [100.6778896050001, -0.7704527679999441, 0.0], [100.67775399100007, -0.7705084409999384, 0.0], [100.6776791190001, -0.7705288819999374, 0.0], [100.67760670000006, -0.7705306119999958, 0.0], [100.67751338600006, -0.7705184649999703, 0.0], [100.67745607800003, -0.7704864529998869, 0.0], [100.67744111000003, -0.7704759629999987, 0.0], [100.67741780100006, -0.7704724359999662, 0.0], [100.6774043240001, -0.7704751549999288, 0.0], [100.67729785600008, -0.7705069559999874, 0.0], [100.67718680500005, -0.7704947259999481, 0.0], [100.67712646400011, -0.7704911029999245, 0.0], [100.67706820500008, -0.7704783819999389, 0.0], [100.67697001500005, -0.7704584039999622, 0.0], [100.67689643900009, -0.7704249309999519, 0.0], [100.67682475600012, -0.7703681679999627, 0.0], [100.67676200100007, -0.7702990260000172, 0.0], [100.67662670300007, -0.7700555509999369, 0.0], [100.6765863910001, -0.7699350789999186, 0.0], [100.67656727400004, -0.7698921930000088, 0.0], [100.67653107500006, -0.7698428649999354, 0.0], [100.67649864000003, -0.7697519069999581, 0.0], [100.6764897250001, -0.7696668789999354, 0.0], [100.67649075700011, -0.7695409719999954, 0.0], [100.67648843700007, -0.7695065909999051, 0.0], [100.67647876900008, -0.7694992490000063, 0.0], [100.676415692, -0.7694693959999371, 0.0], [100.67591156800005, -0.7691968039999365, 0.0], [100.67578111000009, -0.7691490199998968, 0.0], [100.67568497000003, -0.7691101409999723, 0.0], [100.6755945030001, -0.7690801259999672, 0.0], [100.67550911400005, -0.7690688310000054, 0.0], [100.67539532800005, -0.7690520629999639, 0.0], [100.67525897300006, -0.7690389899999456, 0.0], [100.67514733500005, -0.7690370289999587, 0.0], [100.67504171900002, -0.7690391119999577, 0.0], [100.67489519900008, -0.7690479649999683, 0.0], [100.67462640400002, -0.7691122209999658, 0.0], [100.67457564800009, -0.7691361639999941, 0.0], [100.67443494999999, -0.7692181579999379, 0.0], [100.67434305700003, -0.7692785399999593, 0.0], [100.67422695100001, -0.7693732319999764, 0.0], [100.67412847500003, -0.7694570749998949, 0.0], [100.67356260600012, -0.7700213339999484, 0.0], [100.67345510900012, -0.7701398709999832, 0.0], [100.67332339100005, -0.7702740489999929, 0.0], [100.67323430300004, -0.7703706989999867, 0.0], [100.67300872100012, -0.7706671380000067, 0.0], [100.67296592900004, -0.7707422739999186, 0.0], [100.67294478100007, -0.7707916329999154, 0.0], [100.67291140000006, -0.7709107139999972, 0.0], [100.67289680000009, -0.7710015739999704, 0.0], [100.67289552200008, -0.771158929999931, 0.0], [100.67290075700006, -0.771255712999947, 0.0], [100.67292646500006, -0.7714080359999352, 0.0], [100.67298520100003, -0.7715610489999896, 0.0], [100.67304627600004, -0.771707831999956, 0.0], [100.67313633500001, -0.7719776239998967, 0.0], [100.67326220000004, -0.7723399859999528, 0.0], [100.67330538300006, -0.7724653899999409, 0.0], [100.67332378500006, -0.7725744219999033, 0.0], [100.67332380900007, -0.7726364749999625, 0.0], [100.67333866700005, -0.7729056079999413, 0.0], [100.67332008900003, -0.7731468369999259, 0.0], [100.67327563700009, -0.7734159759999842, 0.0], [100.67305311500006, -0.7734200519999699, 0.0], [100.67291984400006, -0.7735639049999709, 0.0], [100.67285488300008, -0.7736433689999674, 0.0], [100.67261737200008, -0.7738593449999811, 0.0], [100.67250643000004, -0.7739402850000147, 0.0], [100.672362289, -0.77397842899998, 0.0], [100.67224537700011, -0.7740036959999403, 0.0], [100.67221254300006, -0.7740155189999365, 0.0], [100.67218826900009, -0.7740343839999078, 0.0], [100.67215991400005, -0.7740664099998849, 0.0], [100.67214727300006, -0.7740912449999946, 0.0], [100.67212032800006, -0.7742300419999208, 0.0], [100.67207718800005, -0.774327858999941, 0.0], [100.6719919270001, -0.7744889329999501, 0.0], [100.67194999900009, -0.7745608969999436, 0.0], [100.67184871500005, -0.7747221119999615, 0.0], [100.67178001000006, -0.7748355089999297, 0.0], [100.67173514600007, -0.7749063290000188, 0.0], [100.67166360000002, -0.7750167629999252, 0.0], [100.6715872400001, -0.7751181719999531, 0.0], [100.67152303800002, -0.7751720699999715, 0.0], [100.67141026700001, -0.7752672599999545, 0.0], [100.67133223000005, -0.775321306999975, 0.0], [100.67124605500003, -0.7753749759999715, 0.0], [100.67111103600004, -0.7754491839999887, 0.0], [100.67096411100005, -0.7755193199999392, 0.0], [100.67061169700011, -0.7756544629999194, 0.0], [100.67046488500004, -0.7757506129999723, 0.0], [100.67041550200004, -0.7758229810000058, 0.0], [100.67039270700013, -0.7759264239999557, 0.0], [100.67039274000003, -0.7760118070000005, 0.0], [100.67038232700006, -0.776095935999949, 0.0], [100.67036936800005, -0.7761598609999094, 0.0], [100.67036318500007, -0.7762147939999268, 0.0], [100.67035611100002, -0.7763396459999539, 0.0], [100.67034724900009, -0.7764697539999641, 0.0], [100.67033979700008, -0.7765525709999817, 0.0], [100.67032940200002, -0.776659182999914, 0.0], [100.67031587400008, -0.7767684319999039, 0.0], [100.67029195900004, -0.7769289299999431, 0.0], [100.67028381300007, -0.7771290059999875, 0.0], [100.67028603200008, -0.777181038999932, 0.0], [100.670389318, -0.7777763709999805, 0.0], [100.67051525400004, -0.7781923189999448, 0.0], [100.67077596200002, -0.7786489079999691, 0.0], [100.671059078, -0.7789743589999817, 0.0], [100.6712523720001, -0.7791163459999207, 0.0], [100.67138523000008, -0.7791664369999807, 0.0], [100.67153759500007, -0.7792090629999504, 0.0], [100.67169515200005, -0.7792680479999518, 0.0], [100.67185788600001, -0.7793422769999637, 0.0], [100.67200895100008, -0.7794298019999194, 0.0], [100.67214530500009, -0.7795111259999046, 0.0], [100.67230641800009, -0.7796086789999873, 0.0], [100.67241478800008, -0.7796926629999148, 0.0], [100.6724933020001, -0.7797699549999209, 0.0], [100.67258442300009, -0.7798556319999805, 0.0], [100.67264032200009, -0.7799814379999102, 0.0], [100.6726403650001, -0.7800881819999489, 0.0], [100.67263538800005, -0.7801561819998979, 0.0], [100.67264090600007, -0.7801774389999729, 0.0], [100.67265785300003, -0.7801976419999509, 0.0], [100.67265989900002, -0.7801995069999195, 0.0], [100.67266102300005, -0.7801991369999929, 0.0], [100.67288818000009, -0.7800430949999572, 0.0], [100.67303986600002, -0.7800461509999355, 0.0], [100.67313059800007, -0.7800937579999622, 0.0], [100.67329291500009, -0.7803073859999795, 0.0], [100.67340206400006, -0.7804267199999934, 0.0], [100.67349271200001, -0.7805494539999297, 0.0], [100.67357519600009, -0.7806870799999484, 0.0], [100.67357970200001, -0.7807232509999271, 0.0], [100.67357073300008, -0.780759428999984, 0.0], [100.67351685000006, -0.7808091889999216, 0.0], [100.67345586900008, -0.7808566699999386, 0.0], [100.67340933600005, -0.7808968539998972, 0.0], [100.67337922800004, -0.7810213339999864, 0.0], [100.67338144700004, -0.7811330109999816, 0.0], [100.67341612900007, -0.7812923069999304, 0.0], [100.673439962, -0.7814746709999206, 0.0], [100.6734540770001, -0.7817251259999438, 0.0], [100.67351191200001, -0.7818308769999056, 0.0], [100.6736172170001, -0.7818651249999847, 0.0], [100.67370650800002, -0.7818926319999503, 0.0], [100.67377772700007, -0.7819263349999894, 0.0], [100.67378092300005, -0.7822102439999373, 0.0], [100.67378261600003, -0.7823852829999534, 0.0], [100.67379454900004, -0.7825108739999378, 0.0], [100.67383279900008, -0.7826042769999403, 0.0], [100.6738575730001, -0.7826861039999674, 0.0], [100.67384882600008, -0.7830031860000009, 0.0], [100.67385063600005, -0.7835272899999329, 0.0], [100.67388799200003, -0.7838498879999765, 0.0], [100.67390889400009, -0.7839983669999162, 0.0], [100.67391926500005, -0.7840634459999797, 0.0], [100.67399450700006, -0.784196382999958, 0.0], [100.6740637410001, -0.7842851699999337, 0.0], [100.67412518600014, -0.7843633309999244, 0.0], [100.67424125900004, -0.7844648529999704, 0.0], [100.674369611, -0.7845860199999514, 0.0], [100.67436257400004, -0.7846669709999985, 0.0], [100.67435766000008, -0.7847683599999504, 0.0], [100.67435629500005, -0.7848557169999827, 0.0], [100.67426506300006, -0.7848870449999069, 0.0], [100.67416558000009, -0.784915699999969, 0.0], [100.67404818500006, -0.7849809619999498, 0.0], [100.67380132800005, -0.7851996149999265, 0.0], [100.67373290000008, -0.7852643749999483, 0.0], [100.67367594500007, -0.7853659059999164, 0.0], [100.67359955100008, -0.7854665129999809, 0.0], [100.67349179300003, -0.7855841209999408, 0.0], [100.67342897600008, -0.7857559719999435, 0.0], [100.67336619800002, -0.7860295599999452, 0.0], [100.67341581300005, -0.786542753999944, 0.0], [100.67349959100005, -0.7871374099999409, 0.0], [100.67352577000008, -0.7874992259999476, 0.0], [100.67353504000005, -0.787539588999905, 0.0], [100.67357883800013, -0.7876166739999011, 0.0], [100.67365391300002, -0.7876376339999422, 0.0], [100.67374235100006, -0.7876389079999624, 0.0], [100.67374581100009, -0.7876434769999747, 0.0], [100.67382542600009, -0.7880807219999236, 0.0], [100.67385395000007, -0.7881687919999233, 0.0], [100.67391153300012, -0.7882460140000013, 0.0], [100.674020678, -0.7882878189999081, 0.0], [100.67413543000008, -0.7882788859999736, 0.0], [100.67436427300001, -0.7881911079999899, 0.0], [100.6745671520001, -0.788140961999931, 0.0], [100.67468761500002, -0.7881437019999828, 0.0], [100.67472037200007, -0.7881477099999507, 0.0], [100.67472329900005, -0.7881502679998947, 0.0], [100.67475452700006, -0.788208981999958, 0.0], [100.67508528700007, -0.7886514679999811, 0.0], [100.67503583200006, -0.7888950279999656, 0.0]]]}}]}