{"type": "FeatureCollection", "features": [{"type": "Feature", "properties": {"name": "Kota Mojokerto"}, "geometry": {"type": "Polygon", "coordinates": [[[112.450843, -7.481747], [112.450454, -7.485485], [112.450412, -7.485786], [112.450307, -7.486542], [112.450307, -7.486542], [112.450237, -7.487042], [112.450221, -7.487172], [112.450125, -7.487984], [112.450036, -7.48873], [112.449986, -7.489154], [112.449905, -7.490686], [112.449986, -7.491537], [112.450182, -7.492257], [112.449852, -7.493264], [112.449776, -7.493439], [112.449776, -7.493439], [112.449776, -7.49344], [112.448822, -7.493151], [112.448497, -7.493053], [112.448426, -7.493031], [112.448276, -7.492986], [112.448062, -7.492942], [112.447604, -7.492797], [112.447248, -7.492684], [112.447243, -7.492682], [112.447112, -7.492618], [112.446743, -7.492438], [112.446517, -7.492243], [112.446368, -7.492114], [112.446349, -7.492098], [112.446352, -7.492094], [112.446621, -7.491715], [112.446696, -7.491611], [112.446635, -7.491594], [112.443788, -7.490787], [112.443789, -7.49059], [112.443804, -7.486768], [112.443756, -7.481858], [112.443756, -7.481858], [112.442707, -7.481815], [112.442039, -7.481755], [112.440921, -7.481674], [112.439872, -7.481615], [112.439834, -7.48163], [112.439779, -7.481652], [112.439464, -7.481777], [112.438856, -7.48192], [112.438669, -7.482087], [112.438645, -7.482109], [112.436544, -7.481719], [112.436443, -7.482487], [112.436504, -7.483225], [112.436403, -7.48389], [112.43616, -7.484297], [112.435784, -7.484734], [112.43529, -7.487542], [112.435221, -7.487526], [112.433464, -7.487111], [112.433459, -7.486093], [112.433677, -7.485854], [112.433519, -7.485356], [112.43357, -7.484837], [112.430082, -7.484121], [112.43041, -7.482688], [112.429651, -7.48266], [112.428294, -7.482349], [112.428624, -7.48128], [112.428652, -7.48046], [112.428605, -7.480488], [112.428486, -7.480558], [112.42803, -7.480825], [112.427198, -7.480942], [112.426454, -7.480925], [112.426452, -7.480925], [112.426451, -7.480925], [112.426339, -7.480966], [112.426337, -7.480966], [112.426198, -7.481737], [112.426004, -7.482144], [112.42598, -7.482194], [112.425922, -7.482276], [112.425778, -7.482479], [112.425398, -7.483016], [112.424939, -7.483637], [112.424808, -7.484042], [112.424782, -7.484123], [112.424616, -7.484697], [112.42459, -7.484745], [112.424102, -7.485645], [112.424127, -7.485906], [112.424164, -7.486298], [112.424215, -7.486677], [112.42427, -7.487091], [112.424246, -7.48722], [112.424151, -7.487742], [112.424112, -7.488078], [112.424069, -7.488454], [112.424248, -7.488797], [112.424302, -7.488901], [112.424478, -7.489265], [112.42453, -7.489832], [112.424187, -7.490481], [112.423752, -7.49101], [112.423752, -7.491011], [112.423334, -7.491595], [112.423261, -7.49189], [112.423248, -7.491944], [112.423238, -7.492017], [112.42316, -7.492601], [112.422993, -7.492886], [112.422965, -7.492934], [112.422637, -7.493365], [112.422114, -7.494052], [112.421976, -7.493884], [112.421974, -7.493882], [112.420982, -7.492667], [112.420326, -7.492472], [112.420106, -7.493139], [112.419921, -7.4933], [112.418808, -7.493513], [112.417961, -7.493676], [112.41645, -7.494009], [112.416367, -7.494027], [112.415612, -7.494017], [112.415355, -7.494623], [112.414959, -7.494624], [112.415143, -7.494154], [112.415142, -7.494136], [112.415074, -7.492106], [112.414882, -7.492027], [112.414567, -7.491898], [112.413663, -7.491716], [112.413592, -7.49187], [112.41359, -7.49187], [112.412183, -7.491753], [112.412107, -7.491747], [112.411309, -7.491714], [112.409552, -7.491737], [112.408864, -7.491739], [112.408097, -7.491741], [112.408018, -7.491723], [112.407656, -7.491642], [112.4079, -7.490858], [112.407916, -7.49012], [112.407858, -7.488486], [112.407853, -7.487168], [112.407798, -7.484456], [112.407662, -7.484336], [112.407656, -7.484332], [112.407656, -7.48431], [112.407618, -7.482047], [112.407746, -7.479129], [112.40755, -7.479179], [112.406615, -7.479415], [112.405794, -7.479214], [112.405803, -7.47912], [112.405805, -7.479098], [112.405829, -7.478868], [112.406049, -7.477892], [112.406299, -7.477389], [112.408244, -7.476413], [112.41017, -7.475794], [112.410239, -7.475612], [112.411194, -7.473076], [112.412791, -7.474113], [112.413434, -7.474292], [112.414422, -7.473174], [112.414196, -7.472366], [112.414, -7.472232], [112.413608, -7.471964], [112.413106, -7.471425], [112.412921, -7.471227], [112.412637, -7.469612], [112.412699, -7.46951], [112.412748, -7.46943], [112.412322, -7.46872], [112.412192, -7.468651], [112.412113, -7.468609], [112.412212, -7.468449], [112.412519, -7.468082], [112.41273, -7.467831], [112.413153, -7.46738], [112.413354, -7.467166], [112.413572, -7.466972], [112.414016, -7.466577], [112.414688, -7.466423], [112.415314, -7.466375], [112.4161, -7.466304], [112.416636, -7.466168], [112.41672, -7.466147], [112.416793, -7.466009], [112.416618, -7.46561], [112.415563, -7.464312], [112.415453, -7.464177], [112.415439, -7.46416], [112.415438, -7.464104], [112.415403, -7.458261], [112.4157, -7.45741], [112.415701, -7.457408], [112.415814, -7.457282], [112.417173, -7.457116], [112.417308, -7.457099], [112.41762, -7.457069], [112.418684, -7.456966], [112.421021, -7.456863], [112.422897, -7.457093], [112.424897, -7.457678], [112.42649, -7.45831], [112.427766, -7.458945], [112.428848, -7.459534], [112.430746, -7.460135], [112.430753, -7.460136], [112.431765, -7.460172], [112.43196, -7.460158], [112.432867, -7.460091], [112.433935, -7.459831], [112.434316, -7.459691], [112.435503, -7.458997], [112.435841, -7.45869], [112.436912, -7.458011], [112.437485, -7.457644], [112.437491, -7.457641], [112.438203, -7.457265], [112.438976, -7.456743], [112.440327, -7.456071], [112.441566, -7.455192], [112.44157, -7.455189], [112.44157, -7.455189], [112.44157, -7.455189], [112.44199, -7.454865], [112.443322, -7.453839], [112.444649, -7.452635], [112.445595, -7.451638], [112.446707, -7.450687], [112.44742, -7.450204], [112.448292, -7.449814], [112.449585, -7.449309], [112.45063, -7.448967], [112.452073, -7.448527], [112.453111, -7.448113], [112.454288, -7.447628], [112.455085, -7.447384], [112.455492, -7.448381], [112.455753, -7.449153], [112.456052, -7.45022], [112.456276, -7.451195], [112.456661, -7.452981], [112.456934, -7.454435], [112.457308, -7.455759], [112.457512, -7.456757], [112.457512, -7.456758], [112.457512, -7.456759], [112.457513, -7.456763], [112.457552, -7.456922], [112.459946, -7.456459], [112.46495, -7.455518], [112.465194, -7.455497], [112.465194, -7.45325], [112.467105, -7.453244], [112.467112, -7.455331], [112.467395, -7.455307], [112.468103, -7.455246], [112.468115, -7.458696], [112.468652, -7.458694], [112.46848, -7.460698], [112.46822, -7.46078], [112.467219, -7.461096], [112.465003, -7.461147], [112.464998, -7.462183], [112.467643, -7.462089], [112.467624, -7.462208], [112.466934, -7.466492], [112.466876, -7.466857], [112.466833, -7.467121], [112.465718, -7.467053], [112.464764, -7.466994], [112.464561, -7.468448], [112.464464, -7.469363], [112.464348, -7.470397], [112.464317, -7.470923], [112.465075, -7.471261], [112.464792, -7.473127], [112.46477, -7.473194], [112.464597, -7.473227], [112.464377, -7.473198], [112.463978, -7.473095], [112.463559, -7.473005], [112.463313, -7.47303], [112.463147, -7.473067], [112.462882, -7.473126], [112.462472, -7.473147], [112.461955, -7.473083], [112.461509, -7.473068], [112.461505, -7.473071], [112.461389, -7.473155], [112.461316, -7.473392], [112.460833, -7.478701], [112.46081, -7.478988], [112.460578, -7.481892], [112.460551, -7.482236], [112.460495, -7.48294], [112.458564, -7.482713], [112.457805, -7.482444], [112.455665, -7.482535], [112.45335, -7.482207], [112.452118, -7.481996], [112.450849, -7.481749], [112.450843, -7.481747]]]}}]}