{
"type": "FeatureCollection",
"name": "EC-info-adm-kota-mjk",
"crs": { "type": "name", "properties": { "name": "urn:ogc:def:crs:EPSG::32749" } },
"features": [
{ "type": "Feature", "properties": { "fid": 1, "KDPPUM": null, "NAMOBJ": "WRINGINREJO", "REMARK": "Wilayah Administrasi Keluruhan/Desa", "KDPBPS": null, "FCODE": null, "LUASWH": 0.0, "UUPP": null, "SRS_ID": null, "LCODE": "BA0020", "METADATA": null, "KDEBPS": null, "KDEPUM": null, "KDCBPS": null, "KDCPUM": null, "KDBBPS": null, "KDBPUM": null, "WADMKD": null, "WIADKD": null, "WADMKC": "SOOKO", "WIADKC": null, "WADMKK": "MOJOKERTO", "WIADKK": null, "WADMPR": "JAWA TIMUR", "WIADPR": null, "TIPADM": 0, "SHAPE_Leng": 0.06169476642, "SHAPE_Area": 9.38103e-05 }, "geometry": { "type": "MultiPolygon", "coordinates": [ [ [ [ 656128.740782660082914, 9171320.102563994005322, 0.0 ], [ 656149.217255180934444, 9171371.958014165982604, 0.0 ], [ 656142.39176217734348, 9171598.484351396560669, 0.0 ], [ 656086.422599833691493, 9171621.682855391874909, 0.0 ], [ 655986.770346302073449, 9171642.152014149352908, 0.0 ], [ 655978.91837504832074, 9171625.219121104106307, 0.0 ], [ 655978.851996041717939, 9171625.07597372867167, 0.0 ], [ 655815.039032723987475, 9171639.247016407549381, 0.0 ], [ 655726.931003871606663, 9171643.145955229178071, 0.0 ], [ 655533.092985453782603, 9171641.302010675892234, 0.0 ], [ 655372.484957747394219, 9171641.302034074440598, 0.0 ], [ 655369.637521710712463, 9171641.951364414766431, 0.0 ], [ 655323.826965072657913, 9171652.397993905469775, 0.0 ], [ 655351.088677015970461, 9171739.031994387507439, 0.0 ], [ 655353.032447194564156, 9171820.640747176483274, 0.0 ], [ 655347.201184892328456, 9172001.345932371914387, 0.0 ], [ 655347.201181718381122, 9172147.075858447700739, 0.0 ], [ 655342.056991152931005, 9172446.960732499137521, 0.0 ], [ 655326.47701765364036, 9172460.804661370813847, 0.0 ], [ 655323.014808112522587, 9172713.456637196242809, 0.0 ], [ 655338.164179931511171, 9173036.071950800716877, 0.0 ], [ 655318.059501092415303, 9173031.045951053500175, 0.0 ], [ 655213.288592468830757, 9173004.853964572772384, 0.0 ], [ 655122.696394146420062, 9173027.412960212677717, 0.0 ], [ 655122.756651073577814, 9173027.992297653108835, 0.0 ], [ 655126.671307525713928, 9173065.629578161984682, 0.0 ], [ 655151.338857867754996, 9173173.511894322931767, 0.0 ], [ 655179.089869026094675, 9173228.994197336956859, 0.0 ], [ 655394.161834150669165, 9173336.261307554319501, 0.0 ], [ 655606.919568221783265, 9173404.07300921343267, 0.0 ], [ 655612.859385474584997, 9173419.713735988363624, 0.0 ], [ 655720.928540186956525, 9173704.280042134225368, 0.0 ], [ 655878.364627699018456, 9173601.075387746095657, 0.0 ], [ 655896.763476608670317, 9173589.014255030080676, 0.0 ], [ 655967.682701346697286, 9173568.978892952203751, 0.0 ], [ 656077.145115991355851, 9173692.272980805486441, 0.0 ], [ 656052.477490401244722, 9173781.661233492195606, 0.0 ], [ 656030.916406088741496, 9173796.543399440124631, 0.0 ], [ 655987.72509572468698, 9173826.35539329238236, 0.0 ], [ 655912.180684357881546, 9173908.037685416638851, 0.0 ], [ 655881.346244790009223, 9174086.814113415777683, 0.0 ], [ 655893.68005701364018, 9174106.849412057548761, 0.0 ], [ 655846.969015713548288, 9174185.558031624183059, 0.0 ], [ 655846.948646713979542, 9174185.568886244669557, 0.0 ], [ 655823.946000674040988, 9174197.826969254761934, 0.0 ], [ 655824.007963072624989, 9174197.926986975595355, 0.0 ], [ 655834.904015529435128, 9174215.515041220933199, 0.0 ], [ 655892.223998214351013, 9174283.736973645165563, 0.0 ], [ 655961.345018333406188, 9174357.013028930872679, 0.0 ], [ 656034.680031045922078, 9174421.866025386378169, 0.0 ], [ 656108.85905426600948, 9174438.710955053567886, 0.0 ], [ 656177.980037145665847, 9174443.763994891196489, 0.0 ], [ 656264.802966311457567, 9174451.34495116584003, 0.0 ], [ 656333.286017716047354, 9174468.503004521131516, 0.0 ], [ 656341.381044664420187, 9174483.727023163810372, 0.0 ], [ 656341.342482382198796, 9174483.815674876794219, 0.0 ], [ 656322.175953803700395, 9174527.877993522211909, 0.0 ], [ 656228.365429237834178, 9174644.277303364127874, 0.0 ], [ 656192.539955431944691, 9174688.729025179520249, 0.0 ], [ 656191.73982474359218, 9174971.092249564826488, 0.0 ], [ 656190.692822883254848, 9175340.400572128593922, 0.0 ], [ 656190.689785211230628, 9175341.02794567681849, 0.0 ], [ 656223.886985542834736, 9175435.25903932005167, 0.0 ], [ 656236.402988786110654, 9175449.173989184200764, 0.0 ], [ 656401.33196861599572, 9175468.77802106551826, 0.0 ], [ 656553.336954295402393, 9175483.067975830286741, 0.0 ], [ 656811.260969982948154, 9175493.64005371183157, 0.0 ], [ 657018.233020445914008, 9175467.512974373996258, 0.0 ], [ 657238.722951165749691, 9175402.121025107800961, 0.0 ], [ 657414.377028445480391, 9175331.640001194551587, 0.0 ], [ 657554.98701442417223, 9175260.946972453966737, 0.0 ], [ 657674.181951480451971, 9175195.452994041144848, 0.0 ], [ 657883.396265021641739, 9175128.312377519905567, 0.0 ], [ 657883.51594752096571, 9175128.273968936875463, 0.0 ], [ 657995.923947233124636, 9175123.806999152526259, 0.0 ], [ 658017.453994645737112, 9175125.333924638107419, 0.0 ], [ 658117.611050968291238, 9175132.437005925923586, 0.0 ], [ 658235.532002101652324, 9175160.845004264265299, 0.0 ], [ 658277.709034620434977, 9175176.18298570252955, 0.0 ], [ 658408.947946801781654, 9175252.405052905902267, 0.0 ], [ 658446.389999322360381, 9175286.309949040412903, 0.0 ], [ 658564.813054710975848, 9175361.014055037871003, 0.0 ], [ 658628.175007675075904, 9175401.369951874017715, 0.0 ], [ 658707.597952813492157, 9175442.976020231842995, 0.0 ], [ 658793.084013646002859, 9175500.409989414736629, 0.0 ], [ 658942.375973418587819, 9175574.284988926723599, 0.0 ], [ 659079.510980899212882, 9175671.033023653551936, 0.0 ], [ 659079.552986487629823, 9175671.065227460116148, 0.0 ], [ 659273.846946580917574, 9175820.020948024466634, 0.0 ], [ 659420.686002321075648, 9175952.730026829987764, 0.0 ], [ 659525.511038051452488, 9176062.572950027883053, 0.0 ], [ 659648.59595762740355, 9176167.347028542309999, 0.0 ], [ 659727.39002558379434, 9176220.55805179476738, 0.0 ], [ 659823.847997748292983, 9176263.304989838972688, 0.0 ], [ 659966.762958508217707, 9176318.699949596077204, 0.0 ], [ 660082.201963423751295, 9176356.169021299108863, 0.0 ], [ 660241.658029660466127, 9176404.226995008066297, 0.0 ], [ 660356.309994687093422, 9176449.677972258999944, 0.0 ], [ 660486.3779822018696, 9176502.915009561926126, 0.0 ], [ 660574.54302883206401, 9176529.53102645277977, 0.0 ], [ 660619.028010342386551, 9176419.165967490524054, 0.0 ], [ 660647.552999672945589, 9176333.659976504743099, 0.0 ], [ 660680.153050749795511, 9176215.580967368558049, 0.0 ], [ 660701.92484230583068, 9176119.499836917966604, 0.0 ], [ 660704.602959264069796, 9176107.680995175614953, 0.0 ], [ 660704.651819153223187, 9176107.449835408478975, 0.0 ], [ 660746.382016099407338, 9175910.019966043531895, 0.0 ], [ 660766.261108097387478, 9175802.265182573348284, 0.0 ], [ 660776.054999920772389, 9175749.177032262086868, 0.0 ], [ 660787.060096198460087, 9175709.590928910300136, 0.0 ], [ 660816.805000157328323, 9175602.595960594713688, 0.0 ], [ 660839.036814622348174, 9175491.638592014089227, 0.0 ], [ 660839.055975144845434, 9175491.542962905019522, 0.0 ], [ 660843.272815873497166, 9175473.937878970056772, 0.0 ], [ 661107.720649561146274, 9175524.240029845386744, 0.0 ], [ 661660.386971907340921, 9175626.502859380096197, 0.0 ], [ 661687.369620135053992, 9175628.747212452813983, 0.0 ], [ 661687.425642410875298, 9175645.62931115925312, 0.0 ], [ 661688.19400788214989, 9175877.208014221861959, 0.0 ], [ 661899.085025156615302, 9175877.207951970398426, 0.0 ], [ 661899.084995630662888, 9175665.714030124247074, 0.0 ], [ 661899.084983662352897, 9175646.357330489903688, 0.0 ], [ 662008.522755956160836, 9175655.460176894441247, 0.0 ], [ 662008.522758749895729, 9175273.876046629622579, 0.0 ], [ 662067.825097945518792, 9175273.875998357310891, 0.0 ], [ 662048.098905041115358, 9175052.37955036573112, 0.0 ], [ 661908.745114492252469, 9175008.787707166746259, 0.0 ], [ 661664.165258063003421, 9175004.049520187079906, 0.0 ], [ 661663.21721158339642, 9174889.384052626788616, 0.0 ], [ 661673.84679790912196, 9174889.729075532406569, 0.0 ], [ 661707.016562382807024, 9174890.805709216743708, 0.0 ], [ 661900.432653005933389, 9174897.083215702325106, 0.0 ], [ 661955.196455852710642, 9174898.860488956794143, 0.0 ], [ 661866.201175023335963, 9174356.2588248886168, 0.0 ], [ 661863.975768723990768, 9174342.69052592664957, 0.0 ], [ 661635.652556262095459, 9174357.498761018738151, 0.0 ], [ 661612.687036154675297, 9174196.757048139348626, 0.0 ], [ 661609.773333411081694, 9174170.111004825681448, 0.0 ], [ 661601.625998562783934, 9174095.602966455742717, 0.0 ], [ 661595.424464517273009, 9174041.726371543481946, 0.0 ], [ 661588.476033548824489, 9173981.360998610034585, 0.0 ], [ 661587.686198545852676, 9173968.805545046925545, 0.0 ], [ 661584.821197838056833, 9173923.262668700888753, 0.0 ], [ 661584.817001699586399, 9173923.195965755730867, 0.0 ], [ 661668.350905934697948, 9173885.543988924473524, 0.0 ], [ 661636.501946481410414, 9173679.329004097729921, 0.0 ], [ 661636.472628467250615, 9173679.241784129291773, 0.0 ], [ 661634.135733351693489, 9173672.289610046893358, 0.0 ], [ 661633.985949378809892, 9173671.84400836750865, 0.0 ], [ 661614.85903250798583, 9173668.342018526047468, 0.0 ], [ 661590.655008135479875, 9173671.615979511290789, 0.0 ], [ 661546.607975414255634, 9173683.108006101101637, 0.0 ], [ 661500.483016379061155, 9173693.22502171061933, 0.0 ], [ 661473.236017085029744, 9173690.55203246884048, 0.0 ], [ 661425.708946388564073, 9173680.053048506379128, 0.0 ], [ 661380.370033881161362, 9173677.897035675123334, 0.0 ], [ 661323.358959967503324, 9173685.156012842431664, 0.0 ], [ 661274.17702200775966, 9173687.026009244844317, 0.0 ], [ 661260.859981512185186, 9173677.453944938257337, 0.0 ], [ 661260.842546911444515, 9173677.397556142881513, 0.0 ], [ 661252.762939884909429, 9173651.265635756775737, 0.0 ], [ 661218.57559050549753, 9173288.477145364508033, 0.0 ], [ 661215.83743383991532, 9173259.42045446485281, 0.0 ], [ 661197.458663438097574, 9173064.389208378270268, 0.0 ], [ 661158.591111077112146, 9172595.716784849762917, 0.0 ], [ 660945.597658146405593, 9172621.556285250931978, 0.0 ], [ 660861.847770818509161, 9172651.530165227130055, 0.0 ], [ 660625.695795645006001, 9172642.194363202899694, 0.0 ], [ 660370.310431639896706, 9172679.403260204941034, 0.0 ], [ 660234.414244254934601, 9172703.199442429468036, 0.0 ], [ 660094.395704801776446, 9172730.987408580258489, 0.0 ], [ 660093.797254655626602, 9172731.106175547465682, 0.0 ], [ 660064.788565420894884, 9172460.606026852503419, 0.0 ], [ 660049.487007074058056, 9172317.922001965343952, 0.0 ], [ 660024.949037407292053, 9172145.815949914976954, 0.0 ], [ 659996.480867026140913, 9171912.447676664218307, 0.0 ], [ 659996.467972003854811, 9171912.341969454661012, 0.0 ], [ 659994.252587594673969, 9171872.736257383599877, 0.0 ], [ 659986.998417169321328, 9171743.04959387332201, 0.0 ], [ 659986.997043698793277, 9171743.025039559230208, 0.0 ], [ 659995.567021390306763, 9171648.836003351956606, 0.0 ], [ 660016.961294039851055, 9171569.313236540183425, 0.0 ], [ 660016.990947062848136, 9171569.203015636652708, 0.0 ], [ 659982.80541403661482, 9171465.933724487200379, 0.0 ], [ 659980.172900878591463, 9171457.98128960467875, 0.0 ], [ 659980.142029071925208, 9171457.888030409812927, 0.0 ], [ 659971.772677174303681, 9171438.695065356791019, 0.0 ], [ 659971.701988367247395, 9171438.532958617433906, 0.0 ], [ 659918.668696312932298, 9171454.790091907605529, 0.0 ], [ 659906.480952392215841, 9171458.526183430105448, 0.0 ], [ 659806.349005109979771, 9171489.220982221886516, 0.0 ], [ 659782.781054976745509, 9171494.191047100350261, 0.0 ], [ 659693.057041548425332, 9171522.963996751233935, 0.0 ], [ 659637.354011869290844, 9171550.364954324439168, 0.0 ], [ 659594.047020829515532, 9171588.171047890558839, 0.0 ], [ 659594.064213606994599, 9171588.195101268589497, 0.0 ], [ 659632.440562639152631, 9171641.885079376399517, 0.0 ], [ 659620.350142429466359, 9171645.360701862722635, 0.0 ], [ 659311.845728604588658, 9171734.0449452213943, 0.0 ], [ 659311.948359119240195, 9171748.085984919220209, 0.0 ], [ 659315.094011416193098, 9172178.496990319341421, 0.0 ], [ 659311.590954597108066, 9172721.449011269956827, 0.0 ], [ 659311.548441142309457, 9172721.450898157432675, 0.0 ], [ 659195.802051165956073, 9172726.587972853332758, 0.0 ], [ 659122.101949710631743, 9172733.438007591292262, 0.0 ], [ 658998.698951232712716, 9172742.857053890824318, 0.0 ], [ 658883.008972483337857, 9172749.706991417333484, 0.0 ], [ 658837.871042448095977, 9172731.998041655868292, 0.0 ], [ 658770.746017955825664, 9172716.313003122806549, 0.0 ], [ 658747.379039280000143, 9172695.586039334535599, 0.0 ], [ 658518.22545666527003, 9172738.973127506673336, 0.0 ], [ 658515.609673867584206, 9172739.468383185565472, 0.0 ], [ 658511.057419857126661, 9172705.663617486134171, 0.0 ], [ 658504.454643602250144, 9172656.631773475557566, 0.0 ], [ 658504.171836831606925, 9172654.531665731221437, 0.0 ], [ 658510.7076899218373, 9172572.861840698868036, 0.0 ], [ 658499.269882048363797, 9172499.358942804858088, 0.0 ], [ 658498.645156097365543, 9172498.316779678687453, 0.0 ], [ 658472.333018915727735, 9172454.423031352460384, 0.0 ], [ 658430.64280000817962, 9172406.2552579510957, 0.0 ], [ 658375.087712943088263, 9172095.909752815961838, 0.0 ], [ 658364.930735344183631, 9172098.346274660900235, 0.0 ], [ 658173.707398582017049, 9172144.217710675671697, 0.0 ], [ 658173.613405390875414, 9172256.849087778478861, 0.0 ], [ 658197.711772957583889, 9172283.233201812952757, 0.0 ], [ 658180.498675460577942, 9172338.295768702402711, 0.0 ], [ 658186.236387223238125, 9172395.652542160823941, 0.0 ], [ 657801.530185397947207, 9172476.127419585362077, 0.0 ], [ 657838.251532441470772, 9172634.432106722146273, 0.0 ], [ 657815.188478969386779, 9172635.379590157419443, 0.0 ], [ 657754.480865873279981, 9172637.873545983806252, 0.0 ], [ 657752.982393346144818, 9172638.22216909006238, 0.0 ], [ 657604.917803905205801, 9172672.669475352391601, 0.0 ], [ 657641.639252061839215, 9172790.824444252997637, 0.0 ], [ 657645.08188521687407, 9172881.44813391007483, 0.0 ], [ 657627.248076563933864, 9172871.048794273287058, 0.0 ], [ 657576.229283923981711, 9172841.298405256122351, 0.0 ], [ 657484.425923241418786, 9172828.67991660349071, 0.0 ], [ 657402.486334775341675, 9172830.808174045756459, 0.0 ], [ 657401.955025617964566, 9172830.821973547339439, 0.0 ], [ 657389.3760286194738, 9172826.303955430164933, 0.0 ], [ 657373.760656457510777, 9172741.256378673017025, 0.0 ], [ 657373.745031858677976, 9172741.168957900255919, 0.0 ], [ 657349.527031687670387, 9172690.708997888490558, 0.0 ], [ 657285.006037033279426, 9172600.042948724702001, 0.0 ], [ 657234.107670559547842, 9172531.538663843646646, 0.0 ], [ 657234.09305021353066, 9172531.518986240029335, 0.0 ], [ 657232.16923223179765, 9172525.592459281906486, 0.0 ], [ 657216.665000551613048, 9172477.829977566376328, 0.0 ], [ 657198.12404226034414, 9172414.399975003674626, 0.0 ], [ 657197.321058958768845, 9172412.927266672253609, 0.0 ], [ 657141.702009533648379, 9172310.919168038293719, 0.0 ], [ 657141.063976232428104, 9172309.748980969190598, 0.0 ], [ 657147.692013149964623, 9172237.491978520527482, 0.0 ], [ 657154.506708442233503, 9172184.849448382854462, 0.0 ], [ 657159.041702177375555, 9172149.815031282603741, 0.0 ], [ 657145.699954480747692, 9172077.829010512679815, 0.0 ], [ 657136.420772122568451, 9171999.276832148432732, 0.0 ], [ 657136.408980192849413, 9171999.177008459344506, 0.0 ], [ 657161.956993579282425, 9171949.635962724685669, 0.0 ], [ 657181.235851770266891, 9171909.370645580813289, 0.0 ], [ 657181.274005040409975, 9171909.290959570556879, 0.0 ], [ 657186.27326335280668, 9171852.298040062189102, 0.0 ], [ 657186.76557147805579, 9171846.685576530173421, 0.0 ], [ 657186.772986509720795, 9171846.601042924448848, 0.0 ], [ 657148.65401893411763, 9171774.939006010070443, 0.0 ], [ 657100.465977936633863, 9171716.542976792901754, 0.0 ], [ 657054.162030586623587, 9171652.027000384405255, 0.0 ], [ 657044.501237524091266, 9171613.434825347736478, 0.0 ], [ 657042.855586194782518, 9171601.420785484835505, 0.0 ], [ 657034.572042130865157, 9171540.899995096027851, 0.0 ], [ 657012.971049373736605, 9171504.086033318191767, 0.0 ], [ 657012.685771036078222, 9171503.713376080617309, 0.0 ], [ 656984.777814495610073, 9171467.257363086566329, 0.0 ], [ 656918.572030029958114, 9171380.772861940786242, 0.0 ], [ 656903.400664646411315, 9171399.508026083931327, 0.0 ], [ 656794.205466582789086, 9171534.352845529094338, 0.0 ], [ 656771.976666491245851, 9171541.06105587258935, 0.0 ], [ 656721.85513905598782, 9171556.186690751463175, 0.0 ], [ 656697.28324757667724, 9171482.497463501989841, 0.0 ], [ 656676.806809918489307, 9171464.757455680519342, 0.0 ], [ 656553.947777610854246, 9171441.558899082243443, 0.0 ], [ 656460.460269775008783, 9171423.81341434456408, 0.0 ], [ 656284.362288514152169, 9171385.604126771911979, 0.0 ], [ 656201.09110775438603, 9171386.968792825937271, 0.0 ], [ 656179.140315526630729, 9171335.76834824308753, 0.0 ], [ 656177.060870234039612, 9171330.918016415089369, 0.0 ], [ 656172.424051855807193, 9171320.102577341720462, 0.0 ], [ 656128.740782660082914, 9171320.102563994005322, 0.0 ] ] ] ] } }
]
}
