{
"type": "FeatureCollection",
"name": "EC-info-adm-kota-slk",
"crs": { "type": "name", "properties": { "name": "urn:ogc:def:crs:EPSG::32747" } },
"features": [
{ "type": "Feature", "properties": { "fid": 1 }, "geometry": { "type": "Polygon", "coordinates": [ [ [ 671898.282347697997466, 9909897.655458219349384 ], [ 673741.702736555947922, 9909436.800929009914398 ], [ 677214.55456664878875, 9910737.058536235243082 ], [ 680374.689490638789721, 9911576.476738495752215 ], [ 680506.36168690235354, 9911757.5242407489568 ], [ 680868.463444620720111, 9911592.93406224437058 ], [ 682069.973034605151042, 9912070.243057208135724 ], [ 682799.842251937370747, 9911839.733884435147047 ], [ 682680.742649725289084, 9910984.653315482661128 ], [ 683297.306284918799065, 9911052.87345053628087 ], [ 684037.182031008065678, 9910682.927507091313601 ], [ 684501.571817793999799, 9910877.088159412145615 ], [ 684853.145485643995926, 9910517.635804835706949 ], [ 685419.854262048611417, 9910331.35695750080049 ], [ 686400.002326030982658, 9910614.131149616092443 ], [ 686839.772089402424172, 9910852.986095579341054 ], [ 686894.097556499531493, 9911081.58388370461762 ], [ 686597.840285755577497, 9912254.318329880014062 ], [ 686254.433146766619757, 9912370.154932992532849 ], [ 686231.877862722147256, 9912554.674068752676249 ], [ 685805.151080782641657, 9912885.771302841603756 ], [ 685908.415250417077914, 9913442.476929632946849 ], [ 686176.501089347875677, 9913696.853569181635976 ], [ 686132.326621848158538, 9914979.384272646158934 ], [ 686749.984187797410414, 9915160.766193266957998 ], [ 687501.362608394119889, 9915734.062979338690639 ], [ 687673.725819613900967, 9915690.250673893839121 ], [ 687590.874595545348711, 9915888.329080004245043 ], [ 687941.161609504721127, 9917450.501804783940315 ], [ 687832.697927374043502, 9917743.311194607988 ], [ 687012.86657408461906, 9918232.899140736088157 ], [ 686406.760452301474288, 9918314.889492608606815 ], [ 682821.662584517151117, 9917675.517729058861732 ], [ 681681.062137451837771, 9915442.074541011825204 ], [ 681041.226362142828293, 9914824.921335466206074 ], [ 680901.383168808883056, 9914901.205151965841651 ], [ 680473.442645958275534, 9914555.556336032226682 ], [ 679123.806934254709631, 9914621.396980410441756 ], [ 678712.330565008800477, 9913683.232919884845614 ], [ 677724.791726878611371, 9913189.456134421750903 ], [ 674795.079338867333718, 9913008.409729234874249 ], [ 674597.565461734193377, 9912712.15111818164587 ], [ 674729.240526773501188, 9912152.540453063324094 ], [ 674087.341068745590746, 9911576.472949413582683 ], [ 673922.752958677243441, 9911839.817875696346164 ], [ 674284.846977499662898, 9912350.046723052859306 ], [ 674153.178226080257446, 9912514.63838043063879 ], [ 673922.743432518676855, 9912432.33830831758678 ], [ 673396.057648109039292, 9911527.10041761957109 ], [ 672916.201960403006524, 9911245.922978678718209 ], [ 671832.450543377315626, 9911049.78309322334826 ], [ 671519.724792419350706, 9910539.551945017650723 ], [ 671898.282347697997466, 9909897.655458219349384 ] ] ] } }
]
}
