{
  "type": "FeatureCollection",
  "name": "hasil-analisisdata_poi_gerbangkertosusila",
  "crs": {
    "type": "name",
    "properties": { "name": "urn:ogc:def:crs:EPSG::32749" }
  },
  "features": [
    {
      "type": "Feature",
      "properties": {
        "element": "node",
        "id": 10825574559,
        "amenity": "university",
        "office": null,
        "shop": null
      },
      "geometry": {
        "type": "Point",
        "coordinates": [687304.019225936266594, 9165915.623995948582888]
      }
    },
    {
      "type": "Feature",
      "properties": {
        "element": "node",
        "id": 10083847367,
        "amenity": "hospital",
        "office": null,
        "shop": null
      },
      "geometry": {
        "type": "Point",
        "coordinates": [687416.604465361684561, 9165935.347907587885857]
      }
    },
    {
      "type": "Feature",
      "properties": {
        "element": "node",
        "id": 6761427885,
        "amenity": null,
        "office": null,
        "shop": "department_store"
      },
      "geometry": {
        "type": "Point",
        "coordinates": [686481.711863362463191, 9170878.748144220560789]
      }
    },
    {
      "type": "Feature",
      "properties": {
        "element": "node",
        "id": 13597117828,
        "amenity": "bank",
        "office": null,
        "shop": null
      },
      "geometry": {
        "type": "Point",
        "coordinates": [689519.77103040413931, 9174970.948490187525749]
      }
    },
    {
      "type": "Feature",
      "properties": {
        "element": "node",
        "id": 9706137717,
        "amenity": "hospital",
        "office": null,
        "shop": null
      },
      "geometry": {
        "type": "Point",
        "coordinates": [686217.545978596201167, 9175009.903709031641483]
      }
    },
    {
      "type": "Feature",
      "properties": {
        "element": "node",
        "id": 9818910946,
        "amenity": null,
        "office": null,
        "shop": "mall"
      },
      "geometry": {
        "type": "Point",
        "coordinates": [689174.070275712059811, 9176012.483573300763965]
      }
    },
    {
      "type": "Feature",
      "properties": {
        "element": "node",
        "id": 9813661239,
        "amenity": null,
        "office": "insurance",
        "shop": null
      },
      "geometry": {
        "type": "Point",
        "coordinates": [688136.739211788866669, 9176181.787100229412317]
      }
    },
    {
      "type": "Feature",
      "properties": {
        "element": "node",
        "id": 9818933646,
        "amenity": null,
        "office": null,
        "shop": "mall"
      },
      "geometry": {
        "type": "Point",
        "coordinates": [688906.849201720673591, 9176195.553810145705938]
      }
    },
    {
      "type": "Feature",
      "properties": {
        "element": "node",
        "id": 4664675093,
        "amenity": "bank",
        "office": null,
        "shop": null
      },
      "geometry": {
        "type": "Point",
        "coordinates": [689657.4953269273974, 9176247.75090754404664]
      }
    },
    {
      "type": "Feature",
      "properties": {
        "element": "node",
        "id": 4664675092,
        "amenity": "bank",
        "office": null,
        "shop": null
      },
      "geometry": {
        "type": "Point",
        "coordinates": [689663.949185088742524, 9176314.815021062269807]
      }
    },
    {
      "type": "Feature",
      "properties": {
        "element": "node",
        "id": 7257240886,
        "amenity": "bank",
        "office": null,
        "shop": null
      },
      "geometry": {
        "type": "Point",
        "coordinates": [678843.133081923588179, 9164710.39534074626863]
      }
    },
    {
      "type": "Feature",
      "properties": {
        "element": "node",
        "id": 11228479252,
        "amenity": "bank",
        "office": null,
        "shop": null
      },
      "geometry": {
        "type": "Point",
        "coordinates": [678388.839457949157804, 9164776.780422668904066]
      }
    },
    {
      "type": "Feature",
      "properties": {
        "element": "node",
        "id": 7262574986,
        "amenity": "bank",
        "office": null,
        "shop": null
      },
      "geometry": {
        "type": "Point",
        "coordinates": [685576.963508966146037, 9166241.56140199676156]
      }
    },
    {
      "type": "Feature",
      "properties": {
        "element": "node",
        "id": 5271158726,
        "amenity": "university",
        "office": null,
        "shop": null
      },
      "geometry": {
        "type": "Point",
        "coordinates": [661361.345315901562572, 9171209.046103512868285]
      }
    },
    {
      "type": "Feature",
      "properties": {
        "element": "node",
        "id": 9753337829,
        "amenity": "hospital",
        "office": null,
        "shop": null
      },
      "geometry": {
        "type": "Point",
        "coordinates": [661518.462571092066355, 9178105.151154143735766]
      }
    },
    {
      "type": "Feature",
      "properties": {
        "element": "node",
        "id": 4673985518,
        "amenity": "hospital",
        "office": null,
        "shop": null
      },
      "geometry": {
        "type": "Point",
        "coordinates": [684812.993705803179182, 9180094.739862142130733]
      }
    },
    {
      "type": "Feature",
      "properties": {
        "element": "node",
        "id": 9753366263,
        "amenity": "hospital",
        "office": null,
        "shop": null
      },
      "geometry": {
        "type": "Point",
        "coordinates": [671789.98295736964792, 9180893.196970166638494]
      }
    },
    {
      "type": "Feature",
      "properties": {
        "element": "node",
        "id": 4673984279,
        "amenity": "hospital",
        "office": null,
        "shop": null
      },
      "geometry": {
        "type": "Point",
        "coordinates": [684649.001476739882492, 9182345.509940603747964]
      }
    },
    {
      "type": "Feature",
      "properties": {
        "element": "node",
        "id": 11779586664,
        "amenity": "hospital",
        "office": null,
        "shop": null
      },
      "geometry": {
        "type": "Point",
        "coordinates": [668166.449534203624353, 9190107.921566039323807]
      }
    },
    {
      "type": "Feature",
      "properties": {
        "element": "node",
        "id": 11937413069,
        "amenity": "hospital",
        "office": null,
        "shop": null
      },
      "geometry": {
        "type": "Point",
        "coordinates": [690113.925880314200185, 9174571.381986094638705]
      }
    },
    {
      "type": "Feature",
      "properties": {
        "element": "node",
        "id": 12037920569,
        "amenity": "hospital",
        "office": null,
        "shop": null
      },
      "geometry": {
        "type": "Point",
        "coordinates": [690018.218364246422425, 9175116.942705161869526]
      }
    },
    {
      "type": "Feature",
      "properties": {
        "element": "node",
        "id": 4109541378,
        "amenity": "bank",
        "office": null,
        "shop": null
      },
      "geometry": {
        "type": "Point",
        "coordinates": [689738.064755968982354, 9176589.5969801209867]
      }
    },
    {
      "type": "Feature",
      "properties": {
        "element": "node",
        "id": 10023849782,
        "amenity": "bank",
        "office": null,
        "shop": null
      },
      "geometry": {
        "type": "Point",
        "coordinates": [689812.267152686370537, 9176934.819043720141053]
      }
    },
    {
      "type": "Feature",
      "properties": {
        "element": "node",
        "id": 13452626808,
        "amenity": null,
        "office": "telecommunication",
        "shop": null
      },
      "geometry": {
        "type": "Point",
        "coordinates": [689847.906106924754567, 9177151.498369103297591]
      }
    },
    {
      "type": "Feature",
      "properties": {
        "element": "node",
        "id": 13452623262,
        "amenity": null,
        "office": "telecommunication",
        "shop": null
      },
      "geometry": {
        "type": "Point",
        "coordinates": [689888.193077343399636, 9177612.406120605766773]
      }
    },
    {
      "type": "Feature",
      "properties": {
        "element": "node",
        "id": 13399427551,
        "amenity": "hospital",
        "office": null,
        "shop": null
      },
      "geometry": {
        "type": "Point",
        "coordinates": [690002.727578219491988, 9177972.712119273841381]
      }
    },
    {
      "type": "Feature",
      "properties": {
        "element": "node",
        "id": 4189190497,
        "amenity": "hospital",
        "office": null,
        "shop": null
      },
      "geometry": {
        "type": "Point",
        "coordinates": [690576.363668084377423, 9181102.301946671679616]
      }
    },
    {
      "type": "Feature",
      "properties": {
        "element": "node",
        "id": 9813748542,
        "amenity": "hospital",
        "office": null,
        "shop": null
      },
      "geometry": {
        "type": "Point",
        "coordinates": [690597.749297394766472, 9181537.249093873426318]
      }
    },
    {
      "type": "Feature",
      "properties": {
        "element": "node",
        "id": 12452557901,
        "amenity": null,
        "office": "it",
        "shop": null
      },
      "geometry": {
        "type": "Point",
        "coordinates": [690524.107443696819246, 9182248.000694878399372]
      }
    },
    {
      "type": "Feature",
      "properties": {
        "element": "node",
        "id": 4664675090,
        "amenity": "bank",
        "office": null,
        "shop": null
      },
      "geometry": {
        "type": "Point",
        "coordinates": [689687.391248976578936, 9176378.738412601873279]
      }
    },
    {
      "type": "Feature",
      "properties": {
        "element": "node",
        "id": 4664675091,
        "amenity": "bank",
        "office": null,
        "shop": null
      },
      "geometry": {
        "type": "Point",
        "coordinates": [689694.710437404923141, 9176404.32462134025991]
      }
    },
    {
      "type": "Feature",
      "properties": {
        "element": "node",
        "id": 4664659144,
        "amenity": "hospital",
        "office": null,
        "shop": null
      },
      "geometry": {
        "type": "Point",
        "coordinates": [689445.94450887828134, 9176732.033224621787667]
      }
    },
    {
      "type": "Feature",
      "properties": {
        "element": "node",
        "id": 4664680622,
        "amenity": "hospital",
        "office": null,
        "shop": null
      },
      "geometry": {
        "type": "Point",
        "coordinates": [689331.263517705374397, 9176736.504200926050544]
      }
    },
    {
      "type": "Feature",
      "properties": {
        "element": "node",
        "id": 4674016744,
        "amenity": "hospital",
        "office": null,
        "shop": null
      },
      "geometry": {
        "type": "Point",
        "coordinates": [686062.528576270560734, 9177037.052001038566232]
      }
    },
    {
      "type": "Feature",
      "properties": {
        "element": "node",
        "id": 4189205726,
        "amenity": "hospital",
        "office": null,
        "shop": null
      },
      "geometry": {
        "type": "Point",
        "coordinates": [689604.549349028733559, 9183017.961847657337785]
      }
    },
    {
      "type": "Feature",
      "properties": {
        "element": "node",
        "id": 5960376604,
        "amenity": "bank",
        "office": null,
        "shop": null
      },
      "geometry": {
        "type": "Point",
        "coordinates": [686739.321789782727137, 9187135.487732881680131]
      }
    },
    {
      "type": "Feature",
      "properties": {
        "element": "node",
        "id": 12839114301,
        "amenity": null,
        "office": null,
        "shop": "department_store"
      },
      "geometry": {
        "type": "Point",
        "coordinates": [686288.497182803926989, 9191485.109883101657033]
      }
    },
    {
      "type": "Feature",
      "properties": {
        "element": "node",
        "id": 4188746816,
        "amenity": null,
        "office": null,
        "shop": "mall"
      },
      "geometry": {
        "type": "Point",
        "coordinates": [689688.736748274764977, 9193660.758834874257445]
      }
    },
    {
      "type": "Feature",
      "properties": {
        "element": "node",
        "id": 4520374028,
        "amenity": "bank",
        "office": null,
        "shop": null
      },
      "geometry": {
        "type": "Point",
        "coordinates": [689706.274820373160765, 9193678.586813613772392]
      }
    },
    {
      "type": "Feature",
      "properties": {
        "element": "node",
        "id": 5282946391,
        "amenity": "bank",
        "office": null,
        "shop": null
      },
      "geometry": {
        "type": "Point",
        "coordinates": [685042.034652610193007, 9192821.703921720385551]
      }
    },
    {
      "type": "Feature",
      "properties": {
        "element": "node",
        "id": 5301547800,
        "amenity": "bank",
        "office": null,
        "shop": null
      },
      "geometry": {
        "type": "Point",
        "coordinates": [684278.57818114629481, 9192884.158468153327703]
      }
    },
    {
      "type": "Feature",
      "properties": {
        "element": "node",
        "id": 4899088195,
        "amenity": "bank",
        "office": null,
        "shop": null
      },
      "geometry": {
        "type": "Point",
        "coordinates": [676427.754527323762886, 9193245.872580543160439]
      }
    },
    {
      "type": "Feature",
      "properties": {
        "element": "node",
        "id": 4833837618,
        "amenity": "bank",
        "office": null,
        "shop": null
      },
      "geometry": {
        "type": "Point",
        "coordinates": [684924.841519228182733, 9193298.08735304698348]
      }
    },
    {
      "type": "Feature",
      "properties": {
        "element": "node",
        "id": 4476181293,
        "amenity": "bank",
        "office": null,
        "shop": null
      },
      "geometry": {
        "type": "Point",
        "coordinates": [682661.168553762370721, 9193350.834450455382466]
      }
    },
    {
      "type": "Feature",
      "properties": {
        "element": "node",
        "id": 4372135228,
        "amenity": "bank",
        "office": null,
        "shop": null
      },
      "geometry": {
        "type": "Point",
        "coordinates": [682682.438030755612999, 9193676.379404630511999]
      }
    },
    {
      "type": "Feature",
      "properties": {
        "element": "node",
        "id": 4840872222,
        "amenity": "bank",
        "office": null,
        "shop": null
      },
      "geometry": {
        "type": "Point",
        "coordinates": [682696.304230992565863, 9193717.591314375400543]
      }
    },
    {
      "type": "Feature",
      "properties": {
        "element": "node",
        "id": 4766355330,
        "amenity": "bank",
        "office": null,
        "shop": null
      },
      "geometry": {
        "type": "Point",
        "coordinates": [682727.028472856502049, 9193866.051120614632964]
      }
    },
    {
      "type": "Feature",
      "properties": {
        "element": "node",
        "id": 11971508621,
        "amenity": "hospital",
        "office": null,
        "shop": null
      },
      "geometry": {
        "type": "Point",
        "coordinates": [658497.562038262025453, 9193919.321314509958029]
      }
    },
    {
      "type": "Feature",
      "properties": {
        "element": "node",
        "id": 4766357265,
        "amenity": "bank",
        "office": null,
        "shop": null
      },
      "geometry": {
        "type": "Point",
        "coordinates": [682743.466348810936324, 9193930.987157374620438]
      }
    },
    {
      "type": "Feature",
      "properties": {
        "element": "node",
        "id": 4520374024,
        "amenity": "bank",
        "office": null,
        "shop": null
      },
      "geometry": {
        "type": "Point",
        "coordinates": [689680.367128018988296, 9193681.339803662151098]
      }
    },
    {
      "type": "Feature",
      "properties": {
        "element": "node",
        "id": 4520374033,
        "amenity": "bank",
        "office": null,
        "shop": null
      },
      "geometry": {
        "type": "Point",
        "coordinates": [689675.335459723835811, 9193682.387520303949714]
      }
    },
    {
      "type": "Feature",
      "properties": {
        "element": "node",
        "id": 4520374035,
        "amenity": "bank",
        "office": null,
        "shop": null
      },
      "geometry": {
        "type": "Point",
        "coordinates": [689667.046669244766235, 9193683.59141293913126]
      }
    },
    {
      "type": "Feature",
      "properties": {
        "element": "node",
        "id": 4520374030,
        "amenity": "bank",
        "office": null,
        "shop": null
      },
      "geometry": {
        "type": "Point",
        "coordinates": [689659.952790344366804, 9193685.387984555214643]
      }
    },
    {
      "type": "Feature",
      "properties": {
        "element": "node",
        "id": 4520374032,
        "amenity": "bank",
        "office": null,
        "shop": null
      },
      "geometry": {
        "type": "Point",
        "coordinates": [689638.643972562393174, 9193689.439560847356915]
      }
    },
    {
      "type": "Feature",
      "properties": {
        "element": "node",
        "id": 4520374026,
        "amenity": "bank",
        "office": null,
        "shop": null
      },
      "geometry": {
        "type": "Point",
        "coordinates": [689627.385765267070383, 9193690.95336283557117]
      }
    },
    {
      "type": "Feature",
      "properties": {
        "element": "node",
        "id": 4520374025,
        "amenity": "bank",
        "office": null,
        "shop": null
      },
      "geometry": {
        "type": "Point",
        "coordinates": [689617.623953612986952, 9193693.932419884949923]
      }
    },
    {
      "type": "Feature",
      "properties": {
        "element": "node",
        "id": 4520374034,
        "amenity": "bank",
        "office": null,
        "shop": null
      },
      "geometry": {
        "type": "Point",
        "coordinates": [689596.757439928362146, 9193698.137130411341786]
      }
    },
    {
      "type": "Feature",
      "properties": {
        "element": "node",
        "id": 4520374027,
        "amenity": "bank",
        "office": null,
        "shop": null
      },
      "geometry": {
        "type": "Point",
        "coordinates": [689586.111054387176409, 9193700.82093215547502]
      }
    },
    {
      "type": "Feature",
      "properties": {
        "element": "node",
        "id": 4520374021,
        "amenity": "bank",
        "office": null,
        "shop": null
      },
      "geometry": {
        "type": "Point",
        "coordinates": [689579.148004831862636, 9193702.174601500853896]
      }
    },
    {
      "type": "Feature",
      "properties": {
        "element": "node",
        "id": 9821350510,
        "amenity": null,
        "office": null,
        "shop": "department_store"
      },
      "geometry": {
        "type": "Point",
        "coordinates": [685010.966706628678367, 9193935.129582086578012]
      }
    },
    {
      "type": "Feature",
      "properties": {
        "element": "node",
        "id": 4531185697,
        "amenity": "bank",
        "office": null,
        "shop": null
      },
      "geometry": {
        "type": "Point",
        "coordinates": [685351.226937253028154, 9194105.907981870695949]
      }
    },
    {
      "type": "Feature",
      "properties": {
        "element": "node",
        "id": 5391392735,
        "amenity": "bank",
        "office": null,
        "shop": null
      },
      "geometry": {
        "type": "Point",
        "coordinates": [685354.03372398391366, 9194109.381310051307082]
      }
    },
    {
      "type": "Feature",
      "properties": {
        "element": "node",
        "id": 4824487807,
        "amenity": "bank",
        "office": null,
        "shop": null
      },
      "geometry": {
        "type": "Point",
        "coordinates": [685358.997397800558247, 9194113.797741191461682]
      }
    },
    {
      "type": "Feature",
      "properties": {
        "element": "node",
        "id": 4189793629,
        "amenity": "bank",
        "office": null,
        "shop": null
      },
      "geometry": {
        "type": "Point",
        "coordinates": [685391.944577472168021, 9194148.070489587262273]
      }
    },
    {
      "type": "Feature",
      "properties": {
        "element": "node",
        "id": 5408316054,
        "amenity": "bank",
        "office": null,
        "shop": null
      },
      "geometry": {
        "type": "Point",
        "coordinates": [685401.205874520703219, 9194155.96576064825058]
      }
    },
    {
      "type": "Feature",
      "properties": {
        "element": "node",
        "id": 5408315724,
        "amenity": "bank",
        "office": null,
        "shop": null
      },
      "geometry": {
        "type": "Point",
        "coordinates": [685423.8844544806052, 9194178.719432780519128]
      }
    },
    {
      "type": "Feature",
      "properties": {
        "element": "node",
        "id": 10959555005,
        "amenity": "bank",
        "office": null,
        "shop": null
      },
      "geometry": {
        "type": "Point",
        "coordinates": [685371.660444460809231, 9194243.601070718839765]
      }
    },
    {
      "type": "Feature",
      "properties": {
        "element": "node",
        "id": 13436075739,
        "amenity": "university",
        "office": null,
        "shop": null
      },
      "geometry": {
        "type": "Point",
        "coordinates": [680144.447455550078303, 9194312.495371615514159]
      }
    },
    {
      "type": "Feature",
      "properties": {
        "element": "node",
        "id": 2546795332,
        "amenity": "bank",
        "office": null,
        "shop": null
      },
      "geometry": {
        "type": "Point",
        "coordinates": [680113.992410628707148, 9194331.074428260326385]
      }
    },
    {
      "type": "Feature",
      "properties": {
        "element": "node",
        "id": 4520374022,
        "amenity": "bank",
        "office": null,
        "shop": null
      },
      "geometry": {
        "type": "Point",
        "coordinates": [689562.282358864089474, 9193707.237796487286687]
      }
    },
    {
      "type": "Feature",
      "properties": {
        "element": "node",
        "id": 4520374029,
        "amenity": "bank",
        "office": null,
        "shop": null
      },
      "geometry": {
        "type": "Point",
        "coordinates": [689551.480275965994224, 9193709.634627731516957]
      }
    },
    {
      "type": "Feature",
      "properties": {
        "element": "node",
        "id": 4520374031,
        "amenity": "bank",
        "office": null,
        "shop": null
      },
      "geometry": {
        "type": "Point",
        "coordinates": [689547.263752781320363, 9193736.271583711728454]
      }
    },
    {
      "type": "Feature",
      "properties": {
        "element": "node",
        "id": 5215362272,
        "amenity": "bank",
        "office": null,
        "shop": null
      },
      "geometry": {
        "type": "Point",
        "coordinates": [687301.234956111642532, 9194372.832736268639565]
      }
    },
    {
      "type": "Feature",
      "properties": {
        "element": "node",
        "id": 4824490647,
        "amenity": "bank",
        "office": null,
        "shop": null
      },
      "geometry": {
        "type": "Point",
        "coordinates": [686915.862187957856804, 9194410.897227881476283]
      }
    },
    {
      "type": "Feature",
      "properties": {
        "element": "node",
        "id": 4586405371,
        "amenity": "bank",
        "office": null,
        "shop": null
      },
      "geometry": {
        "type": "Point",
        "coordinates": [686032.660405015689321, 9194790.746071856468916]
      }
    },
    {
      "type": "Feature",
      "properties": {
        "element": "node",
        "id": 4586405380,
        "amenity": "bank",
        "office": null,
        "shop": null
      },
      "geometry": {
        "type": "Point",
        "coordinates": [686129.522726418217644, 9194874.37146208807826]
      }
    },
    {
      "type": "Feature",
      "properties": {
        "element": "node",
        "id": 8120343070,
        "amenity": null,
        "office": "it",
        "shop": null
      },
      "geometry": {
        "type": "Point",
        "coordinates": [688140.248518956126645, 9195588.144726760685444]
      }
    },
    {
      "type": "Feature",
      "properties": {
        "element": "node",
        "id": 7996241285,
        "amenity": null,
        "office": null,
        "shop": "department_store"
      },
      "geometry": {
        "type": "Point",
        "coordinates": [689184.097989030065946, 9198763.118022801354527]
      }
    },
    {
      "type": "Feature",
      "properties": {
        "element": "node",
        "id": 11252276437,
        "amenity": "bank",
        "office": null,
        "shop": null
      },
      "geometry": {
        "type": "Point",
        "coordinates": [689669.384181958856061, 9208604.330479804426432]
      }
    },
    {
      "type": "Feature",
      "properties": {
        "element": "node",
        "id": 11252263937,
        "amenity": "bank",
        "office": null,
        "shop": null
      },
      "geometry": {
        "type": "Point",
        "coordinates": [689842.932256963686086, 9208214.014096092432737]
      }
    },
    {
      "type": "Feature",
      "properties": {
        "element": "node",
        "id": 11252261738,
        "amenity": "bank",
        "office": null,
        "shop": null
      },
      "geometry": {
        "type": "Point",
        "coordinates": [689630.393556126276962, 9208714.597815234214067]
      }
    },
    {
      "type": "Feature",
      "properties": {
        "element": "node",
        "id": 7693988787,
        "amenity": null,
        "office": "lawyer",
        "shop": null
      },
      "geometry": {
        "type": "Point",
        "coordinates": [693428.706334053073078, 9179715.906818296760321]
      }
    },
    {
      "type": "Feature",
      "properties": {
        "element": "node",
        "id": 7759277188,
        "amenity": "university",
        "office": null,
        "shop": null
      },
      "geometry": {
        "type": "Point",
        "coordinates": [697554.055356346303597, 9181901.450602075085044]
      }
    },
    {
      "type": "Feature",
      "properties": {
        "element": "node",
        "id": 8063853350,
        "amenity": null,
        "office": "telecommunication",
        "shop": null
      },
      "geometry": {
        "type": "Point",
        "coordinates": [695054.357794601935893, 9186554.630471313372254]
      }
    },
    {
      "type": "Feature",
      "properties": {
        "element": "node",
        "id": 12292716887,
        "amenity": "university",
        "office": null,
        "shop": null
      },
      "geometry": {
        "type": "Point",
        "coordinates": [696956.157419309951365, 9187757.999113479629159]
      }
    },
    {
      "type": "Feature",
      "properties": {
        "element": "node",
        "id": 7215516217,
        "amenity": "hospital",
        "office": null,
        "shop": null
      },
      "geometry": {
        "type": "Point",
        "coordinates": [695980.611374313943088, 9187765.303087342530489]
      }
    },
    {
      "type": "Feature",
      "properties": {
        "element": "node",
        "id": 4191113664,
        "amenity": "bank",
        "office": null,
        "shop": null
      },
      "geometry": {
        "type": "Point",
        "coordinates": [694103.541506017791107, 9189307.631324777379632]
      }
    },
    {
      "type": "Feature",
      "properties": {
        "element": "node",
        "id": 1583828318,
        "amenity": "university",
        "office": null,
        "shop": null
      },
      "geometry": {
        "type": "Point",
        "coordinates": [694771.336692981305532, 9192696.175937809050083]
      }
    },
    {
      "type": "Feature",
      "properties": {
        "element": "node",
        "id": 9824048049,
        "amenity": "hospital",
        "office": null,
        "shop": null
      },
      "geometry": {
        "type": "Point",
        "coordinates": [698186.576508079888299, 9193667.618604771792889]
      }
    },
    {
      "type": "Feature",
      "properties": {
        "element": "node",
        "id": 12272474213,
        "amenity": "bank",
        "office": null,
        "shop": null
      },
      "geometry": {
        "type": "Point",
        "coordinates": [696234.678663636674173, 9194323.845179010182619]
      }
    },
    {
      "type": "Feature",
      "properties": {
        "element": "node",
        "id": 4188949331,
        "amenity": null,
        "office": null,
        "shop": "mall"
      },
      "geometry": {
        "type": "Point",
        "coordinates": [694155.383096530451439, 9194566.490415047854185]
      }
    },
    {
      "type": "Feature",
      "properties": {
        "element": "node",
        "id": 4867314223,
        "amenity": null,
        "office": null,
        "shop": "department_store"
      },
      "geometry": {
        "type": "Point",
        "coordinates": [691365.058301024721004, 9182726.391966441646218]
      }
    },
    {
      "type": "Feature",
      "properties": {
        "element": "node",
        "id": 3268565055,
        "amenity": "hospital",
        "office": null,
        "shop": null
      },
      "geometry": {
        "type": "Point",
        "coordinates": [690755.868852685554884, 9183092.011619567871094]
      }
    },
    {
      "type": "Feature",
      "properties": {
        "element": "node",
        "id": 4190995540,
        "amenity": "bank",
        "office": null,
        "shop": null
      },
      "geometry": {
        "type": "Point",
        "coordinates": [690497.349745641928166, 9185118.288949174806476]
      }
    },
    {
      "type": "Feature",
      "properties": {
        "element": "node",
        "id": 9816166279,
        "amenity": "university",
        "office": null,
        "shop": null
      },
      "geometry": {
        "type": "Point",
        "coordinates": [690815.765949311084114, 9187751.877396211028099]
      }
    },
    {
      "type": "Feature",
      "properties": {
        "element": "node",
        "id": 11308076626,
        "amenity": "bank",
        "office": null,
        "shop": null
      },
      "geometry": {
        "type": "Point",
        "coordinates": [691107.752558922977187, 9189203.699716741219163]
      }
    },
    {
      "type": "Feature",
      "properties": {
        "element": "node",
        "id": 12724564687,
        "amenity": "university",
        "office": null,
        "shop": null
      },
      "geometry": {
        "type": "Point",
        "coordinates": [690484.402210902422667, 9190917.966923583298922]
      }
    },
    {
      "type": "Feature",
      "properties": {
        "element": "node",
        "id": 1583812543,
        "amenity": "university",
        "office": null,
        "shop": null
      },
      "geometry": {
        "type": "Point",
        "coordinates": [690605.081155729945749, 9190991.461079981178045]
      }
    },
    {
      "type": "Feature",
      "properties": {
        "element": "node",
        "id": 1517895714,
        "amenity": "university",
        "office": null,
        "shop": null
      },
      "geometry": {
        "type": "Point",
        "coordinates": [690852.591299221850932, 9191497.815611008554697]
      }
    },
    {
      "type": "Feature",
      "properties": {
        "element": "node",
        "id": 4298698191,
        "amenity": null,
        "office": "telecommunication",
        "shop": null
      },
      "geometry": {
        "type": "Point",
        "coordinates": [690812.569012761465274, 9191606.156943127512932]
      }
    },
    {
      "type": "Feature",
      "properties": {
        "element": "node",
        "id": 7947613185,
        "amenity": null,
        "office": null,
        "shop": "department_store"
      },
      "geometry": {
        "type": "Point",
        "coordinates": [690370.530625909683295, 9192714.046510644257069]
      }
    },
    {
      "type": "Feature",
      "properties": {
        "element": "node",
        "id": 4193331411,
        "amenity": null,
        "office": null,
        "shop": "mall"
      },
      "geometry": {
        "type": "Point",
        "coordinates": [692148.329119238303974, 9190743.256394831463695]
      }
    },
    {
      "type": "Feature",
      "properties": {
        "element": "node",
        "id": 13205863501,
        "amenity": "hospital",
        "office": null,
        "shop": null
      },
      "geometry": {
        "type": "Point",
        "coordinates": [691675.596724174218252, 9193585.434834036976099]
      }
    },
    {
      "type": "Feature",
      "properties": {
        "element": "node",
        "id": 12292717236,
        "amenity": "hospital",
        "office": null,
        "shop": null
      },
      "geometry": {
        "type": "Point",
        "coordinates": [691679.092449571471661, 9193690.346690248697996]
      }
    },
    {
      "type": "Feature",
      "properties": {
        "element": "node",
        "id": 13049717701,
        "amenity": null,
        "office": "lawyer",
        "shop": null
      },
      "geometry": {
        "type": "Point",
        "coordinates": [691989.237057111458853, 9194222.450794018805027]
      }
    },
    {
      "type": "Feature",
      "properties": {
        "element": "node",
        "id": 10571852355,
        "amenity": "bank",
        "office": null,
        "shop": null
      },
      "geometry": {
        "type": "Point",
        "coordinates": [692080.950238547637127, 9194253.496665744110942]
      }
    },
    {
      "type": "Feature",
      "properties": {
        "element": "node",
        "id": 6681977560,
        "amenity": "bank",
        "office": null,
        "shop": null
      },
      "geometry": {
        "type": "Point",
        "coordinates": [691959.507888274034485, 9194661.301029846072197]
      }
    },
    {
      "type": "Feature",
      "properties": {
        "element": "node",
        "id": 7913604555,
        "amenity": "bank",
        "office": null,
        "shop": null
      },
      "geometry": {
        "type": "Point",
        "coordinates": [692412.087664662278257, 9195717.672545270994306]
      }
    },
    {
      "type": "Feature",
      "properties": {
        "element": "node",
        "id": 12780156890,
        "amenity": "bank",
        "office": null,
        "shop": null
      },
      "geometry": {
        "type": "Point",
        "coordinates": [692280.74098140723072, 9195719.516568014398217]
      }
    },
    {
      "type": "Feature",
      "properties": {
        "element": "node",
        "id": 7913600913,
        "amenity": "bank",
        "office": null,
        "shop": null
      },
      "geometry": {
        "type": "Point",
        "coordinates": [692264.215160083957016, 9195726.968208895996213]
      }
    },
    {
      "type": "Feature",
      "properties": {
        "element": "node",
        "id": 7913603389,
        "amenity": null,
        "office": "telecommunication",
        "shop": null
      },
      "geometry": {
        "type": "Point",
        "coordinates": [692237.164544608211145, 9195728.642827859148383]
      }
    },
    {
      "type": "Feature",
      "properties": {
        "element": "node",
        "id": 9833059949,
        "amenity": "hospital",
        "office": null,
        "shop": null
      },
      "geometry": {
        "type": "Point",
        "coordinates": [691593.678270927397534, 9193476.312243063002825]
      }
    },
    {
      "type": "Feature",
      "properties": {
        "element": "node",
        "id": 10679202176,
        "amenity": null,
        "office": "it",
        "shop": null
      },
      "geometry": {
        "type": "Point",
        "coordinates": [689930.898624848690815, 9193558.727469632402062]
      }
    },
    {
      "type": "Feature",
      "properties": {
        "element": "node",
        "id": 4520374023,
        "amenity": "bank",
        "office": null,
        "shop": null
      },
      "geometry": {
        "type": "Point",
        "coordinates": [689718.85763294948265, 9193676.924171335995197]
      }
    },
    {
      "type": "Feature",
      "properties": {
        "element": "node",
        "id": 4905089186,
        "amenity": "bank",
        "office": null,
        "shop": null
      },
      "geometry": {
        "type": "Point",
        "coordinates": [691098.995791971567087, 9193780.312962045893073]
      }
    },
    {
      "type": "Feature",
      "properties": {
        "element": "node",
        "id": 12292683791,
        "amenity": "bank",
        "office": null,
        "shop": null
      },
      "geometry": {
        "type": "Point",
        "coordinates": [691603.74528761242982, 9194017.965261287987232]
      }
    },
    {
      "type": "Feature",
      "properties": {
        "element": "node",
        "id": 4190993629,
        "amenity": "bank",
        "office": null,
        "shop": null
      },
      "geometry": {
        "type": "Point",
        "coordinates": [690833.382230922114104, 9195086.991011438891292]
      }
    },
    {
      "type": "Feature",
      "properties": {
        "element": "node",
        "id": 4556787591,
        "amenity": "bank",
        "office": null,
        "shop": null
      },
      "geometry": {
        "type": "Point",
        "coordinates": [690827.822550784563646, 9196065.532449377700686]
      }
    },
    {
      "type": "Feature",
      "properties": {
        "element": "node",
        "id": 4556787613,
        "amenity": "bank",
        "office": null,
        "shop": null
      },
      "geometry": {
        "type": "Point",
        "coordinates": [690829.600076029193588, 9196085.643523836508393]
      }
    },
    {
      "type": "Feature",
      "properties": {
        "element": "node",
        "id": 4556787612,
        "amenity": "bank",
        "office": null,
        "shop": null
      },
      "geometry": {
        "type": "Point",
        "coordinates": [690775.401769461110234, 9196086.735240878537297]
      }
    },
    {
      "type": "Feature",
      "properties": {
        "element": "node",
        "id": 4556787184,
        "amenity": "bank",
        "office": null,
        "shop": null
      },
      "geometry": {
        "type": "Point",
        "coordinates": [690807.813291375292465, 9196118.098882181569934]
      }
    },
    {
      "type": "Feature",
      "properties": {
        "element": "node",
        "id": 4451612467,
        "amenity": "bank",
        "office": null,
        "shop": null
      },
      "geometry": {
        "type": "Point",
        "coordinates": [696577.167148883687332, 9194649.854936188086867]
      }
    },
    {
      "type": "Feature",
      "properties": {
        "element": "node",
        "id": 5897593891,
        "amenity": "bank",
        "office": null,
        "shop": null
      },
      "geometry": {
        "type": "Point",
        "coordinates": [696225.031822692253627, 9194886.667531818151474]
      }
    },
    {
      "type": "Feature",
      "properties": {
        "element": "node",
        "id": 5897593896,
        "amenity": "bank",
        "office": null,
        "shop": null
      },
      "geometry": {
        "type": "Point",
        "coordinates": [695760.592966078547761, 9194893.490885876119137]
      }
    },
    {
      "type": "Feature",
      "properties": {
        "element": "node",
        "id": 5897593902,
        "amenity": "bank",
        "office": null,
        "shop": null
      },
      "geometry": {
        "type": "Point",
        "coordinates": [695384.511127153993584, 9194921.741343799978495]
      }
    },
    {
      "type": "Feature",
      "properties": {
        "element": "node",
        "id": 5897593905,
        "amenity": "bank",
        "office": null,
        "shop": null
      },
      "geometry": {
        "type": "Point",
        "coordinates": [695227.884872042573988, 9194940.304869763553143]
      }
    },
    {
      "type": "Feature",
      "properties": {
        "element": "node",
        "id": 5897591832,
        "amenity": "bank",
        "office": null,
        "shop": null
      },
      "geometry": {
        "type": "Point",
        "coordinates": [694947.812371411826462, 9194975.829772090539336]
      }
    },
    {
      "type": "Feature",
      "properties": {
        "element": "node",
        "id": 5897591836,
        "amenity": null,
        "office": "lawyer",
        "shop": null
      },
      "geometry": {
        "type": "Point",
        "coordinates": [694954.862299176398665, 9195039.065852515399456]
      }
    },
    {
      "type": "Feature",
      "properties": {
        "element": "node",
        "id": 5897591791,
        "amenity": "bank",
        "office": null,
        "shop": null
      },
      "geometry": {
        "type": "Point",
        "coordinates": [694378.485263062873855, 9195051.323293048888445]
      }
    },
    {
      "type": "Feature",
      "properties": {
        "element": "node",
        "id": 5897591794,
        "amenity": "bank",
        "office": null,
        "shop": null
      },
      "geometry": {
        "type": "Point",
        "coordinates": [694284.646573460195214, 9195068.168121930211782]
      }
    },
    {
      "type": "Feature",
      "properties": {
        "element": "node",
        "id": 5897591795,
        "amenity": "bank",
        "office": null,
        "shop": null
      },
      "geometry": {
        "type": "Point",
        "coordinates": [694265.704348904779181, 9195073.240989368408918]
      }
    },
    {
      "type": "Feature",
      "properties": {
        "element": "node",
        "id": 5897591798,
        "amenity": "bank",
        "office": null,
        "shop": null
      },
      "geometry": {
        "type": "Point",
        "coordinates": [694199.388254838180728, 9195082.037406517192721]
      }
    },
    {
      "type": "Feature",
      "properties": {
        "element": "node",
        "id": 5897591799,
        "amenity": "bank",
        "office": null,
        "shop": null
      },
      "geometry": {
        "type": "Point",
        "coordinates": [694189.918659609975293, 9195083.545234531164169]
      }
    },
    {
      "type": "Feature",
      "properties": {
        "element": "node",
        "id": 5897591801,
        "amenity": "bank",
        "office": null,
        "shop": null
      },
      "geometry": {
        "type": "Point",
        "coordinates": [694173.939125178381801, 9195086.549370868131518]
      }
    },
    {
      "type": "Feature",
      "properties": {
        "element": "node",
        "id": 5897591830,
        "amenity": "bank",
        "office": null,
        "shop": null
      },
      "geometry": {
        "type": "Point",
        "coordinates": [694918.058164081070572, 9195093.945894967764616]
      }
    },
    {
      "type": "Feature",
      "properties": {
        "element": "node",
        "id": 5897591807,
        "amenity": "bank",
        "office": null,
        "shop": null
      },
      "geometry": {
        "type": "Point",
        "coordinates": [694005.071750892326236, 9195118.10773203894496]
      }
    },
    {
      "type": "Feature",
      "properties": {
        "element": "node",
        "id": 5897591811,
        "amenity": "bank",
        "office": null,
        "shop": null
      },
      "geometry": {
        "type": "Point",
        "coordinates": [693932.100190248223953, 9195130.745342373847961]
      }
    },
    {
      "type": "Feature",
      "properties": {
        "element": "node",
        "id": 9832072676,
        "amenity": "university",
        "office": null,
        "shop": null
      },
      "geometry": {
        "type": "Point",
        "coordinates": [698249.957021421636455, 9195145.923657460138202]
      }
    },
    {
      "type": "Feature",
      "properties": {
        "element": "node",
        "id": 9979592573,
        "amenity": "bank",
        "office": null,
        "shop": null
      },
      "geometry": {
        "type": "Point",
        "coordinates": [694301.104504505405203, 9195917.581169592216611]
      }
    },
    {
      "type": "Feature",
      "properties": {
        "element": "node",
        "id": 2106536246,
        "amenity": "bank",
        "office": null,
        "shop": null
      },
      "geometry": {
        "type": "Point",
        "coordinates": [698344.017859362531453, 9195932.863286467269063]
      }
    },
    {
      "type": "Feature",
      "properties": {
        "element": "node",
        "id": 2939928276,
        "amenity": "bank",
        "office": null,
        "shop": null
      },
      "geometry": {
        "type": "Point",
        "coordinates": [698340.681483109015971, 9195954.853255776688457]
      }
    },
    {
      "type": "Feature",
      "properties": {
        "element": "node",
        "id": 7913603390,
        "amenity": null,
        "office": "telecommunication",
        "shop": null
      },
      "geometry": {
        "type": "Point",
        "coordinates": [692409.073121905443259, 9195729.241787172853947]
      }
    },
    {
      "type": "Feature",
      "properties": {
        "element": "node",
        "id": 7913586749,
        "amenity": "bank",
        "office": null,
        "shop": null
      },
      "geometry": {
        "type": "Point",
        "coordinates": [692403.493758653174154, 9195737.248549209907651]
      }
    },
    {
      "type": "Feature",
      "properties": {
        "element": "node",
        "id": 4258042689,
        "amenity": null,
        "office": "telecommunication",
        "shop": null
      },
      "geometry": {
        "type": "Point",
        "coordinates": [692588.134608785388991, 9195803.394376749172807]
      }
    },
    {
      "type": "Feature",
      "properties": {
        "element": "node",
        "id": 6038731827,
        "amenity": "bank",
        "office": null,
        "shop": null
      },
      "geometry": {
        "type": "Point",
        "coordinates": [692382.014447815367021, 9195817.725917726755142]
      }
    },
    {
      "type": "Feature",
      "properties": {
        "element": "node",
        "id": 3758829190,
        "amenity": "bank",
        "office": null,
        "shop": null
      },
      "geometry": {
        "type": "Point",
        "coordinates": [692310.168319322401658, 9195827.458775520324707]
      }
    },
    {
      "type": "Feature",
      "properties": {
        "element": "node",
        "id": 13148918701,
        "amenity": null,
        "office": "telecommunication",
        "shop": null
      },
      "geometry": {
        "type": "Point",
        "coordinates": [692537.158723411266692, 9196073.309597562998533]
      }
    },
    {
      "type": "Feature",
      "properties": {
        "element": "node",
        "id": 1956411995,
        "amenity": "bank",
        "office": null,
        "shop": null
      },
      "geometry": {
        "type": "Point",
        "coordinates": [691967.282662445213646, 9196224.069678347557783]
      }
    },
    {
      "type": "Feature",
      "properties": {
        "element": "node",
        "id": 1956411990,
        "amenity": "bank",
        "office": null,
        "shop": null
      },
      "geometry": {
        "type": "Point",
        "coordinates": [691961.757279788726009, 9196226.037442607805133]
      }
    },
    {
      "type": "Feature",
      "properties": {
        "element": "node",
        "id": 1956411989,
        "amenity": "bank",
        "office": null,
        "shop": null
      },
      "geometry": {
        "type": "Point",
        "coordinates": [691948.751833545742556, 9196229.991535356268287]
      }
    },
    {
      "type": "Feature",
      "properties": {
        "element": "node",
        "id": 11372647292,
        "amenity": null,
        "office": null,
        "shop": "mall"
      },
      "geometry": {
        "type": "Point",
        "coordinates": [692992.756663015345111, 9196581.703998912125826]
      }
    },
    {
      "type": "Feature",
      "properties": {
        "element": "node",
        "id": 7913611848,
        "amenity": "bank",
        "office": null,
        "shop": null
      },
      "geometry": {
        "type": "Point",
        "coordinates": [692913.218191594351083, 9196624.613857004791498]
      }
    },
    {
      "type": "Feature",
      "properties": {
        "element": "node",
        "id": 4187490353,
        "amenity": null,
        "office": null,
        "shop": "mall"
      },
      "geometry": {
        "type": "Point",
        "coordinates": [692199.251799336983822, 9196756.929889142513275]
      }
    },
    {
      "type": "Feature",
      "properties": {
        "element": "node",
        "id": 7913586716,
        "amenity": "bank",
        "office": null,
        "shop": null
      },
      "geometry": {
        "type": "Point",
        "coordinates": [692160.960079276701435, 9196836.785824157297611]
      }
    },
    {
      "type": "Feature",
      "properties": {
        "element": "node",
        "id": 4189035946,
        "amenity": null,
        "office": null,
        "shop": "mall"
      },
      "geometry": {
        "type": "Point",
        "coordinates": [692144.660052824649028, 9196911.757233705371618]
      }
    },
    {
      "type": "Feature",
      "properties": {
        "element": "node",
        "id": 8191680701,
        "amenity": null,
        "office": "lawyer",
        "shop": null
      },
      "geometry": {
        "type": "Point",
        "coordinates": [691958.693902964238077, 9196995.984486952424049]
      }
    },
    {
      "type": "Feature",
      "properties": {
        "element": "node",
        "id": 4189044219,
        "amenity": null,
        "office": null,
        "shop": "mall"
      },
      "geometry": {
        "type": "Point",
        "coordinates": [692043.680839133448899, 9196996.930231917649508]
      }
    },
    {
      "type": "Feature",
      "properties": {
        "element": "node",
        "id": 9823791895,
        "amenity": null,
        "office": null,
        "shop": "mall"
      },
      "geometry": {
        "type": "Point",
        "coordinates": [692301.254479803144932, 9197067.476461980491877]
      }
    },
    {
      "type": "Feature",
      "properties": {
        "element": "node",
        "id": 12215189337,
        "amenity": "bank",
        "office": null,
        "shop": null
      },
      "geometry": {
        "type": "Point",
        "coordinates": [691971.517424906254746, 9197261.218123102560639]
      }
    },
    {
      "type": "Feature",
      "properties": {
        "element": "node",
        "id": 12215189333,
        "amenity": "bank",
        "office": null,
        "shop": null
      },
      "geometry": {
        "type": "Point",
        "coordinates": [691876.720765956444666, 9197354.761280570179224]
      }
    },
    {
      "type": "Feature",
      "properties": {
        "element": "node",
        "id": 13609045363,
        "amenity": "bank",
        "office": null,
        "shop": null
      },
      "geometry": {
        "type": "Point",
        "coordinates": [691617.065929057425819, 9198059.352448537945747]
      }
    },
    {
      "type": "Feature",
      "properties": {
        "element": "node",
        "id": 4464478093,
        "amenity": "bank",
        "office": null,
        "shop": null
      },
      "geometry": {
        "type": "Point",
        "coordinates": [693955.195359027129598, 9196030.111471675336361]
      }
    },
    {
      "type": "Feature",
      "properties": {
        "element": "node",
        "id": 3121650690,
        "amenity": "bank",
        "office": null,
        "shop": null
      },
      "geometry": {
        "type": "Point",
        "coordinates": [698373.177991920034401, 9196059.000345584005117]
      }
    },
    {
      "type": "Feature",
      "properties": {
        "element": "node",
        "id": 2081890339,
        "amenity": "bank",
        "office": null,
        "shop": null
      },
      "geometry": {
        "type": "Point",
        "coordinates": [695833.904342868947424, 9196212.39889326505363]
      }
    },
    {
      "type": "Feature",
      "properties": {
        "element": "node",
        "id": 3953125336,
        "amenity": null,
        "office": null,
        "shop": "department_store"
      },
      "geometry": {
        "type": "Point",
        "coordinates": [693203.693825187394395, 9196975.763600800186396]
      }
    },
    {
      "type": "Feature",
      "properties": {
        "element": "node",
        "id": 9834915412,
        "amenity": "bank",
        "office": null,
        "shop": null
      },
      "geometry": {
        "type": "Point",
        "coordinates": [693189.088901424547657, 9197824.451279113069177]
      }
    },
    {
      "type": "Feature",
      "properties": {
        "element": "node",
        "id": 9834881010,
        "amenity": null,
        "office": null,
        "shop": "department_store"
      },
      "geometry": {
        "type": "Point",
        "coordinates": [693226.382493754616007, 9197969.757037721574306]
      }
    },
    {
      "type": "Feature",
      "properties": {
        "element": "node",
        "id": 4188765138,
        "amenity": null,
        "office": null,
        "shop": "mall"
      },
      "geometry": {
        "type": "Point",
        "coordinates": [694150.469386583426967, 9198409.159743813797832]
      }
    },
    {
      "type": "Feature",
      "properties": {
        "element": "node",
        "id": 4504062371,
        "amenity": "bank",
        "office": null,
        "shop": null
      },
      "geometry": {
        "type": "Point",
        "coordinates": [693615.433385526412167, 9202140.001081522554159]
      }
    },
    {
      "type": "Feature",
      "properties": {
        "element": "node",
        "id": 4192772203,
        "amenity": null,
        "office": "lawyer",
        "shop": null
      },
      "geometry": {
        "type": "Point",
        "coordinates": [691818.972082993132062, 9198228.61454913765192]
      }
    },
    {
      "type": "Feature",
      "properties": {
        "element": "node",
        "id": 4447082868,
        "amenity": "bank",
        "office": null,
        "shop": null
      },
      "geometry": {
        "type": "Point",
        "coordinates": [692967.829758294275962, 9198716.559363979846239]
      }
    },
    {
      "type": "Feature",
      "properties": {
        "element": "node",
        "id": 4447082867,
        "amenity": "bank",
        "office": null,
        "shop": null
      },
      "geometry": {
        "type": "Point",
        "coordinates": [692967.262971795164049, 9198721.383683126419783]
      }
    },
    {
      "type": "Feature",
      "properties": {
        "element": "node",
        "id": 7281238285,
        "amenity": null,
        "office": null,
        "shop": "department_store"
      },
      "geometry": {
        "type": "Point",
        "coordinates": [691700.793342489749193, 9198905.876285657286644]
      }
    },
    {
      "type": "Feature",
      "properties": {
        "element": "node",
        "id": 4189020445,
        "amenity": null,
        "office": null,
        "shop": "mall"
      },
      "geometry": {
        "type": "Point",
        "coordinates": [692621.51461934891995, 9199180.516770528629422]
      }
    },
    {
      "type": "Feature",
      "properties": {
        "element": "node",
        "id": 12818418241,
        "amenity": null,
        "office": "insurance",
        "shop": null
      },
      "geometry": {
        "type": "Point",
        "coordinates": [691844.002674453658983, 9199214.076502051204443]
      }
    },
    {
      "type": "Feature",
      "properties": {
        "element": "node",
        "id": 12854946175,
        "amenity": "bank",
        "office": null,
        "shop": null
      },
      "geometry": {
        "type": "Point",
        "coordinates": [692158.584803519770503, 9199624.444794038310647]
      }
    },
    {
      "type": "Feature",
      "properties": {
        "element": "node",
        "id": 4493784843,
        "amenity": "bank",
        "office": null,
        "shop": null
      },
      "geometry": {
        "type": "Point",
        "coordinates": [692232.99811813107226, 9200818.087469914928079]
      }
    },
    {
      "type": "Feature",
      "properties": {
        "element": "node",
        "id": 4493784844,
        "amenity": "bank",
        "office": null,
        "shop": null
      },
      "geometry": {
        "type": "Point",
        "coordinates": [692234.12313645798713, 9200823.458279678598046]
      }
    },
    {
      "type": "Feature",
      "properties": {
        "element": "node",
        "id": 4493784845,
        "amenity": "bank",
        "office": null,
        "shop": null
      },
      "geometry": {
        "type": "Point",
        "coordinates": [692237.796200640033931, 9200833.741002067923546]
      }
    },
    {
      "type": "Feature",
      "properties": {
        "element": "node",
        "id": 4493784846,
        "amenity": "bank",
        "office": null,
        "shop": null
      },
      "geometry": {
        "type": "Point",
        "coordinates": [692238.254606867092662, 9200838.085790110751987]
      }
    },
    {
      "type": "Feature",
      "properties": {
        "element": "node",
        "id": 4542412682,
        "amenity": "bank",
        "office": null,
        "shop": null
      },
      "geometry": {
        "type": "Point",
        "coordinates": [690410.005707862204872, 9197623.232003824785352]
      }
    },
    {
      "type": "Feature",
      "properties": {
        "element": "node",
        "id": 4527662419,
        "amenity": "bank",
        "office": null,
        "shop": null
      },
      "geometry": {
        "type": "Point",
        "coordinates": [690405.135871647973545, 9197623.383240379393101]
      }
    },
    {
      "type": "Feature",
      "properties": {
        "element": "node",
        "id": 4527662418,
        "amenity": "bank",
        "office": null,
        "shop": null
      },
      "geometry": {
        "type": "Point",
        "coordinates": [690400.388148775091395, 9197623.699909368529916]
      }
    },
    {
      "type": "Feature",
      "properties": {
        "element": "node",
        "id": 4191032759,
        "amenity": null,
        "office": null,
        "shop": "mall"
      },
      "geometry": {
        "type": "Point",
        "coordinates": [691446.247662447858602, 9197690.019609900191426]
      }
    },
    {
      "type": "Feature",
      "properties": {
        "element": "node",
        "id": 4190978828,
        "amenity": "bank",
        "office": null,
        "shop": null
      },
      "geometry": {
        "type": "Point",
        "coordinates": [691187.554511447437108, 9198327.546997606754303]
      }
    },
    {
      "type": "Feature",
      "properties": {
        "element": "node",
        "id": 4189743689,
        "amenity": "bank",
        "office": null,
        "shop": null
      },
      "geometry": {
        "type": "Point",
        "coordinates": [691206.619357545743696, 9198345.579248748719692]
      }
    },
    {
      "type": "Feature",
      "properties": {
        "element": "node",
        "id": 4617513490,
        "amenity": "bank",
        "office": null,
        "shop": null
      },
      "geometry": {
        "type": "Point",
        "coordinates": [691223.834926056675613, 9199979.175663163885474]
      }
    },
    {
      "type": "Feature",
      "properties": {
        "element": "node",
        "id": 4617513491,
        "amenity": "bank",
        "office": null,
        "shop": null
      },
      "geometry": {
        "type": "Point",
        "coordinates": [691216.802705644047819, 9199980.009808341041207]
      }
    },
    {
      "type": "Feature",
      "properties": {
        "element": "node",
        "id": 5015916021,
        "amenity": "bank",
        "office": null,
        "shop": null
      },
      "geometry": {
        "type": "Point",
        "coordinates": [691123.788031707750633, 9200904.148315036669374]
      }
    },
    {
      "type": "Feature",
      "properties": {
        "element": "node",
        "id": 11252234337,
        "amenity": "hospital",
        "office": null,
        "shop": null
      },
      "geometry": {
        "type": "Point",
        "coordinates": [690041.440738680539653, 9207755.673901244997978]
      }
    },
    {
      "type": "Feature",
      "properties": {
        "element": "node",
        "id": 4857044351,
        "amenity": "bank",
        "office": null,
        "shop": null
      },
      "geometry": {
        "type": "Point",
        "coordinates": [682905.402154372306541, 9194464.884989334270358]
      }
    },
    {
      "type": "Feature",
      "properties": {
        "element": "node",
        "id": 4586405594,
        "amenity": "bank",
        "office": null,
        "shop": null
      },
      "geometry": {
        "type": "Point",
        "coordinates": [685982.768383330898359, 9194853.21973991766572]
      }
    },
    {
      "type": "Feature",
      "properties": {
        "element": "node",
        "id": 1822691956,
        "amenity": "hospital",
        "office": null,
        "shop": null
      },
      "geometry": {
        "type": "Point",
        "coordinates": [648610.961710440460593, 9205583.536985371261835]
      }
    },
    {
      "type": "Feature",
      "properties": {
        "element": "node",
        "id": 13088579433,
        "amenity": "hospital",
        "office": null,
        "shop": null
      },
      "geometry": {
        "type": "Point",
        "coordinates": [682102.949531612568535, 9205733.034992761909962]
      }
    },
    {
      "type": "Feature",
      "properties": {
        "element": "node",
        "id": 8505794417,
        "amenity": "hospital",
        "office": null,
        "shop": null
      },
      "geometry": {
        "type": "Point",
        "coordinates": [683630.845004882197827, 9206941.084632826969028]
      }
    },
    {
      "type": "Feature",
      "properties": {
        "element": "node",
        "id": 4735501967,
        "amenity": "hospital",
        "office": null,
        "shop": null
      },
      "geometry": {
        "type": "Point",
        "coordinates": [680873.224462824175134, 9209857.404417563229799]
      }
    },
    {
      "type": "Feature",
      "properties": {
        "element": "node",
        "id": 3589321850,
        "amenity": "hospital",
        "office": null,
        "shop": null
      },
      "geometry": {
        "type": "Point",
        "coordinates": [654859.385948710143566, 9212659.076410921290517]
      }
    },
    {
      "type": "Feature",
      "properties": {
        "element": "node",
        "id": 7919282285,
        "amenity": "bank",
        "office": null,
        "shop": null
      },
      "geometry": {
        "type": "Point",
        "coordinates": [656446.203666685381904, 9213299.233967514708638]
      }
    },
    {
      "type": "Feature",
      "properties": {
        "element": "node",
        "id": 13462662907,
        "amenity": "university",
        "office": null,
        "shop": null
      },
      "geometry": {
        "type": "Point",
        "coordinates": [673851.425530007691123, 9220482.292577521875501]
      }
    },
    {
      "type": "Feature",
      "properties": {
        "element": "node",
        "id": 2286853003,
        "amenity": "hospital",
        "office": null,
        "shop": null
      },
      "geometry": {
        "type": "Point",
        "coordinates": [643420.161173649248667, 9230720.294485040009022]
      }
    }
  ]
}
