{
"type": "FeatureCollection",
"name": "UC-info-jalan-mgl",
"crs": { "type": "name", "properties": { "name": "urn:ogc:def:crs:OGC:1.3:CRS84" } },
"features": [
{ "type": "Feature", "properties": { "fid": 1 }, "geometry": { "type": "LineString", "coordinates": [ [ 112.357120803372126, -7.286912696873738 ], [ 112.356867252460816, -7.293757033207419 ], [ 112.359366887782912, -7.304425484315144 ], [ 112.359255938949119, -7.311731458305331 ], [ 112.358887779770129, -7.321960461663192 ], [ 112.361563464493159, -7.326867072559422 ], [ 112.360782159237829, -7.332448280111882 ], [ 112.360528581019608, -7.336566765162731 ], [ 112.36146472605472, -7.338157883971992 ], [ 112.361871936757197, -7.340813239646649 ], [ 112.368395548732565, -7.342254528817157 ], [ 112.371722868326572, -7.342642862384088 ], [ 112.37212566594377, -7.343837091847116 ], [ 112.373325918268108, -7.344763223367194 ], [ 112.371087376826637, -7.352341317564934 ], [ 112.370832286562646, -7.355928478784415 ], [ 112.3693785336975, -7.35912081901072 ], [ 112.369520955447896, -7.362175449936088 ], [ 112.37072738095948, -7.36509399413336 ], [ 112.37033761491, -7.368150252057949 ], [ 112.369678069136157, -7.370011876322903 ], [ 112.370487001212268, -7.37346294895735 ], [ 112.371158807550174, -7.375586150141118 ], [ 112.371973089889579, -7.380763972432989 ], [ 112.373448175272642, -7.384478641158986 ], [ 112.373591895687582, -7.387931742801757 ], [ 112.376533961141263, -7.392704500802063 ], [ 112.376540956091148, -7.394962562091405 ], [ 112.376279775477826, -7.396557309294069 ], [ 112.384399719957884, -7.397594788559421 ], [ 112.389454733953499, -7.39718057514198 ], [ 112.396381321021494, -7.399549820116888 ], [ 112.400508676948135, -7.400333828769398 ], [ 112.399348850172714, -7.412291911038911 ], [ 112.397781430603018, -7.421594737120699 ], [ 112.397939257223882, -7.429431036965632 ], [ 112.397557269309317, -7.434878148676183 ], [ 112.394111277530669, -7.439272291819647 ], [ 112.393333391401129, -7.445783271291581 ], [ 112.394283801972364, -7.4517575009355 ], [ 112.3932317948899, -7.45574562901519 ], [ 112.389777666033282, -7.457616078671554 ], [ 112.380728802576883, -7.457777254133513 ], [ 112.376066091313405, -7.456197852217298 ], [ 112.372740801107327, -7.456739498929399 ], [ 112.369010072233294, -7.455289950517765 ], [ 112.366746923752544, -7.455031292069333 ], [ 112.36249294506311, -7.456505532553015 ], [ 112.356765651251521, -7.454929190578544 ], [ 112.352503469228552, -7.453746778787783 ], [ 112.347844911754464, -7.453495336641778 ], [ 112.345462070668958, -7.45762031083876 ], [ 112.342936386695598, -7.458557797432694 ], [ 112.338406003004607, -7.456711913472993 ], [ 112.334801173758578, -7.452870729967779 ], [ 112.324410614967704, -7.449448351056566 ], [ 112.321871772275585, -7.446002333516424 ], [ 112.31800775683611, -7.444419875268864 ] ] } },
{ "type": "Feature", "properties": { "fid": 2 }, "geometry": { "type": "LineString", "coordinates": [ [ 112.392543191880705, -7.455993854494397 ], [ 112.393855036269059, -7.456904269449332 ], [ 112.398436368876261, -7.456889805863927 ], [ 112.404458784454206, -7.457262667600141 ], [ 112.409302307036413, -7.457377906690012 ], [ 112.411258611448147, -7.455150640154705 ], [ 112.41322034240676, -7.454621782564287 ], [ 112.416232992075166, -7.455265389694075 ], [ 112.422515876094877, -7.455245228375824 ], [ 112.429721775616059, -7.457312357794868 ], [ 112.429988652021009, -7.458879266411119 ], [ 112.432215121527022, -7.459264001862158 ], [ 112.436526519940742, -7.456767715242083 ], [ 112.44031515045701, -7.45453439197437 ], [ 112.445013981395448, -7.450469016145208 ], [ 112.447233974104066, -7.448894002003001 ], [ 112.453379765430682, -7.447044818136628 ], [ 112.456209432683025, -7.446006115063351 ], [ 112.457501545700893, -7.44245253402709 ], [ 112.459390976931857, -7.440316717730504 ], [ 112.459502858517993, -7.438305063411853 ], [ 112.459496603998701, -7.436412108896366 ], [ 112.461852677070368, -7.432026846514755 ], [ 112.461720461763463, -7.427886401787896 ], [ 112.471163541323477, -7.416142475059021 ], [ 112.473631646182383, -7.409863853308725 ], [ 112.473495439505882, -7.404540337560162 ], [ 112.492586384059663, -7.407316178098567 ], [ 112.500405368917825, -7.406343418158637 ], [ 112.506923821833624, -7.406321400292658 ], [ 112.514019902613256, -7.40191991702517 ], [ 112.521477856055157, -7.399410038928512 ], [ 112.525141238693479, -7.39632151428663 ], [ 112.557237827903478, -7.390413546473546 ], [ 112.567303654974239, -7.38824879660901 ] ] } },
{ "type": "Feature", "properties": { "fid": 3 }, "geometry": { "type": "LineString", "coordinates": [ [ 112.400170738387899, -7.400752427182208 ], [ 112.411350353134665, -7.399947323940434 ], [ 112.421376202080992, -7.400107908746216 ], [ 112.427739586553201, -7.400472473467953 ], [ 112.433522102802968, -7.40006899509103 ], [ 112.438152212491559, -7.401016346414937 ], [ 112.439884839160854, -7.400240932089041 ], [ 112.443166039051036, -7.401385040400875 ], [ 112.452421261788388, -7.401739866851278 ], [ 112.46380603840575, -7.404781837953762 ], [ 112.470167494684631, -7.404568427231975 ], [ 112.474217367398879, -7.40493994025169 ] ] } },
{ "type": "Feature", "properties": { "fid": 4 }, "geometry": { "type": "LineString", "coordinates": [ [ 112.430049497251176, -7.458971372346253 ], [ 112.430621699264805, -7.457044974284764 ], [ 112.430802642939028, -7.453387749763139 ], [ 112.428672945037206, -7.450700263593771 ], [ 112.429247644349999, -7.449543678924528 ], [ 112.430979218269314, -7.448383356205974 ], [ 112.431540173234481, -7.442992810895421 ], [ 112.432642751178179, -7.426245687316927 ], [ 112.430484608118547, -7.414705345706233 ], [ 112.426964087838002, -7.399127769841252 ], [ 112.427533802359903, -7.396431569137862 ], [ 112.430419461107178, -7.394497766440473 ], [ 112.431175745469901, -7.389876415439833 ], [ 112.429621691208538, -7.386224746683039 ], [ 112.430187676450046, -7.382373827265651 ], [ 112.428251188974116, -7.379685647662792 ], [ 112.428632432805244, -7.378337240270511 ], [ 112.425344041420985, -7.374883538246095 ], [ 112.42399334146171, -7.374502931082289 ], [ 112.42399334146171, -7.374502931082289 ], [ 112.423990266125344, -7.373540661366915 ], [ 112.421659708269573, -7.368159306553439 ], [ 112.420488326694851, -7.363544076902814 ], [ 112.420476076526811, -7.359694990022024 ], [ 112.420838975239676, -7.352572955880201 ], [ 112.424870009563406, -7.347171394757958 ], [ 112.42500275834314, -7.328310274248616 ], [ 112.426501415770218, -7.314641139473714 ], [ 112.429939785985852, -7.304814989360991 ], [ 112.441416782293345, -7.277257387263679 ], [ 112.443317111006081, -7.268783309512376 ] ] } },
{ "type": "Feature", "properties": { "fid": 5 }, "geometry": { "type": "LineString", "coordinates": [ [ 112.361176086700738, -7.328993851707805 ], [ 112.364261006507007, -7.329446298824267 ], [ 112.367800472969364, -7.327280513903312 ], [ 112.376283851941793, -7.328486085187463 ], [ 112.383237378312941, -7.333544446836957 ], [ 112.388789137741313, -7.333989117239121 ], [ 112.398664535308313, -7.336575289132726 ], [ 112.400814333825139, -7.333797871777123 ], [ 112.404202802269381, -7.332709797966908 ], [ 112.404966918011567, -7.330552409366682 ], [ 112.426089079413259, -7.330639846643223 ], [ 112.454600252011431, -7.327316087818438 ], [ 112.457527460638062, -7.326690912397055 ], [ 112.460302494015281, -7.32668191366479 ], [ 112.465846010811532, -7.324662865087862 ], [ 112.480498972414054, -7.326769829788643 ], [ 112.494526076699771, -7.32610776000629 ], [ 112.499481000578314, -7.332556014846472 ], [ 112.503351719666611, -7.337468594287576 ], [ 112.505684965505182, -7.343617656428664 ], [ 112.508788635754925, -7.349610179381185 ] ] } },
{ "type": "Feature", "properties": { "fid": 6 }, "geometry": { "type": "LineString", "coordinates": [ [ 112.371548264841536, -7.342816109465102 ], [ 112.371541660736341, -7.340661099717572 ], [ 112.377556535775284, -7.341258410462241 ], [ 112.380321314763378, -7.337863456419252 ], [ 112.381709863061602, -7.338167048059934 ], [ 112.38277485037537, -7.333545869928624 ] ] } },
{ "type": "Feature", "properties": { "fid": 7 }, "geometry": { "type": "LineString", "coordinates": [ [ 112.531297234161613, -7.349379977668145 ], [ 112.520352619665644, -7.3498789717594 ], [ 112.50801725184273, -7.349458851901775 ], [ 112.494909425776157, -7.348579195038587 ], [ 112.486742307331582, -7.349837722742024 ], [ 112.480881117071306, -7.349087495660395 ], [ 112.475178169132164, -7.349568059090287 ], [ 112.476995747378638, -7.339710952372026 ], [ 112.477718892429507, -7.325239730828144 ], [ 112.485670887936351, -7.305665271241508 ], [ 112.489646425292221, -7.295801074187716 ], [ 112.489646425292221, -7.295801074187716 ] ] } },
{ "type": "Feature", "properties": { "fid": 8 }, "geometry": { "type": "LineString", "coordinates": [ [ 112.493676551282547, -7.348737224569287 ], [ 112.494618063865772, -7.353659611490739 ], [ 112.492331151186008, -7.361363365883638 ], [ 112.48895618014987, -7.366454055556484 ], [ 112.484951592958211, -7.367698746552198 ], [ 112.483734539263381, -7.372628326722926 ], [ 112.479573648337563, -7.373257807759529 ], [ 112.481436641609008, -7.377099722385361 ], [ 112.481913026645699, -7.381254071414408 ], [ 112.481769603573767, -7.384486935782413 ], [ 112.483326871458104, -7.389099458525394 ], [ 112.483658371002363, -7.396024894636668 ], [ 112.488320730196151, -7.406937864315112 ] ] } },
{ "type": "Feature", "properties": { "fid": 9 }, "geometry": { "type": "LineString", "coordinates": [ [ 112.459336357162897, -7.451259621550443 ], [ 112.457017151817283, -7.451867932288775 ], [ 112.456316921111181, -7.448094601972806 ], [ 112.453138875560214, -7.448963144580286 ], [ 112.451680778740709, -7.449997649316916 ], [ 112.448588111084987, -7.450694263073752 ], [ 112.447129150751991, -7.45147132797667 ], [ 112.441213454555765, -7.456467638547007 ], [ 112.437952410352096, -7.458280275157597 ], [ 112.434949813241786, -7.460263674978282 ], [ 112.432459954639555, -7.461301479534566 ], [ 112.430138683657745, -7.461308996887687 ], [ 112.428853822140212, -7.462771937213392 ], [ 112.427905888133949, -7.462088514259191 ], [ 112.428848252226231, -7.461055738047733 ], [ 112.429362419105203, -7.460539210479562 ], [ 112.428931997536935, -7.460368980426031 ], [ 112.427728376532755, -7.460372869744416 ], [ 112.425574051833706, -7.458835225187228 ], [ 112.423766404707379, -7.458154561736484 ], [ 112.421186669478558, -7.457991238875294 ], [ 112.418092201489344, -7.458172796744879 ], [ 112.413364513960829, -7.458445368659222 ], [ 112.410785319085591, -7.458453605973568 ], [ 112.406579479501104, -7.460612297885127 ], [ 112.404085417411565, -7.460362792238862 ], [ 112.402280786011076, -7.460625956379074 ], [ 112.399437917517702, -7.45883291581703 ], [ 112.396513449296066, -7.458413102861061 ], [ 112.393075583068367, -7.458767196715422 ], [ 112.390583150616763, -7.459032479812322 ], [ 112.387489433699869, -7.459471261609811 ], [ 112.387581356721739, -7.461358844625171 ], [ 112.379069045967967, -7.461128049403179 ], [ 112.37098498677409, -7.460380882799782 ], [ 112.367801242589323, -7.459532615562203 ], [ 112.367368437038877, -7.45859001084987 ], [ 112.35525308512797, -7.460944277256263 ], [ 112.351732293204776, -7.462328076036234 ], [ 112.339866514660386, -7.462020955545297 ], [ 112.33754254168376, -7.461169854519889 ], [ 112.335939211832994, -7.471129140340242 ], [ 112.333222271862084, -7.482464824333085 ], [ 112.331611813543063, -7.490107155009918 ] ] } },
{ "type": "Feature", "properties": { "fid": 10 }, "geometry": { "type": "LineString", "coordinates": [ [ 112.439574945745619, -7.454928386328716 ], [ 112.439860422150602, -7.489594866637656 ], [ 112.446572656165927, -7.491374879332635 ] ] } },
{ "type": "Feature", "properties": { "fid": 11 }, "geometry": { "type": "LineString", "coordinates": [ [ 112.459975967606709, -7.462670206439076 ], [ 112.457828367324367, -7.463192155569591 ], [ 112.453448306565377, -7.464579544330806 ], [ 112.451299834541686, -7.464844037682026 ], [ 112.447610053049672, -7.467001398112155 ], [ 112.439613380696272, -7.46668429565211 ] ] } },
{ "type": "Feature", "properties": { "fid": 12 }, "geometry": { "type": "LineString", "coordinates": [ [ 112.435293424160719, -7.4601767487557 ], [ 112.435305453685075, -7.463866566494534 ], [ 112.431866796277575, -7.463963534754186 ], [ 112.432005873099584, -7.480267118306272 ], [ 112.431063205448424, -7.481214096993009 ], [ 112.428483896957388, -7.48122246283949 ], [ 112.424318383624197, -7.495823799061086 ], [ 112.421511120377787, -7.505100464158602 ], [ 112.420489643013099, -7.508278774137619 ], [ 112.419999662455567, -7.516260780946757 ] ] } },
{ "type": "Feature", "properties": { "fid": 13 }, "geometry": { "type": "LineString", "coordinates": [ [ 112.354985380821063, -7.513462887133035 ], [ 112.367095430122987, -7.508963071048124 ], [ 112.372158296480336, -7.505686400968083 ], [ 112.379726488452079, -7.506177577798272 ], [ 112.379636988270605, -7.505062296892219 ], [ 112.384967686515751, -7.504959717055429 ], [ 112.390022170276737, -7.499108535709538 ], [ 112.397581177259212, -7.496767659792027 ], [ 112.405410682571997, -7.498373137067508 ], [ 112.415127094356592, -7.498513605387812 ], [ 112.415718702359854, -7.495336686890226 ], [ 112.42001354040255, -7.494035681531182 ], [ 112.425207301009351, -7.478315497056839 ], [ 112.428562895744861, -7.479076936763533 ], [ 112.429567538927003, -7.470750034598937 ], [ 112.429639568665451, -7.466459261034691 ], [ 112.429286753923748, -7.46371445631344 ], [ 112.429055649461375, -7.462607062332236 ] ] } },
{ "type": "Feature", "properties": { "fid": 14 }, "geometry": { "type": "LineString", "coordinates": [ [ 112.431956341099294, -7.471750128150534 ], [ 112.439786624336165, -7.471890925824507 ] ] } },
{ "type": "Feature", "properties": { "fid": 15 }, "geometry": { "type": "LineString", "coordinates": [ [ 112.439876665312511, -7.482421161162057 ], [ 112.43209666403979, -7.480728364576482 ], [ 112.432040048345456, -7.48039600440506 ] ] } },
{ "type": "Feature", "properties": { "fid": 16 }, "geometry": { "type": "LineString", "coordinates": [ [ 112.431209788971586, -7.481230061000446 ], [ 112.432042759446801, -7.481227355800054 ], [ 112.432096483295439, -7.480672941151198 ] ] } },
{ "type": "Feature", "properties": { "fid": 17 }, "geometry": { "type": "LineString", "coordinates": [ [ 112.428592601261911, -7.479021586639126 ], [ 112.428434300281396, -7.481571608052032 ] ] } },
{ "type": "Feature", "properties": { "fid": 18 }, "geometry": { "type": "LineString", "coordinates": [ [ 112.476729907931741, -7.49773725140436 ], [ 112.475125760451249, -7.514024231623817 ], [ 112.475969283218774, -7.518160781892865 ], [ 112.475324623430637, -7.531960902007452 ], [ 112.476313491103852, -7.538166642328688 ], [ 112.479097527176521, -7.543676408063006 ], [ 112.480250607333858, -7.557470412912091 ], [ 112.483743196583035, -7.567944941856145 ], [ 112.48486308031255, -7.571942509900757 ], [ 112.485730091367373, -7.582839861736565 ], [ 112.487556157413081, -7.591112326352865 ], [ 112.487159816704008, -7.596494840280548 ], [ 112.488279380275571, -7.600354397372233 ], [ 112.487875457256834, -7.603529283122916 ], [ 112.488443815640352, -7.607942637657279 ], [ 112.490682135986404, -7.615385765084946 ], [ 112.496091662156061, -7.620058359889212 ], [ 112.49859095216199, -7.622947244743172 ], [ 112.507034861393564, -7.625263534331434 ], [ 112.511901196968537, -7.632697297575592 ], [ 112.511637702218096, -7.63642358881515 ], [ 112.515388657864136, -7.641239623063388 ], [ 112.52874163064655, -7.662716730560991 ], [ 112.541899583996212, -7.66805082529739 ], [ 112.547998840015794, -7.671892204202468 ], [ 112.556310554422424, -7.675587496893033 ], [ 112.561564577816014, -7.675154524518608 ], [ 112.565996336420795, -7.676794080638034 ], [ 112.572080158229127, -7.676357954810443 ], [ 112.574690649680633, -7.67165733641564 ], [ 112.578822385251698, -7.666951134608951 ], [ 112.575898304946577, -7.661580926947898 ], [ 112.573679966130584, -7.660071340106179 ], [ 112.569946939557681, -7.660360907724527 ], [ 112.564262625625247, -7.656518338692972 ], [ 112.560506022798634, -7.650323151634358 ], [ 112.558156504211226, -7.650745567365701 ], [ 112.553990156023232, -7.645931512973088 ], [ 112.553273748162709, -7.639035392052581 ], [ 112.552428056720728, -7.634623261673155 ], [ 112.549369759914271, -7.630219059290808 ], [ 112.545761843780156, -7.626782608157035 ], [ 112.540633311657004, -7.623489505839133 ], [ 112.537284873080367, -7.615222904163304 ], [ 112.534779043050264, -7.61054062698062 ], [ 112.535596476722915, -7.607088349127499 ], [ 112.534765797467941, -7.606815338876426 ], [ 112.531997198496455, -7.605997274225986 ], [ 112.532935316367087, -7.597577452672792 ], [ 112.532362639361594, -7.592060449969629 ], [ 112.533008599056487, -7.579226439181895 ], [ 112.536808443713639, -7.558930643840805 ], [ 112.543404631611054, -7.547455426275522 ], [ 112.549049864436668, -7.540812660270135 ], [ 112.552626948688939, -7.535832889800398 ], [ 112.555917108049329, -7.52795666034149 ], [ 112.565185719535151, -7.490808634357121 ], [ 112.561857539826278, -7.487922992793876 ], [ 112.559624069357554, -7.481860028807769 ], [ 112.560572151665369, -7.476337693272232 ], [ 112.561386395803424, -7.472057603093689 ], [ 112.567827560972191, -7.456305718525764 ], [ 112.575730335685208, -7.424129748140792 ], [ 112.578313290889128, -7.411978889989843 ], [ 112.577990230646606, -7.39887252519433 ] ] } },
{ "type": "Feature", "properties": { "fid": 19 }, "geometry": { "type": "LineString", "coordinates": [ [ 112.636231332369135, -7.68244698250185 ], [ 112.632043843936742, -7.680180031853899 ], [ 112.632834870117932, -7.678886701844336 ], [ 112.630044122767501, -7.677606970961616 ], [ 112.62904275986979, -7.675923417053807 ], [ 112.628051603640529, -7.676919731694277 ], [ 112.623869476159427, -7.67604224678322 ], [ 112.618591801031187, -7.674871074331781 ], [ 112.615698614403286, -7.672797568842197 ], [ 112.612817047912444, -7.673800952451471 ], [ 112.611905906652723, -7.66963558520003 ], [ 112.608017114308865, -7.667367227869089 ], [ 112.606525100209254, -7.66747205736477 ], [ 112.600244086663125, -7.664021453016995 ], [ 112.596167499088651, -7.664731388857822 ], [ 112.590000068552044, -7.665051985738335 ], [ 112.5847291498456, -7.665666970589924 ], [ 112.581248352823977, -7.666076804488615 ], [ 112.58026294033499, -7.668661138256323 ], [ 112.580069812644041, -7.67024997965158 ], [ 112.579671834929911, -7.670251441225981 ], [ 112.57866627860264, -7.667376641017557 ] ] } },
{ "type": "Feature", "properties": { "fid": 20 }, "geometry": { "type": "LineString", "coordinates": [ [ 112.596267361244401, -7.66483027610079 ], [ 112.602882881992514, -7.651306709593004 ], [ 112.599483985564916, -7.646952002739319 ], [ 112.599378953279327, -7.645463530248874 ], [ 112.598180299625298, -7.644177623236787 ], [ 112.59846177922762, -7.639610735088283 ], [ 112.599350510497004, -7.637820809946334 ], [ 112.598049815545608, -7.635840472606239 ], [ 112.597343833478007, -7.633262385492655 ], [ 112.59604942332237, -7.632969394260058 ], [ 112.595243608529273, -7.630292410787653 ], [ 112.593542819461433, -7.627717979474664 ], [ 112.591543602325288, -7.625144634899668 ], [ 112.587152797124531, -7.621488213215487 ], [ 112.585736305557788, -7.615041620725956 ], [ 112.58582520476503, -7.612162806713057 ], [ 112.586414790482323, -7.610175484741993 ], [ 112.584218209749736, -7.607999834555816 ], [ 112.585104053454586, -7.605415881716163 ], [ 112.586588583363877, -7.60332603143934 ], [ 112.585284798732602, -7.600452306280818 ], [ 112.579974013358736, -7.589950261490106 ], [ 112.582858448402988, -7.589840507925842 ], [ 112.582838487040618, -7.584381364299846 ], [ 112.585510489199677, -7.580599813957158 ], [ 112.588553797401602, -7.569571047649121 ], [ 112.588147196495598, -7.567190330237658 ], [ 112.594971267863428, -7.556445548546411 ], [ 112.598809634483572, -7.545314623621406 ], [ 112.588553877180786, -7.54237426142029 ], [ 112.572027291033294, -7.538165838941315 ], [ 112.560974982102451, -7.534929838212703 ], [ 112.550821490202267, -7.532682944292784 ], [ 112.532203480653124, -7.527586916192989 ], [ 112.525930306606654, -7.525623581674753 ], [ 112.527780537864615, -7.514301350075919 ], [ 112.528962962698046, -7.511120872483287 ], [ 112.530139473507617, -7.506252974450119 ] ] } },
{ "type": "Feature", "properties": { "fid": 21 }, "geometry": { "type": "LineString", "coordinates": [ [ 112.574261947919766, -7.523467455865827 ], [ 112.573381469091998, -7.527540243042344 ], [ 112.571100992601856, -7.529533611586229 ], [ 112.567921758978883, -7.530537597050667 ], [ 112.564635566094111, -7.529457493775466 ], [ 112.560859884674556, -7.530562820869222 ], [ 112.559495805227741, -7.538508462183819 ], [ 112.559040065348924, -7.550123477928171 ], [ 112.556096535913852, -7.561449594598847 ], [ 112.554955528059168, -7.57614411971127 ], [ 112.554781153818951, -7.582993668874884 ], [ 112.55759646529367, -7.591321407815964 ], [ 112.560493836827845, -7.594785095014449 ], [ 112.561432178255259, -7.606692852114501 ], [ 112.566539556095918, -7.616004792409765 ], [ 112.568943029306439, -7.620363489514061 ], [ 112.56895170289674, -7.622745673511375 ], [ 112.574945778196536, -7.629572752037578 ], [ 112.575262765253186, -7.63463378807157 ], [ 112.577068079346532, -7.63859754508538 ], [ 112.580272471058422, -7.644243560269786 ], [ 112.579497737471328, -7.650003382152361 ], [ 112.578522920660177, -7.655466163098579 ], [ 112.581025198273778, -7.659526580212904 ], [ 112.583436839389748, -7.665969500844986 ] ] } },
{ "type": "Feature", "properties": { "fid": 22 }, "geometry": { "type": "LineString", "coordinates": [ [ 112.407599365289215, -7.533230102845026 ], [ 112.412400047646614, -7.551841111391553 ], [ 112.416002607387142, -7.566316668305068 ], [ 112.418113357103167, -7.577544779188688 ], [ 112.416949442741185, -7.58405302684957 ], [ 112.416387801532863, -7.593515884595334 ], [ 112.416728694076099, -7.6071149929632 ], [ 112.413801370674875, -7.618063860511425 ], [ 112.404947286701386, -7.629032024043792 ] ] } },
{ "type": "Feature", "properties": { "fid": 23 }, "geometry": { "type": "LineString", "coordinates": [ [ 112.407019686759426, -7.628433971143935 ], [ 112.405859469255788, -7.63612484898343 ], [ 112.404103649231004, -7.64293069244851 ], [ 112.404451258803107, -7.658599426357195 ], [ 112.408622555549542, -7.665385923739415 ], [ 112.409243489235848, -7.673957944166617 ], [ 112.405098275152625, -7.675154138806998 ], [ 112.400056192234985, -7.673987955030647 ], [ 112.397692996987601, -7.676360909511915 ], [ 112.393839260046008, -7.676077763344076 ], [ 112.390894816666147, -7.682000482280051 ], [ 112.388847122562751, -7.690285567189375 ], [ 112.382034252359205, -7.69149020308175 ], [ 112.378784580870345, -7.694752922708639 ], [ 112.380288493221187, -7.701548268741999 ], [ 112.37703014766727, -7.702150072932977 ], [ 112.371423517174264, -7.709855243779645 ], [ 112.363153834007491, -7.719047180296298 ], [ 112.362580926057575, -7.72525790771177 ], [ 112.365555427517251, -7.728500687677325 ] ] } },
{ "type": "Feature", "properties": { "fid": 24 }, "geometry": { "type": "LineString", "coordinates": [ [ 112.322903329198567, -7.64289148556398 ], [ 112.331238784118057, -7.6549881942544 ], [ 112.337498318757511, -7.666499780672358 ], [ 112.345534615978238, -7.677414325306194 ], [ 112.352069796137968, -7.682124438093329 ], [ 112.362479733251689, -7.693622381222595 ], [ 112.369032419698868, -7.703654008433793 ], [ 112.373147542254898, -7.707440975685335 ] ] } },
{ "type": "Feature", "properties": { "fid": 25 }, "geometry": { "type": "LineString", "coordinates": [ [ 112.350828851185966, -7.570265827416946 ], [ 112.350540372636473, -7.581571693095644 ], [ 112.337009777421159, -7.602608523909445 ], [ 112.327997329486891, -7.619432279696405 ], [ 112.322847363458393, -7.629138104456081 ], [ 112.321264376164748, -7.640771018921462 ], [ 112.323216815682429, -7.643995058269723 ], [ 112.31900804438645, -7.644007939256066 ], [ 112.313850736218185, -7.651452732830816 ], [ 112.306107078865637, -7.660197354960157 ], [ 112.301594954664267, -7.666994099323427 ], [ 112.300677644426401, -7.684762097647472 ] ] } },
{ "type": "Feature", "properties": { "fid": 26 }, "geometry": { "type": "LineString", "coordinates": [ [ 112.332132689516328, -7.489895838429125 ], [ 112.332147409650076, -7.494740834534752 ], [ 112.342514715919592, -7.498262342764434 ], [ 112.341593303319527, -7.514415219461691 ], [ 112.343565015823529, -7.524099214675094 ], [ 112.343611782476202, -7.539280104021844 ], [ 112.344288041353366, -7.548645039391839 ], [ 112.338530500293629, -7.570949779253205 ], [ 112.329451204272658, -7.565809543870814 ] ] } },
{ "type": "Feature", "properties": { "fid": 27 }, "geometry": { "type": "LineString", "coordinates": [ [ 112.369247670304034, -7.560195437602641 ], [ 112.364733365707195, -7.56570053855149 ], [ 112.352124627087832, -7.570584807764139 ], [ 112.341120055487252, -7.570941816588343 ], [ 112.338530500293629, -7.570949779253205 ], [ 112.33239319441968, -7.575167609706275 ], [ 112.32788714283447, -7.583579425753143 ], [ 112.31884994476512, -7.592328000373317 ], [ 112.312409012783348, -7.603329628494045 ], [ 112.310806088107825, -7.608502534794003 ], [ 112.301818813648865, -7.634046982347687 ], [ 112.297960176292264, -7.642779721232291 ] ] } },
{ "type": "Feature", "properties": { "fid": 28 }, "geometry": { "type": "LineString", "coordinates": [ [ 112.298283929998917, -7.642778747781938 ], [ 112.295693899157712, -7.642786528591495 ], [ 112.293452911182428, -7.651191388707379 ], [ 112.285696191860566, -7.65573667031966 ], [ 112.279222808488555, -7.656401945198735 ], [ 112.277289829304934, -7.659637750483369 ], [ 112.275377017062823, -7.669656645881078 ], [ 112.27279064122952, -7.670956335050326 ], [ 112.269927470765225, -7.688084211128479 ], [ 112.275762465219614, -7.690327957753878 ], [ 112.280265556529457, -7.680301346128116 ], [ 112.301002412832304, -7.685084117782365 ], [ 112.30491052930131, -7.692501337387504 ], [ 112.30462427683598, -7.704776332626445 ], [ 112.307574171618725, -7.716395436556472 ], [ 112.314085259510918, -7.72768054352715 ], [ 112.325108074044664, -7.731845490472113 ], [ 112.339385567020258, -7.741167883997501 ], [ 112.345231791302282, -7.746640436441301 ], [ 112.354636157646226, -7.750809591796537 ], [ 112.36466336972866, -7.747224633471201 ], [ 112.36657613230544, -7.737851654604375 ], [ 112.371108518523926, -7.737514115493728 ], [ 112.365899407545612, -7.728809962921646 ] ] } },
{ "type": "Feature", "properties": { "fid": 29 }, "geometry": { "type": "LineString", "coordinates": [ [ 112.342233666502878, -7.512152253813877 ], [ 112.349680604954401, -7.513098425301579 ], [ 112.349688582769829, -7.515682401995249 ] ] } },
{ "type": "Feature", "properties": { "fid": 30 }, "geometry": { "type": "LineString", "coordinates": [ [ 112.22494223515227, -7.46694992211165 ], [ 112.244372875830948, -7.471417798776325 ], [ 112.268980046903124, -7.475223872796025 ], [ 112.27220235017495, -7.470369435945589 ], [ 112.277704031228126, -7.470353547040301 ], [ 112.278976947347033, -7.462920637767761 ], [ 112.3000189872741, -7.465120284761497 ], [ 112.300649052981186, -7.459304302458347 ], [ 112.337883360899397, -7.465330237793019 ] ] } },
{ "type": "Feature", "properties": { "fid": 31 }, "geometry": { "type": "LineString", "coordinates": [ [ 112.318729018238372, -7.445038523486937 ], [ 112.310959629765676, -7.444092569089988 ], [ 112.302209909563842, -7.439919283248718 ], [ 112.296707713136271, -7.439612406805835 ], [ 112.287626104115461, -7.432532682422352 ], [ 112.280514404577104, -7.435137345460534 ], [ 112.275349827080277, -7.439674374599966 ], [ 112.265325435297072, -7.44228719837823 ], [ 112.261450434227513, -7.445205356571582 ], [ 112.251418457389818, -7.445233814155186 ], [ 112.249491418855143, -7.450407471169321 ], [ 112.245294433134518, -7.453972452833965 ], [ 112.239789253857111, -7.452695855861094 ], [ 112.233959572305665, -7.451097074665598 ], [ 112.228464339902445, -7.453373473494733 ], [ 112.228805077445955, -7.459509828902285 ], [ 112.227531289803011, -7.466942733908007 ], [ 112.231117463070063, -7.476300198562344 ], [ 112.230491906265257, -7.484054312215564 ], [ 112.230511836157092, -7.491160591809324 ], [ 112.232478254941029, -7.499876493690734 ] ] } },
{ "type": "Feature", "properties": { "fid": 32 }, "geometry": { "type": "LineString", "coordinates": [ [ 112.532493802319124, -7.605045339568162 ], [ 112.532532399708174, -7.615914168762578 ], [ 112.533653973073839, -7.624967662262613 ], [ 112.535879249902877, -7.638002496230107 ], [ 112.538467881385145, -7.651035988971397 ], [ 112.536346138842802, -7.666984641729123 ] ] } },
{ "type": "Feature", "properties": { "fid": 33 }, "geometry": { "type": "LineString", "coordinates": [ [ 112.532519527607164, -7.612291226323465 ], [ 112.517624267559214, -7.610169833938142 ], [ 112.506379149100766, -7.613469782481246 ], [ 112.496941866441944, -7.614589400156446 ], [ 112.488581357240463, -7.612082063521997 ], [ 112.477324654970033, -7.612120579448019 ], [ 112.46640763100973, -7.605273773201307 ], [ 112.451513719864991, -7.60351230606822 ], [ 112.440244976278038, -7.599926720554095 ], [ 112.4391411535277, -7.595582614280997 ], [ 112.430765581713899, -7.588363979263814 ], [ 112.426390378598256, -7.582943615248723 ], [ 112.41767112032332, -7.581522846137444 ] ] } },
{ "type": "Feature", "properties": { "fid": null }, "geometry": { "type": "LineString", "coordinates": [ [ 112.598551555136694, -7.545566006035998 ], [ 112.619781850111664, -7.552812059746762 ] ] } },
{ "type": "Feature", "properties": { "fid": null }, "geometry": { "type": "LineString", "coordinates": [ [ 112.508188387034167, -7.349886820273839 ], [ 112.508971688836809, -7.365560670047148 ], [ 112.510079566366883, -7.369202624305023 ], [ 112.519948119194225, -7.371721175425066 ], [ 112.522887009958396, -7.376815113396012 ], [ 112.528742471772915, -7.38044078011886 ], [ 112.527681966388442, -7.3906522539075 ], [ 112.530621104895957, -7.395746093067469 ] ] } },
{ "type": "Feature", "properties": { "fid": null }, "geometry": { "type": "LineString", "coordinates": [ [ 112.520237559961259, -7.349481573041297 ], [ 112.521736708608458, -7.360778077279143 ], [ 112.522111827563577, -7.363693340002851 ], [ 112.525764810890607, -7.364045471553306 ], [ 112.527978334944578, -7.370600112216461 ], [ 112.526902786880328, -7.37643684482518 ], [ 112.52874748011115, -7.381899026192238 ] ] } },
{ "type": "Feature", "properties": { "fid": null }, "geometry": { "type": "LineString", "coordinates": [ [ 112.531922733392989, -7.34944181521012 ], [ 112.542885074394661, -7.351591623560482 ], [ 112.549471860186102, -7.355579101343168 ], [ 112.562989212583958, -7.357354964813318 ], [ 112.580884640561422, -7.358021295771486 ], [ 112.583442045651495, -7.358376821154943 ], [ 112.590057772454614, -7.370383727312349 ] ] } },
{ "type": "Feature", "properties": { "fid": null }, "geometry": { "type": "LineString", "coordinates": [ [ 112.568209230401266, -7.387959708087219 ], [ 112.572594034920144, -7.388673393737744 ], [ 112.587877156274303, -7.373307921916433 ], [ 112.589688704901533, -7.369291372097766 ], [ 112.605389502856625, -7.36887074840811 ], [ 112.631302617210267, -7.36513152207772 ], [ 112.646622961273309, -7.360700871527129 ], [ 112.653920533808105, -7.359215802024425 ], [ 112.66046606290837, -7.351900716185575 ], [ 112.671414769233564, -7.35040186886508 ], [ 112.6874655699648, -7.346331833348819 ], [ 112.701308585602064, -7.337895224506876 ], [ 112.710400395531224, -7.328382795288464 ], [ 112.71032678839498, -7.309062724109575 ] ] } },
{ "type": "Feature", "properties": { "fid": null }, "geometry": { "type": "LineString", "coordinates": [ [ 112.635981361942427, -7.682522384954023 ], [ 112.647115993255937, -7.678381657142284 ], [ 112.663128615403835, -7.671099450152769 ], [ 112.672865855451462, -7.65993821323023 ], [ 112.685947763292447, -7.653837635262875 ], [ 112.68809940460973, -7.653829214734725 ] ] } },
{ "type": "Feature", "properties": { "fid": null }, "geometry": { "type": "LineString", "coordinates": [ [ 112.696318597784114, -7.654772682431772 ], [ 112.70178387114359, -7.651823948693576 ], [ 112.731606880055566, -7.625946314589592 ], [ 112.783909539877641, -7.598219331150091 ] ] } },
{ "type": "Feature", "properties": { "fid": null }, "geometry": { "type": "LineString", "coordinates": [ [ 112.696185131678362, -7.654253480910675 ], [ 112.7097280942818, -7.619433051840867 ], [ 112.714328081836243, -7.607825903643567 ], [ 112.71405770694156, -7.604736582026849 ], [ 112.725062704821326, -7.581257614504062 ], [ 112.728650269412825, -7.574805102553222 ] ] } },
{ "type": "Feature", "properties": { "fid": null }, "geometry": { "type": "LineString", "coordinates": [ [ 112.640948523337713, -7.699973721016025 ], [ 112.634166412202831, -7.702138708262127 ], [ 112.630570729930568, -7.696448204605309 ], [ 112.62947544310147, -7.690391648019903 ], [ 112.634808821183114, -7.683241117748138 ], [ 112.659425779397111, -7.67245146585433 ], [ 112.664773660181297, -7.669222232483355 ], [ 112.67830698882554, -7.65740499059834 ], [ 112.687588032065833, -7.65487321663448 ], [ 112.698661239658747, -7.653760214480777 ], [ 112.732494237630206, -7.625462421113182 ], [ 112.784190691275242, -7.59815934987853 ] ] } },
{ "type": "Feature", "properties": { "fid": null }, "geometry": { "type": "LineString", "coordinates": [ [ 112.791055580941446, -7.602646118888154 ], [ 112.775725290778354, -7.621235011704445 ], [ 112.767101956734081, -7.637825407343694 ], [ 112.765168682304235, -7.648081715646691 ], [ 112.750642218367233, -7.670608720518041 ], [ 112.73415313402451, -7.69669106471416 ], [ 112.727077386778817, -7.705785678677621 ], [ 112.723573724046503, -7.718807625035874 ], [ 112.720036419644629, -7.723551997847462 ] ] } },
{ "type": "Feature", "properties": { "fid": null }, "geometry": { "type": "LineString", "coordinates": [ [ 112.683354330606363, -7.53921904028225 ], [ 112.67940126075537, -7.538445856905459 ], [ 112.677388331602387, -7.528598858946948 ], [ 112.671834245207307, -7.522313050100165 ], [ 112.659184049611966, -7.519601757591543 ], [ 112.643749733296488, -7.511775961892248 ], [ 112.630321638479629, -7.512220229396934 ], [ 112.613307968426128, -7.504399051200883 ], [ 112.608158675258409, -7.500475898621195 ], [ 112.604563417679799, -7.489451338682778 ], [ 112.595084033234286, -7.489485780210813 ], [ 112.580829375286413, -7.479681988333827 ], [ 112.569757529312227, -7.47617365707631 ], [ 112.561054209540529, -7.472262426932268 ] ] } },
{ "type": "Feature", "properties": { "fid": null }, "geometry": { "type": "LineString", "coordinates": [ [ 112.578568424928406, -7.399665635991865 ], [ 112.57694127001416, -7.386268251445725 ], [ 112.568899316281957, -7.345298531958191 ], [ 112.565246518501667, -7.316927926285891 ], [ 112.563557637788037, -7.285396660263983 ], [ 112.5689617134786, -7.249898717986668 ], [ 112.560666137173413, -7.248350414253784 ], [ 112.566529149789815, -7.231379023356427 ], [ 112.570429035381068, -7.217568106044193 ], [ 112.577436197803991, -7.189160601531498 ], [ 112.577805073034654, -7.18166927772169 ], [ 112.586443557326959, -7.168630493112288 ], [ 112.61406365231511, -7.166169080163737 ] ] } },
{ "type": "Feature", "properties": { "fid": null }, "geometry": { "type": "LineString", "coordinates": [ [ 112.489897169348197, -7.295865450176038 ], [ 112.502918110547441, -7.27928432639201 ], [ 112.539953292916778, -7.275678249302452 ] ] } },
{ "type": "Feature", "properties": { "fid": null }, "geometry": { "type": "LineString", "coordinates": [ [ 112.35644099562171, -7.271042109059652 ], [ 112.387378323269843, -7.267901848141961 ], [ 112.424435967942358, -7.270833535804167 ], [ 112.464953540426578, -7.265481784438236 ], [ 112.500250986176155, -7.263625570784686 ], [ 112.517656670332016, -7.255298732171232 ], [ 112.560355137430321, -7.251672464006391 ], [ 112.562086390707407, -7.248184921968266 ] ] } },
{ "type": "Feature", "properties": { "fid": null }, "geometry": { "type": "LineString", "coordinates": [ [ 112.508956097853115, -7.260115026056506 ], [ 112.506406372313592, -7.27970794361914 ] ] } },
{ "type": "Feature", "properties": { "fid": null }, "geometry": { "type": "LineString", "coordinates": [ [ 112.356586497323406, -7.287431538118567 ], [ 112.355589718283952, -7.275905948651815 ], [ 112.357960394251876, -7.264370275402297 ], [ 112.367049572982623, -7.247530529214432 ], [ 112.371811963001178, -7.231664468371227 ], [ 112.371765612915311, -7.216293234375629 ] ] } },
{ "type": "Feature", "properties": { "fid": null }, "geometry": { "type": "LineString", "coordinates": [ [ 112.475679497895072, -7.29388418257928 ], [ 112.484380383221605, -7.294769871447439 ], [ 112.508661111970625, -7.300174510117399 ], [ 112.53292970941348, -7.301921097756153 ], [ 112.536599749544749, -7.304194031754668 ], [ 112.554925144004571, -7.30824496490068 ], [ 112.558596901091391, -7.310974757399763 ], [ 112.559062613520226, -7.313258535332577 ], [ 112.565930979962587, -7.313691799814716 ] ] } },
{ "type": "Feature", "properties": { "fid": null }, "geometry": { "type": "LineString", "coordinates": [ [ 112.475221714138812, -7.293885677315567 ], [ 112.477025888902986, -7.285652074455291 ], [ 112.481591625659306, -7.281980390885656 ], [ 112.485238745993883, -7.277397502296563 ], [ 112.486569941968028, -7.264594519616411 ] ] } },
{ "type": "Feature", "properties": { "fid": null }, "geometry": { "type": "LineString", "coordinates": [ [ 112.462961175049699, -7.324551062975991 ], [ 112.459741580790805, -7.319990539893979 ], [ 112.460634908077537, -7.313131177328611 ], [ 112.462889734247938, -7.302610623434098 ], [ 112.465169780579515, -7.299860645080226 ], [ 112.467901629430429, -7.295280805635251 ], [ 112.467895671659505, -7.293452438207249 ], [ 112.46056517482387, -7.291647797252526 ], [ 112.460994820279893, -7.282961542951498 ], [ 112.46830732139027, -7.279281101166938 ], [ 112.471948624756322, -7.272869930604292 ], [ 112.47329510056349, -7.264637825136738 ] ] } },
{ "type": "Feature", "properties": { "fid": null }, "geometry": { "type": "LineString", "coordinates": [ [ 112.466980101712252, -7.293455411273722 ], [ 112.468337075424273, -7.288422940802292 ], [ 112.476583082891096, -7.290224470835262 ] ] } },
{ "type": "Feature", "properties": { "fid": null }, "geometry": { "type": "LineString", "coordinates": [ [ 112.425250520671156, -7.271190788878175 ], [ 112.423451131607564, -7.281252770004188 ], [ 112.413392803385904, -7.285398256710075 ], [ 112.411600309164569, -7.29774576244365 ], [ 112.410251257522248, -7.305520809618244 ], [ 112.421231421507727, -7.303200827275687 ], [ 112.429480598033578, -7.305917399166932 ] ] } },
{ "type": "Feature", "properties": { "fid": null }, "geometry": { "type": "LineString", "coordinates": [ [ 112.41070619917943, -7.30460517206217 ], [ 112.410724841859761, -7.310547512720159 ], [ 112.396106009566438, -7.320649440991292 ], [ 112.395201725024805, -7.324309126147761 ], [ 112.371397190395498, -7.325296522290595 ], [ 112.371404179057308, -7.327582074351323 ] ] } }
]
}
