{
"type": "FeatureCollection",
"name": "UC-info-jalan-tol-gks",
"crs": { "type": "name", "properties": { "name": "urn:ogc:def:crs:EPSG::32749" } },
"features": [
{ "type": "Feature", "properties": { "fid": 1 }, "geometry": { "type": "LineString", "coordinates": [ [ 635713.767324291518889, 9170695.244073523208499 ], [ 636242.801116869552061, 9170947.164927132427692 ], [ 637426.829128830111586, 9171123.509524658322334 ], [ 638459.704628625418991, 9171325.04620754532516 ], [ 639694.116811307729222, 9171652.54331723600626 ], [ 640626.22396965965163, 9172055.616683010011911 ], [ 642717.167054611258209, 9172282.345451258122921 ], [ 643800.42672512831632, 9172433.497963422909379 ], [ 644631.765542036737315, 9172357.921707341447473 ], [ 646848.669053792604245, 9171904.464170845225453 ], [ 648133.465407196665183, 9171828.887914763763547 ], [ 648939.612138744210824, 9171803.695829402655363 ], [ 649720.566784930997528, 9171980.040426928550005 ], [ 651206.899821221828461, 9173138.876353528350592 ], [ 652239.775321017252281, 9174045.791426518931985 ], [ 652668.040772151900455, 9174373.288536209613085 ], [ 653297.84290617343504, 9174600.017304457724094 ], [ 653751.300442668958567, 9174751.169816622510552 ], [ 654355.910491329734214, 9175607.700718892738223 ], [ 655187.249308238155209, 9176564.999962605535984 ], [ 656068.97229586832691, 9176968.073328379541636 ], [ 657479.729076076648198, 9177169.610011266544461 ], [ 658260.683722263318487, 9177471.915035596117377 ], [ 659268.367136697866954, 9178177.293425699695945 ], [ 660427.20306329743471, 9179310.937266938388348 ], [ 661863.151928866514936, 9180872.846559312194586 ], [ 662593.722404331550933, 9181754.569546941667795 ], [ 663425.061221239971928, 9182258.411254160106182 ], [ 664281.592123509384692, 9182434.755851686000824 ], [ 665238.891367222066037, 9182434.755851686000824 ], [ 666397.727293821750209, 9182938.597558902576566 ], [ 668010.020756916957907, 9183417.247180758044124 ], [ 669445.969622486154549, 9183669.168034367263317 ], [ 670554.421378364088014, 9183946.280973337590694 ], [ 672065.9465000157943, 9184928.772302409633994 ], [ 673779.008304554503411, 9185785.303204679861665 ], [ 675693.606791979982518, 9186364.721167979761958 ], [ 677960.894474457600154, 9186641.83410694822669 ], [ 678993.769974253023975, 9186742.602448392659426 ], [ 680001.453388687572442, 9186591.449936227872968 ], [ 680656.44760806998238, 9186893.754960557445884 ], [ 682167.972729721688665, 9188002.206716436892748 ], [ 682873.35111982584931, 9188430.472167570143938 ], [ 683679.497851373511367, 9188581.624679736793041 ], [ 684536.028753642807715, 9188203.743399323895574 ], [ 685140.638802303466946, 9188254.127570044249296 ], [ 686022.361789933638647, 9188455.664252931252122 ], [ 687004.853119007311761, 9188102.975057879462838 ], [ 688667.530752824270166, 9187775.477948188781738 ], [ 689826.366679423837923, 9187624.32543602399528 ], [ 691136.355118188774213, 9187548.749179940670729 ], [ 692169.230617984081618, 9187699.901692105457187 ], [ 693277.682373862015083, 9188002.206716436892748 ], [ 694159.405361492186785, 9187851.054204270243645 ], [ 695242.665032009244896, 9187851.054204270243645 ], [ 696603.037641495815478, 9187725.093777466565371 ], [ 698971.093665416934527, 9187120.483728805556893 ], [ 699298.590775108081289, 9186415.105338701978326 ], [ 699474.935372634208761, 9185810.495290040969849 ], [ 699071.862006860319525, 9185508.190265711396933 ], [ 698870.325323973433115, 9184802.81187560595572 ] ] } },
{ "type": "Feature", "properties": { "fid": 2 }, "geometry": { "type": "LineString", "coordinates": [ [ 690229.440045197727159, 9201177.667360167950392 ], [ 689977.519191589206457, 9200371.520628619939089 ], [ 689070.604118598159403, 9199111.916360577568412 ], [ 688818.683264989522286, 9198784.419250885024667 ], [ 688692.72283818514552, 9198280.577543668448925 ], [ 688692.72283818514552, 9195660.600666139274836 ], [ 688566.762411380885169, 9194627.725166343152523 ], [ 687861.384021276724525, 9193997.923032321035862 ], [ 687533.886911585461348, 9193746.002178713679314 ], [ 687458.310655502951704, 9192587.166252113878727 ], [ 687785.807765194098465, 9191932.172032730653882 ], [ 689045.412033237284049, 9191554.290752317756414 ], [ 689599.637911176192574, 9190773.336106130853295 ], [ 689272.140801485045813, 9189236.618899118155241 ], [ 688919.451606432907283, 9187624.325436022132635 ], [ 688743.107008906896226, 9186717.410363031551242 ], [ 688037.728618802735582, 9185407.421924266964197 ], [ 687533.886911585461348, 9184550.891021998599172 ], [ 687357.542314059450291, 9183719.552205089479685 ], [ 687004.853119007428177, 9182056.874571273103356 ], [ 686954.46894828567747, 9181351.496181169524789 ], [ 687156.005631172563881, 9180167.468169208616018 ], [ 686954.46894828567747, 9179386.513523021712899 ], [ 686828.50852148141712, 9178605.55887683480978 ], [ 687307.158143337699585, 9177119.225840544328094 ], [ 687256.773972616065294, 9175960.389913944527507 ], [ 686727.740180038032122, 9174247.328109405934811 ], [ 686274.282643542508595, 9172836.57132919691503 ], [ 686324.666814264259301, 9172030.424597648903728 ], [ 687055.237289729178883, 9170619.667817441746593 ], [ 687609.463167668203823, 9169737.944829810410738 ], [ 687407.926484781317413, 9168906.606012901291251 ], [ 686072.745960655622184, 9166714.894586507230997 ], [ 685720.056765603716485, 9166034.708281762897968 ], [ 685871.209277768852189, 9165127.793208772316575 ], [ 687156.005631172796711, 9164497.991074750199914 ], [ 688214.073216329095885, 9164220.878135781735182 ], [ 688869.067435711505823, 9164321.646477224305272 ], [ 689398.101228289538994, 9164094.917708976194263 ], [ 689473.677484372165054, 9163515.499745676293969 ], [ 689196.564545402652584, 9162658.968843407928944 ], [ 689171.372460041660815, 9161348.980404643341899 ], [ 689221.756630763411522, 9160819.946612065657973 ], [ 688465.994069937500171, 9158376.314332062378526 ], [ 688264.457387050613761, 9157267.862576184794307 ], [ 688415.609899215749465, 9156109.02664958499372 ], [ 688239.265301689738408, 9154698.26986937597394 ], [ 688365.225728494115174, 9153388.281430611386895 ], [ 688390.417813854990527, 9152179.061333289369941 ], [ 688365.225728494115174, 9151297.338345659896731 ], [ 689045.412033237400465, 9150365.231187308207154 ], [ 689398.101228289538994, 9148828.5139802955091 ], [ 689549.253740454558283, 9148299.480187717825174 ], [ 688869.067435711272992, 9147417.75720008648932 ], [ 688314.841557772248052, 9146913.915492869913578 ], [ 688163.689045607112348, 9145855.847907714545727 ], [ 689171.372460041660815, 9144142.786103174090385 ], [ 689725.59833798056934, 9142681.645152244716883 ] ] } },
{ "type": "Feature", "properties": { "fid": 3 }, "geometry": { "type": "LineString", "coordinates": [ [ 677470.954224272747524, 9212349.510080743581057 ], [ 676952.900639908271842, 9211343.876652272418141 ], [ 676709.110717854346149, 9210185.87452251650393 ], [ 676617.689497084124014, 9208723.134990192949772 ], [ 677135.743081448716111, 9207199.447977356612682 ], [ 678568.008873515296727, 9205492.918522978201509 ], [ 680548.801990203210153, 9203573.072886804118752 ], [ 681828.69908098608721, 9201805.595951912924647 ], [ 682925.753730228636414, 9200556.172601386904716 ], [ 684997.968067686655559, 9199520.065432658419013 ], [ 686765.445002577384003, 9199032.485588550567627 ], [ 687984.394612846896052, 9198849.643147010356188 ], [ 688746.238119265297428, 9199062.959328807890415 ], [ 689142.396742602926679, 9199062.959328807890415 ] ] } },
{ "type": "Feature", "properties": { "fid": 4 }, "geometry": { "type": "LineString", "coordinates": [ [ 676800.531938624568284, 9208235.555146085098386 ], [ 676130.109652976389043, 9207961.291483774781227 ], [ 676069.16217246290762, 9207808.922782490029931 ], [ 676160.583393233129755, 9206437.604470936581492 ], [ 676099.635912719648331, 9205066.286159384995699 ], [ 676038.688432206166908, 9204395.863873736932874 ], [ 674697.843860909692012, 9202567.439458331093192 ], [ 674088.369055774994195, 9201653.227250630035996 ], [ 673631.26295192388352, 9200190.487718306481838 ], [ 672808.471964992000721, 9198453.484523672610521 ], [ 670522.941445736796595, 9193882.423485161736608 ], [ 670461.993965223315172, 9191993.05158924497664 ], [ 669882.992900345358066, 9190469.36457640863955 ], [ 669395.41305623750668, 9188549.518940234556794 ], [ 668968.780692643253133, 9187208.674368936568499 ], [ 669060.201913413475268, 9184953.617589939385653 ], [ 669090.675653670215979, 9184161.30034326389432 ], [ 669974.414121115463786, 9183582.299278385937214 ], [ 670431.52022496657446, 9183125.193174535408616 ], [ 670736.257627533865161, 9181631.97990195453167 ], [ 671101.942510614753701, 9180687.293953996151686 ] ] } },
{ "type": "Feature", "properties": { "fid": 5 }, "geometry": { "type": "LineString", "coordinates": [ [ 654881.971196246449836, 9175498.605615960434079 ], [ 654910.865814440650865, 9175744.209870610386133 ], [ 655185.36468728503678, 9176119.839907133951783 ], [ 655344.28508735273499, 9176322.102234493941069 ], [ 655358.732396449893713, 9176639.943034630268812 ] ] } },
{ "type": "Feature", "properties": { "fid": 6 }, "geometry": { "type": "LineString", "coordinates": [ [ 655373.17970554693602, 9176437.680707270279527 ], [ 655243.153923673322424, 9176553.259180046617985 ], [ 655113.128141799592413, 9176611.048416435718536 ], [ 655040.891596314264461, 9176582.153798241168261 ], [ 655040.891596314264461, 9176452.128016367554665 ], [ 655127.575450896751136, 9176408.786089075729251 ], [ 655358.732396449893713, 9176423.233398173004389 ] ] } },
{ "type": "Feature", "properties": { "fid": 7 }, "geometry": { "type": "LineString", "coordinates": [ [ 660025.213234804105014, 9178893.723253773525357 ], [ 660010.765925706946291, 9179009.301726549863815 ], [ 659880.740143833332695, 9179067.090962937101722 ], [ 659794.056289250962436, 9178965.959799258038402 ], [ 659866.292834736290388, 9178807.03939918987453 ], [ 660299.712107648374513, 9178214.699726210907102 ], [ 661007.630253404960968, 9177001.125762056559324 ], [ 661050.972180696204305, 9176827.758052891120315 ] ] } },
{ "type": "Feature", "properties": { "fid": 8 }, "geometry": { "type": "LineString", "coordinates": [ [ 661022.077562502003275, 9176943.336525667458773 ], [ 660964.288326113717631, 9176871.099980182945728 ], [ 660906.499089725431986, 9176928.889216570183635 ], [ 660978.735635210759938, 9177058.914998443797231 ] ] } },
{ "type": "Feature", "properties": { "fid": null }, "geometry": { "type": "LineString", "coordinates": [ [ 685069.992579750949517, 9117874.467075154185295 ], [ 685477.89502469135914, 9118250.992408944293857 ], [ 686325.07702572143171, 9118658.894853886216879 ], [ 686795.73369296034798, 9119976.733522154390812 ], [ 686732.979470661841333, 9120949.423967782407999 ], [ 685540.649246989865787, 9121545.589079618453979 ], [ 684818.975690556922927, 9122549.656636394560337 ], [ 684913.107024004682899, 9123836.1181935146451 ], [ 685634.780580437625758, 9124808.808639140799642 ], [ 687235.013249050010927, 9127036.583530738949776 ], [ 687831.178360885940492, 9127946.519754067063332 ], [ 687674.292805139673874, 9129609.506644977256656 ], [ 688239.080805826350115, 9131146.985091291368008 ], [ 688615.606139617506415, 9132402.069537261500955 ], [ 688395.966361572733149, 9133060.988871395587921 ], [ 688584.229028468253091, 9133782.662427829578519 ], [ 690247.215919379144907, 9134629.844428859651089 ], [ 690592.364142021047883, 9135351.517985291779041 ], [ 690529.609919722541235, 9137516.538654590025544 ], [ 690121.707474782131612, 9138238.212211024016142 ], [ 690529.609919722541235, 9140152.215991128236055 ], [ 690309.970141677651554, 9141564.185992846265435 ], [ 689713.805029841721989, 9142756.516216518357396 ] ] } },
{ "type": "Feature", "properties": { "fid": null }, "geometry": { "type": "LineString", "coordinates": [ [ 682465.692354362457991, 9124683.300194542855024 ], [ 683250.120133094023913, 9124024.380860406905413 ], [ 684662.090134810772724, 9123616.478415466845036 ], [ 684913.107024004799314, 9123647.855526616796851 ] ] } },
{ "type": "Feature", "properties": { "fid": null }, "geometry": { "type": "LineString", "coordinates": [ [ 689178.080361979198642, 9160818.721029214560986 ], [ 690146.484441298409365, 9160562.378772923722863 ], [ 692368.117329148459248, 9159451.562328999862075 ], [ 693336.521408467786387, 9158767.982978891581297 ], [ 694304.92548778699711, 9158369.228357994928956 ], [ 695045.469783736974932, 9157771.096426650881767 ], [ 696697.453213164000772, 9156916.622239015996456 ], [ 697722.822238325490616, 9156546.350091041997075 ] ] } }
]
}
