{"type": "FeatureCollection", "name": "hasil-analisisdata_poi_gerbangkertosusila", "crs": {"type": "name", "properties": {"name": "urn:ogc:def:crs:OGC:1.3:CRS84"}}, "features": [{"type": "Feature", "properties": {"element": "node", "id": 10825574559, "amenity": "university", "office": null, "shop": null}, "geometry": {"type": "Point", "coordinates": [112.6976055, -7.5424910000000045]}}, {"type": "Feature", "properties": {"element": "node", "id": 10083847367, "amenity": "hospital", "office": null, "shop": null}, "geometry": {"type": "Point", "coordinates": [112.6986249, -7.5423087]}}, {"type": "Feature", "properties": {"element": "node", "id": 6761427885, "amenity": null, "office": null, "shop": "department_store"}, "geometry": {"type": "Point", "coordinates": [112.6899812, -7.497644300000003]}}, {"type": "Feature", "properties": {"element": "node", "id": 13597117828, "amenity": "bank", "office": null, "shop": null}, "geometry": {"type": "Point", "coordinates": [112.7173604, -7.460537300000008]}}, {"type": "Feature", "properties": {"element": "node", "id": 9706137717, "amenity": "hospital", "office": null, "shop": null}, "geometry": {"type": "Point", "coordinates": [112.68744440000002, -7.460300299999996]}}, {"type": "Feature", "properties": {"element": "node", "id": 9818910946, "amenity": null, "office": null, "shop": "mall"}, "geometry": {"type": "Point", "coordinates": [112.7141921, -7.451132199999999]}}, {"type": "Feature", "properties": {"element": "node", "id": 9813661239, "amenity": null, "office": "insurance", "shop": null}, "geometry": {"type": "Point", "coordinates": [112.7047893, -7.449637700000009]}}, {"type": "Feature", "properties": {"element": "node", "id": 9818933646, "amenity": null, "office": null, "shop": "mall"}, "geometry": {"type": "Point", "coordinates": [112.711765, -7.449486300000003]}}, {"type": "Feature", "properties": {"element": "node", "id": 4664675093, "amenity": "bank", "office": null, "shop": null}, "geometry": {"type": "Point", "coordinates": [112.718563, -7.4489880000000035]}}, {"type": "Feature", "properties": {"element": "node", "id": 4664675092, "amenity": "bank", "office": null, "shop": null}, "geometry": {"type": "Point", "coordinates": [112.7186191, -7.448381400000006]}}, {"type": "Feature", "properties": {"element": "node", "id": 7257240886, "amenity": "bank", "office": null, "shop": null}, "geometry": {"type": "Point", "coordinates": [112.6209834, -7.553679700000003]}}, {"type": "Feature", "properties": {"element": "node", "id": 11228479252, "amenity": "bank", "office": null, "shop": null}, "geometry": {"type": "Point", "coordinates": [112.6168647, -7.5530946999999955]}}, {"type": "Feature", "properties": {"element": "node", "id": 7262574986, "amenity": "bank", "office": null, "shop": null}, "geometry": {"type": "Point", "coordinates": [112.6819458, -7.539604400000002]}}, {"type": "Feature", "properties": {"element": "node", "id": 5271158726, "amenity": "university", "office": null, "shop": null}, "geometry": {"type": "Point", "coordinates": [112.4623737, -7.495473100000004]}}, {"type": "Feature", "properties": {"element": "node", "id": 9753337829, "amenity": "hospital", "office": null, "shop": null}, "geometry": {"type": "Point", "coordinates": [112.4635899, -7.4331082]}}, {"type": "Feature", "properties": {"element": "node", "id": 4673985518, "amenity": "hospital", "office": null, "shop": null}, "geometry": {"type": "Point", "coordinates": [112.6745462, -7.414372099999997]}}, {"type": "Feature", "properties": {"element": "node", "id": 9753366263, "amenity": "hospital", "office": null, "shop": null}, "geometry": {"type": "Point", "coordinates": [112.5565533, -7.407580699999996]}}, {"type": "Feature", "properties": {"element": "node", "id": 4673984279, "amenity": "hospital", "office": null, "shop": null}, "geometry": {"type": "Point", "coordinates": [112.67298400000001, -7.3940263999999996]}}, {"type": "Feature", "properties": {"element": "node", "id": 11779586664, "amenity": "hospital", "office": null, "shop": null}, "geometry": {"type": "Point", "coordinates": [112.5234446, -7.324369200000006]}}, {"type": "Feature", "properties": {"element": "node", "id": 11937413069, "amenity": "hospital", "office": null, "shop": null}, "geometry": {"type": "Point", "coordinates": [112.7227569, -7.464129099999996]}}, {"type": "Feature", "properties": {"element": "node", "id": 12037920569, "amenity": "hospital", "office": null, "shop": null}, "geometry": {"type": "Point", "coordinates": [112.7218706, -7.459199700000006]}}, {"type": "Feature", "properties": {"element": "node", "id": 4109541378, "amenity": "bank", "office": null, "shop": null}, "geometry": {"type": "Point", "coordinates": [112.7192808, -7.445894299999995]}}, {"type": "Feature", "properties": {"element": "node", "id": 10023849782, "amenity": "bank", "office": null, "shop": null}, "geometry": {"type": "Point", "coordinates": [112.71994080000002, -7.442770300000004]}}, {"type": "Feature", "properties": {"element": "node", "id": 13452626808, "amenity": null, "office": "telecommunication", "shop": null}, "geometry": {"type": "Point", "coordinates": [112.720256, -7.4408099000000005]}}, {"type": "Feature", "properties": {"element": "node", "id": 13452623262, "amenity": null, "office": "telecommunication", "shop": null}, "geometry": {"type": "Point", "coordinates": [112.7206047, -7.436641099999997]}}, {"type": "Feature", "properties": {"element": "node", "id": 13399427551, "amenity": "hospital", "office": null, "shop": null}, "geometry": {"type": "Point", "coordinates": [112.7216295, -7.433379299999998]}}, {"type": "Feature", "properties": {"element": "node", "id": 4189190497, "amenity": "hospital", "office": null, "shop": null}, "geometry": {"type": "Point", "coordinates": [112.7267153, -7.405062399999997]}}, {"type": "Feature", "properties": {"element": "node", "id": 9813748542, "amenity": "hospital", "office": null, "shop": null}, "geometry": {"type": "Point", "coordinates": [112.72689370000002, -7.401128999999991]}}, {"type": "Feature", "properties": {"element": "node", "id": 12452557901, "amenity": null, "office": "it", "shop": null}, "geometry": {"type": "Point", "coordinates": [112.72620170000002, -7.394705200000006]}}, {"type": "Feature", "properties": {"element": "node", "id": 4664675090, "amenity": "bank", "office": null, "shop": null}, "geometry": {"type": "Point", "coordinates": [112.7188292, -7.447802600000007]}}, {"type": "Feature", "properties": {"element": "node", "id": 4664675091, "amenity": "bank", "office": null, "shop": null}, "geometry": {"type": "Point", "coordinates": [112.7188946, -7.447571000000005]}}, {"type": "Feature", "properties": {"element": "node", "id": 4664659144, "amenity": "hospital", "office": null, "shop": null}, "geometry": {"type": "Point", "coordinates": [112.7166296, -7.444616700000001]}}, {"type": "Feature", "properties": {"element": "node", "id": 4664680622, "amenity": "hospital", "office": null, "shop": null}, "geometry": {"type": "Point", "coordinates": [112.7155906, -7.444580299999999]}}, {"type": "Feature", "properties": {"element": "node", "id": 4674016744, "amenity": "hospital", "office": null, "shop": null}, "geometry": {"type": "Point", "coordinates": [112.68597, -7.4419765000000035]}}, {"type": "Feature", "properties": {"element": "node", "id": 4189205726, "amenity": "hospital", "office": null, "shop": null}, "geometry": {"type": "Point", "coordinates": [112.71784590000001, -7.387775599999999]}}, {"type": "Feature", "properties": {"element": "node", "id": 5960376604, "amenity": "bank", "office": null, "shop": null}, "geometry": {"type": "Point", "coordinates": [112.691753, -7.350644700000002]}}, {"type": "Feature", "properties": {"element": "node", "id": 12839114301, "amenity": null, "office": null, "shop": "department_store"}, "geometry": {"type": "Point", "coordinates": [112.68752190000001, -7.311331300000007]}}, {"type": "Feature", "properties": {"element": "node", "id": 4188746816, "amenity": null, "office": null, "shop": "mall"}, "geometry": {"type": "Point", "coordinates": [112.718239, -7.291543300000005]}}, {"type": "Feature", "properties": {"element": "node", "id": 4520374028, "amenity": "bank", "office": null, "shop": null}, "geometry": {"type": "Point", "coordinates": [112.7183972, -7.2913815]}}, {"type": "Feature", "properties": {"element": "node", "id": 5282946391, "amenity": "bank", "office": null, "shop": null}, "geometry": {"type": "Point", "coordinates": [112.6761889, -7.2992880000000095]}}, {"type": "Feature", "properties": {"element": "node", "id": 5301547800, "amenity": "bank", "office": null, "shop": null}, "geometry": {"type": "Point", "coordinates": [112.6692731, -7.298748899999996]}}, {"type": "Feature", "properties": {"element": "node", "id": 4899088195, "amenity": "bank", "office": null, "shop": null}, "geometry": {"type": "Point", "coordinates": [112.5981647, -7.29573539999999]}}, {"type": "Feature", "properties": {"element": "node", "id": 4833837618, "amenity": "bank", "office": null, "shop": null}, "geometry": {"type": "Point", "coordinates": [112.6751116, -7.2949845000000035]}}, {"type": "Feature", "properties": {"element": "node", "id": 4476181293, "amenity": "bank", "office": null, "shop": null}, "geometry": {"type": "Point", "coordinates": [112.6546106, -7.294583100000004]}}, {"type": "Feature", "properties": {"element": "node", "id": 4372135228, "amenity": "bank", "office": null, "shop": null}, "geometry": {"type": "Point", "coordinates": [112.6547924, -7.291638800000003]}}, {"type": "Feature", "properties": {"element": "node", "id": 4840872222, "amenity": "bank", "office": null, "shop": null}, "geometry": {"type": "Point", "coordinates": [112.6549166, -7.291265700000001]}}, {"type": "Feature", "properties": {"element": "node", "id": 4766355330, "amenity": "bank", "office": null, "shop": null}, "geometry": {"type": "Point", "coordinates": [112.6551899, -7.2899222999999935]}}, {"type": "Feature", "properties": {"element": "node", "id": 11971508621, "amenity": "hospital", "office": null, "shop": null}, "geometry": {"type": "Point", "coordinates": [112.435762, -7.290190699999995]}}, {"type": "Feature", "properties": {"element": "node", "id": 4766357265, "amenity": "bank", "office": null, "shop": null}, "geometry": {"type": "Point", "coordinates": [112.6553366, -7.2893346]}}, {"type": "Feature", "properties": {"element": "node", "id": 4520374024, "amenity": "bank", "office": null, "shop": null}, "geometry": {"type": "Point", "coordinates": [112.7181625, -7.291357500000004]}}, {"type": "Feature", "properties": {"element": "node", "id": 4520374033, "amenity": "bank", "office": null, "shop": null}, "geometry": {"type": "Point", "coordinates": [112.7181169, -7.291348200000004]}}, {"type": "Feature", "properties": {"element": "node", "id": 4520374035, "amenity": "bank", "office": null, "shop": null}, "geometry": {"type": "Point", "coordinates": [112.7180418, -7.2913376000000065]}}, {"type": "Feature", "properties": {"element": "node", "id": 4520374030, "amenity": "bank", "office": null, "shop": null}, "geometry": {"type": "Point", "coordinates": [112.7179775, -7.291321600000003]}}, {"type": "Feature", "properties": {"element": "node", "id": 4520374032, "amenity": "bank", "office": null, "shop": null}, "geometry": {"type": "Point", "coordinates": [112.7177844, -7.291285699999999]}}, {"type": "Feature", "properties": {"element": "node", "id": 4520374026, "amenity": "bank", "office": null, "shop": null}, "geometry": {"type": "Point", "coordinates": [112.7176824, -7.291272399999995]}}, {"type": "Feature", "properties": {"element": "node", "id": 4520374025, "amenity": "bank", "office": null, "shop": null}, "geometry": {"type": "Point", "coordinates": [112.7175939, -7.291245800000004]}}, {"type": "Feature", "properties": {"element": "node", "id": 4520374034, "amenity": "bank", "office": null, "shop": null}, "geometry": {"type": "Point", "coordinates": [112.7174048, -7.291208500000004]}}, {"type": "Feature", "properties": {"element": "node", "id": 4520374027, "amenity": "bank", "office": null, "shop": null}, "geometry": {"type": "Point", "coordinates": [112.7173083, -7.291184599999999]}}, {"type": "Feature", "properties": {"element": "node", "id": 4520374021, "amenity": "bank", "office": null, "shop": null}, "geometry": {"type": "Point", "coordinates": [112.7172452, -7.291172600000003]}}, {"type": "Feature", "properties": {"element": "node", "id": 9821350510, "amenity": null, "office": null, "shop": "department_store"}, "geometry": {"type": "Point", "coordinates": [112.6758701, -7.289221499999992]}}, {"type": "Feature", "properties": {"element": "node", "id": 4531185697, "amenity": "bank", "office": null, "shop": null}, "geometry": {"type": "Point", "coordinates": [112.6789456, -7.287665899999999]}}, {"type": "Feature", "properties": {"element": "node", "id": 5391392735, "amenity": "bank", "office": null, "shop": null}, "geometry": {"type": "Point", "coordinates": [112.6789709, -7.287634400000006]}}, {"type": "Feature", "properties": {"element": "node", "id": 4824487807, "amenity": "bank", "office": null, "shop": null}, "geometry": {"type": "Point", "coordinates": [112.6790157, -7.287594300000006]}}, {"type": "Feature", "properties": {"element": "node", "id": 4189793629, "amenity": "bank", "office": null, "shop": null}, "geometry": {"type": "Point", "coordinates": [112.6793129, -7.287283299999992]}}, {"type": "Feature", "properties": {"element": "node", "id": 5408316054, "amenity": "bank", "office": null, "shop": null}, "geometry": {"type": "Point", "coordinates": [112.6793965, -7.287211600000008]}}, {"type": "Feature", "properties": {"element": "node", "id": 5408315724, "amenity": "bank", "office": null, "shop": null}, "geometry": {"type": "Point", "coordinates": [112.6796011, -7.287005100000003]}}, {"type": "Feature", "properties": {"element": "node", "id": 10959555005, "amenity": "bank", "office": null, "shop": null}, "geometry": {"type": "Point", "coordinates": [112.679126, -7.2864202000000065]}}, {"type": "Feature", "properties": {"element": "node", "id": 13436075739, "amenity": "university", "office": null, "shop": null}, "geometry": {"type": "Point", "coordinates": [112.6317881, -7.2859705]}}, {"type": "Feature", "properties": {"element": "node", "id": 2546795332, "amenity": "bank", "office": null, "shop": null}, "geometry": {"type": "Point", "coordinates": [112.6315117, -7.2858035000000045]}}, {"type": "Feature", "properties": {"element": "node", "id": 4520374022, "amenity": "bank", "office": null, "shop": null}, "geometry": {"type": "Point", "coordinates": [112.7170923, -7.291127400000006]}}, {"type": "Feature", "properties": {"element": "node", "id": 4520374029, "amenity": "bank", "office": null, "shop": null}, "geometry": {"type": "Point", "coordinates": [112.71699440000002, -7.291106099999994]}}, {"type": "Feature", "properties": {"element": "node", "id": 4520374031, "amenity": "bank", "office": null, "shop": null}, "geometry": {"type": "Point", "coordinates": [112.7169553, -7.290865399999995]}}, {"type": "Feature", "properties": {"element": "node", "id": 5215362272, "amenity": "bank", "office": null, "shop": null}, "geometry": {"type": "Point", "coordinates": [112.6965948, -7.285186499999992]}}, {"type": "Feature", "properties": {"element": "node", "id": 4824490647, "amenity": "bank", "office": null, "shop": null}, "geometry": {"type": "Point", "coordinates": [112.6931038, -7.2848553999999925]}}, {"type": "Feature", "properties": {"element": "node", "id": 4586405371, "amenity": "bank", "office": null, "shop": null}, "geometry": {"type": "Point", "coordinates": [112.6850932, -7.281450700000003]}}, {"type": "Feature", "properties": {"element": "node", "id": 4586405380, "amenity": "bank", "office": null, "shop": null}, "geometry": {"type": "Point", "coordinates": [112.6859675, -7.280691300000007]}}, {"type": "Feature", "properties": {"element": "node", "id": 8120343070, "amenity": null, "office": "it", "shop": null}, "geometry": {"type": "Point", "coordinates": [112.7041509, -7.274169300000007]}}, {"type": "Feature", "properties": {"element": "node", "id": 7996241285, "amenity": null, "office": null, "shop": "department_store"}, "geometry": {"type": "Point", "coordinates": [112.7134944, -7.245426200000007]}}, {"type": "Feature", "properties": {"element": "node", "id": 11252276437, "amenity": "bank", "office": null, "shop": null}, "geometry": {"type": "Point", "coordinates": [112.7175535, -7.1564274000000045]}}, {"type": "Feature", "properties": {"element": "node", "id": 11252263937, "amenity": "bank", "office": null, "shop": null}, "geometry": {"type": "Point", "coordinates": [112.7191378, -7.159950700000002]}}, {"type": "Feature", "properties": {"element": "node", "id": 11252261738, "amenity": "bank", "office": null, "shop": null}, "geometry": {"type": "Point", "coordinates": [112.7171968, -7.155431700000006]}}, {"type": "Feature", "properties": {"element": "node", "id": 7693988787, "amenity": null, "office": "lawyer", "shop": null}, "geometry": {"type": "Point", "coordinates": [112.7526003, -7.417496599999992]}}, {"type": "Feature", "properties": {"element": "node", "id": 7759277188, "amenity": "university", "office": null, "shop": null}, "geometry": {"type": "Point", "coordinates": [112.7898868, -7.397587399999995]}}, {"type": "Feature", "properties": {"element": "node", "id": 8063853350, "amenity": null, "office": "telecommunication", "shop": null}, "geometry": {"type": "Point", "coordinates": [112.7670794, -7.355606100000001]}}, {"type": "Feature", "properties": {"element": "node", "id": 12292716887, "amenity": "university", "office": null, "shop": null}, "geometry": {"type": "Point", "coordinates": [112.7842595, -7.344657699999999]}}, {"type": "Feature", "properties": {"element": "node", "id": 7215516217, "amenity": "hospital", "office": null, "shop": null}, "geometry": {"type": "Point", "coordinates": [112.77542450000001, -7.344626700000002]}}, {"type": "Feature", "properties": {"element": "node", "id": 4191113664, "amenity": "bank", "office": null, "shop": null}, "geometry": {"type": "Point", "coordinates": [112.7583705, -7.3307485999999935]}}, {"type": "Feature", "properties": {"element": "node", "id": 1583828318, "amenity": "university", "office": null, "shop": null}, "geometry": {"type": "Point", "coordinates": [112.7642977, -7.300087299999998]}}, {"type": "Feature", "properties": {"element": "node", "id": 9824048049, "amenity": "hospital", "office": null, "shop": null}, "geometry": {"type": "Point", "coordinates": [112.7951887, -7.291182199999999]}}, {"type": "Feature", "properties": {"element": "node", "id": 12272474213, "amenity": "bank", "office": null, "shop": null}, "geometry": {"type": "Point", "coordinates": [112.7774907, -7.2853188000000015]}}, {"type": "Feature", "properties": {"element": "node", "id": 4188949331, "amenity": null, "office": null, "shop": "mall"}, "geometry": {"type": "Point", "coordinates": [112.758654, -7.283198500000006]}}, {"type": "Feature", "properties": {"element": "node", "id": 4867314223, "amenity": null, "office": null, "shop": "department_store"}, "geometry": {"type": "Point", "coordinates": [112.7338017, -7.390350200000007]}}, {"type": "Feature", "properties": {"element": "node", "id": 3268565055, "amenity": "hospital", "office": null, "shop": null}, "geometry": {"type": "Point", "coordinates": [112.7282712, -7.387065800000005]}}, {"type": "Feature", "properties": {"element": "node", "id": 4190995540, "amenity": "bank", "office": null, "shop": null}, "geometry": {"type": "Point", "coordinates": [112.7258587, -7.368753900000005]}}, {"type": "Feature", "properties": {"element": "node", "id": 9816166279, "amenity": "university", "office": null, "shop": null}, "geometry": {"type": "Point", "coordinates": [112.7286504, -7.344930699999992]}}, {"type": "Feature", "properties": {"element": "node", "id": 11308076626, "amenity": "bank", "office": null, "shop": null}, "geometry": {"type": "Point", "coordinates": [112.731244, -7.331793599999994]}}, {"type": "Feature", "properties": {"element": "node", "id": 12724564687, "amenity": "university", "office": null, "shop": null}, "geometry": {"type": "Point", "coordinates": [112.7255392, -7.316315399999992]}}, {"type": "Feature", "properties": {"element": "node", "id": 1583812543, "amenity": "university", "office": null, "shop": null}, "geometry": {"type": "Point", "coordinates": [112.7266295, -7.315646699999996]}}, {"type": "Feature", "properties": {"element": "node", "id": 1517895714, "amenity": "university", "office": null, "shop": null}, "geometry": {"type": "Point", "coordinates": [112.7288533, -7.311059800000007]}}, {"type": "Feature", "properties": {"element": "node", "id": 4298698191, "amenity": null, "office": "telecommunication", "shop": null}, "geometry": {"type": "Point", "coordinates": [112.7284871, -7.3100816]}}, {"type": "Feature", "properties": {"element": "node", "id": 7947613185, "amenity": null, "office": null, "shop": "department_store"}, "geometry": {"type": "Point", "coordinates": [112.7244457, -7.300079699999992]}}, {"type": "Feature", "properties": {"element": "node", "id": 4193331411, "amenity": null, "office": null, "shop": "mall"}, "geometry": {"type": "Point", "coordinates": [112.7406136, -7.3178370999999975]}}, {"type": "Feature", "properties": {"element": "node", "id": 13205863501, "amenity": "hospital", "office": null, "shop": null}, "geometry": {"type": "Point", "coordinates": [112.7362334, -7.292155600000001]}}, {"type": "Feature", "properties": {"element": "node", "id": 12292717236, "amenity": "hospital", "office": null, "shop": null}, "geometry": {"type": "Point", "coordinates": [112.7362614, -7.291206900000005]}}, {"type": "Feature", "properties": {"element": "node", "id": 13049717701, "amenity": null, "office": "lawyer", "shop": null}, "geometry": {"type": "Point", "coordinates": [112.7390513, -7.286385000000003]}}, {"type": "Feature", "properties": {"element": "node", "id": 10571852355, "amenity": "bank", "office": null, "shop": null}, "geometry": {"type": "Point", "coordinates": [112.7398807, -7.286101100000003]}}, {"type": "Feature", "properties": {"element": "node", "id": 6681977560, "amenity": "bank", "office": null, "shop": null}, "geometry": {"type": "Point", "coordinates": [112.7387668, -7.282418099999992]}}, {"type": "Feature", "properties": {"element": "node", "id": 7913604555, "amenity": "bank", "office": null, "shop": null}, "geometry": {"type": "Point", "coordinates": [112.7428281, -7.272850999999998]}}, {"type": "Feature", "properties": {"element": "node", "id": 12780156890, "amenity": "bank", "office": null, "shop": null}, "geometry": {"type": "Point", "coordinates": [112.7416387, -7.272838900000004]}}, {"type": "Feature", "properties": {"element": "node", "id": 7913600913, "amenity": "bank", "office": null, "shop": null}, "geometry": {"type": "Point", "coordinates": [112.7414888, -7.272772099999996]}}, {"type": "Feature", "properties": {"element": "node", "id": 7913603389, "amenity": null, "office": "telecommunication", "shop": null}, "geometry": {"type": "Point", "coordinates": [112.7412438, -7.2727578999999976]}}, {"type": "Feature", "properties": {"element": "node", "id": 9833059949, "amenity": "hospital", "office": null, "shop": null}, "geometry": {"type": "Point", "coordinates": [112.73549540000002, -7.293145099999992]}}, {"type": "Feature", "properties": {"element": "node", "id": 10679202176, "amenity": null, "office": "it", "shop": null}, "geometry": {"type": "Point", "coordinates": [112.7204354, -7.292457499999994]}}, {"type": "Feature", "properties": {"element": "node", "id": 4520374023, "amenity": "bank", "office": null, "shop": null}, "geometry": {"type": "Point", "coordinates": [112.7185112, -7.291396099999995]}}, {"type": "Feature", "properties": {"element": "node", "id": 4905089186, "amenity": "bank", "office": null, "shop": null}, "geometry": {"type": "Point", "coordinates": [112.7310053, -7.290413600000006]}}, {"type": "Feature", "properties": {"element": "node", "id": 12292683791, "amenity": "bank", "office": null, "shop": null}, "geometry": {"type": "Point", "coordinates": [112.7355677, -7.288247299999992]}}, {"type": "Feature", "properties": {"element": "node", "id": 4190993629, "amenity": "bank", "office": null, "shop": null}, "geometry": {"type": "Point", "coordinates": [112.7285548, -7.278608199999999]}}, {"type": "Feature", "properties": {"element": "node", "id": 4556787591, "amenity": "bank", "office": null, "shop": null}, "geometry": {"type": "Point", "coordinates": [112.7284706, -7.269760700000003]}}, {"type": "Feature", "properties": {"element": "node", "id": 4556787613, "amenity": "bank", "office": null, "shop": null}, "geometry": {"type": "Point", "coordinates": [112.728486, -7.269578799999992]}}, {"type": "Feature", "properties": {"element": "node", "id": 4556787612, "amenity": "bank", "office": null, "shop": null}, "geometry": {"type": "Point", "coordinates": [112.7279952, -7.269570799999993]}}, {"type": "Feature", "properties": {"element": "node", "id": 4556787184, "amenity": "bank", "office": null, "shop": null}, "geometry": {"type": "Point", "coordinates": [112.7282876, -7.269286100000005]}}, {"type": "Feature", "properties": {"element": "node", "id": 4451612467, "amenity": "bank", "office": null, "shop": null}, "geometry": {"type": "Point", "coordinates": [112.78058030000001, -7.282359000000002]}}, {"type": "Feature", "properties": {"element": "node", "id": 5897593891, "amenity": "bank", "office": null, "shop": null}, "geometry": {"type": "Point", "coordinates": [112.7773833, -7.2802304]}}, {"type": "Feature", "properties": {"element": "node", "id": 5897593896, "amenity": "bank", "office": null, "shop": null}, "geometry": {"type": "Point", "coordinates": [112.7731776, -7.280185199999989]}}, {"type": "Feature", "properties": {"element": "node", "id": 5897593902, "amenity": "bank", "office": null, "shop": null}, "geometry": {"type": "Point", "coordinates": [112.76977120000001, -7.279943100000007]}}, {"type": "Feature", "properties": {"element": "node", "id": 5897593905, "amenity": "bank", "office": null, "shop": null}, "geometry": {"type": "Point", "coordinates": [112.7683523, -7.279780799999999]}}, {"type": "Feature", "properties": {"element": "node", "id": 5897591832, "amenity": "bank", "office": null, "shop": null}, "geometry": {"type": "Point", "coordinates": [112.765815, -7.279469500000004]}}, {"type": "Feature", "properties": {"element": "node", "id": 5897591836, "amenity": null, "office": "lawyer", "shop": null}, "geometry": {"type": "Point", "coordinates": [112.7658766, -7.2788974999999985]}}, {"type": "Feature", "properties": {"element": "node", "id": 5897591791, "amenity": "bank", "office": null, "shop": null}, "geometry": {"type": "Point", "coordinates": [112.7606571, -7.278806999999993]}}, {"type": "Feature", "properties": {"element": "node", "id": 5897591794, "amenity": "bank", "office": null, "shop": null}, "geometry": {"type": "Point", "coordinates": [112.7598068, -7.278658000000004]}}, {"type": "Feature", "properties": {"element": "node", "id": 5897591795, "amenity": "bank", "office": null, "shop": null}, "geometry": {"type": "Point", "coordinates": [112.7596351, -7.278612800000008]}}, {"type": "Feature", "properties": {"element": "node", "id": 5897591798, "amenity": "bank", "office": null, "shop": null}, "geometry": {"type": "Point", "coordinates": [112.7590343, -7.278535600000002]}}, {"type": "Feature", "properties": {"element": "node", "id": 5897591799, "amenity": "bank", "office": null, "shop": null}, "geometry": {"type": "Point", "coordinates": [112.7589485, -7.2785223000000085]}}, {"type": "Feature", "properties": {"element": "node", "id": 5897591801, "amenity": "bank", "office": null, "shop": null}, "geometry": {"type": "Point", "coordinates": [112.7588037, -7.278495700000004]}}, {"type": "Feature", "properties": {"element": "node", "id": 5897591830, "amenity": "bank", "office": null, "shop": null}, "geometry": {"type": "Point", "coordinates": [112.7655414, -7.2784026]}}, {"type": "Feature", "properties": {"element": "node", "id": 5897591807, "amenity": "bank", "office": null, "shop": null}, "geometry": {"type": "Point", "coordinates": [112.75727350000001, -7.2782163]}}, {"type": "Feature", "properties": {"element": "node", "id": 5897591811, "amenity": "bank", "office": null, "shop": null}, "geometry": {"type": "Point", "coordinates": [112.7566123, -7.278104600000002]}}, {"type": "Feature", "properties": {"element": "node", "id": 9832072676, "amenity": "university", "office": null, "shop": null}, "geometry": {"type": "Point", "coordinates": [112.79570940000002, -7.277813999999994]}}, {"type": "Feature", "properties": {"element": "node", "id": 9979592573, "amenity": "bank", "office": null, "shop": null}, "geometry": {"type": "Point", "coordinates": [112.7599259, -7.270977400000006]}}, {"type": "Feature", "properties": {"element": "node", "id": 2106536246, "amenity": "bank", "office": null, "shop": null}, "geometry": {"type": "Point", "coordinates": [112.7965328, -7.270695599999993]}}, {"type": "Feature", "properties": {"element": "node", "id": 2939928276, "amenity": "bank", "office": null, "shop": null}, "geometry": {"type": "Point", "coordinates": [112.7965018, -7.270496899999998]}}, {"type": "Feature", "properties": {"element": "node", "id": 7913603390, "amenity": null, "office": "telecommunication", "shop": null}, "geometry": {"type": "Point", "coordinates": [112.7428004, -7.272746500000007]}}, {"type": "Feature", "properties": {"element": "node", "id": 7913586749, "amenity": "bank", "office": null, "shop": null}, "geometry": {"type": "Point", "coordinates": [112.7427496, -7.272674300000005]}}, {"type": "Feature", "properties": {"element": "node", "id": 4258042689, "amenity": null, "office": "telecommunication", "shop": null}, "geometry": {"type": "Point", "coordinates": [112.7444192, -7.272069800000005]}}, {"type": "Feature", "properties": {"element": "node", "id": 6038731827, "amenity": "bank", "office": null, "shop": null}, "geometry": {"type": "Point", "coordinates": [112.7425523, -7.271947399999996]}}, {"type": "Feature", "properties": {"element": "node", "id": 3758829190, "amenity": "bank", "office": null, "shop": null}, "geometry": {"type": "Point", "coordinates": [112.7419014, -7.271861899999996]}}, {"type": "Feature", "properties": {"element": "node", "id": 13148918701, "amenity": null, "office": "telecommunication", "shop": null}, "geometry": {"type": "Point", "coordinates": [112.7439482, -7.269631099999992]}}, {"type": "Feature", "properties": {"element": "node", "id": 1956411995, "amenity": "bank", "office": null, "shop": null}, "geometry": {"type": "Point", "coordinates": [112.7387828, -7.268287799999996]}}, {"type": "Feature", "properties": {"element": "node", "id": 1956411990, "amenity": "bank", "office": null, "shop": null}, "geometry": {"type": "Point", "coordinates": [112.7387327, -7.268270200000005]}}, {"type": "Feature", "properties": {"element": "node", "id": 1956411989, "amenity": "bank", "office": null, "shop": null}, "geometry": {"type": "Point", "coordinates": [112.7386148, -7.268234900000002]}}, {"type": "Feature", "properties": {"element": "node", "id": 11372647292, "amenity": null, "office": null, "shop": "mall"}, "geometry": {"type": "Point", "coordinates": [112.74805580000002, -7.2650185]}}, {"type": "Feature", "properties": {"element": "node", "id": 7913611848, "amenity": "bank", "office": null, "shop": null}, "geometry": {"type": "Point", "coordinates": [112.7473341, -7.264633299999997]}}, {"type": "Feature", "properties": {"element": "node", "id": 4187490353, "amenity": null, "office": null, "shop": "mall"}, "geometry": {"type": "Point", "coordinates": [112.7408647, -7.263461799999996]}}, {"type": "Feature", "properties": {"element": "node", "id": 7913586716, "amenity": "bank", "office": null, "shop": null}, "geometry": {"type": "Point", "coordinates": [112.7405152, -7.26274109999999]}}, {"type": "Feature", "properties": {"element": "node", "id": 4189035946, "amenity": null, "office": null, "shop": "mall"}, "geometry": {"type": "Point", "coordinates": [112.740365, -7.262063799999991]}}, {"type": "Feature", "properties": {"element": "node", "id": 8191680701, "amenity": null, "office": "lawyer", "shop": null}, "geometry": {"type": "Point", "coordinates": [112.7386782, -7.261308700000008]}}, {"type": "Feature", "properties": {"element": "node", "id": 4189044219, "amenity": null, "office": null, "shop": "mall"}, "geometry": {"type": "Point", "coordinates": [112.7394477, -7.261297200000007]}}, {"type": "Feature", "properties": {"element": "node", "id": 9823791895, "amenity": null, "office": null, "shop": "mall"}, "geometry": {"type": "Point", "coordinates": [112.7417775, -7.260650399999995]}}, {"type": "Feature", "properties": {"element": "node", "id": 12215189337, "amenity": "bank", "office": null, "shop": null}, "geometry": {"type": "Point", "coordinates": [112.7387851, -7.258910100000006]}}, {"type": "Feature", "properties": {"element": "node", "id": 12215189333, "amenity": "bank", "office": null, "shop": null}, "geometry": {"type": "Point", "coordinates": [112.7379235, -7.258067599999998]}}, {"type": "Feature", "properties": {"element": "node", "id": 13609045363, "amenity": "bank", "office": null, "shop": null}, "geometry": {"type": "Point", "coordinates": [112.73554800000001, -7.251705900000007]}}, {"type": "Feature", "properties": {"element": "node", "id": 4464478093, "amenity": "bank", "office": null, "shop": null}, "geometry": {"type": "Point", "coordinates": [112.7567898, -7.269972099999995]}}, {"type": "Feature", "properties": {"element": "node", "id": 3121650690, "amenity": "bank", "office": null, "shop": null}, "geometry": {"type": "Point", "coordinates": [112.7967923, -7.269554100000001]}}, {"type": "Feature", "properties": {"element": "node", "id": 2081890339, "amenity": "bank", "office": null, "shop": null}, "geometry": {"type": "Point", "coordinates": [112.77379460000002, -7.268257699999998]}}, {"type": "Feature", "properties": {"element": "node", "id": 3953125336, "amenity": null, "office": null, "shop": "department_store"}, "geometry": {"type": "Point", "coordinates": [112.749952, -7.261448199999993]}}, {"type": "Feature", "properties": {"element": "node", "id": 9834915412, "amenity": "bank", "office": null, "shop": null}, "geometry": {"type": "Point", "coordinates": [112.7497901, -7.253775199999994]}}, {"type": "Feature", "properties": {"element": "node", "id": 9834881010, "amenity": null, "office": null, "shop": "department_store"}, "geometry": {"type": "Point", "coordinates": [112.7501227, -7.252460099999994]}}, {"type": "Feature", "properties": {"element": "node", "id": 4188765138, "amenity": null, "office": null, "shop": "mall"}, "geometry": {"type": "Point", "coordinates": [112.7584744, -7.248454899999996]}}, {"type": "Feature", "properties": {"element": "node", "id": 4504062371, "amenity": "bank", "office": null, "shop": null}, "geometry": {"type": "Point", "coordinates": [112.7534998, -7.21474080000001]}}, {"type": "Feature", "properties": {"element": "node", "id": 4192772203, "amenity": null, "office": "lawyer", "shop": null}, "geometry": {"type": "Point", "coordinates": [112.7373703, -7.250168500000012]}}, {"type": "Feature", "properties": {"element": "node", "id": 4447082868, "amenity": "bank", "office": null, "shop": null}, "geometry": {"type": "Point", "coordinates": [112.74775560000002, -7.2457168]}}, {"type": "Feature", "properties": {"element": "node", "id": 4447082867, "amenity": "bank", "office": null, "shop": null}, "geometry": {"type": "Point", "coordinates": [112.7477503, -7.245673199999999]}}, {"type": "Feature", "properties": {"element": "node", "id": 7281238285, "amenity": null, "office": null, "shop": "department_store"}, "geometry": {"type": "Point", "coordinates": [112.7362768, -7.244048999999999]}}, {"type": "Feature", "properties": {"element": "node", "id": 4189020445, "amenity": null, "office": null, "shop": "mall"}, "geometry": {"type": "Point", "coordinates": [112.74460380000001, -7.241533900000002]}}, {"type": "Feature", "properties": {"element": "node", "id": 12818418241, "amenity": null, "office": "insurance", "shop": null}, "geometry": {"type": "Point", "coordinates": [112.7375628, -7.241257400000007]}}, {"type": "Feature", "properties": {"element": "node", "id": 12854946175, "amenity": "bank", "office": null, "shop": null}, "geometry": {"type": "Point", "coordinates": [112.7403969, -7.237536099999995]}}, {"type": "Feature", "properties": {"element": "node", "id": 4493784843, "amenity": "bank", "office": null, "shop": null}, "geometry": {"type": "Point", "coordinates": [112.74102930000001, -7.226741000000003]}}, {"type": "Feature", "properties": {"element": "node", "id": 4493784844, "amenity": "bank", "office": null, "shop": null}, "geometry": {"type": "Point", "coordinates": [112.7410393, -7.226692399999995]}}, {"type": "Feature", "properties": {"element": "node", "id": 4493784845, "amenity": "bank", "office": null, "shop": null}, "geometry": {"type": "Point", "coordinates": [112.7410722, -7.226599300000002]}}, {"type": "Feature", "properties": {"element": "node", "id": 4493784846, "amenity": "bank", "office": null, "shop": null}, "geometry": {"type": "Point", "coordinates": [112.7410762, -7.226559999999996]}}, {"type": "Feature", "properties": {"element": "node", "id": 4542412682, "amenity": "bank", "office": null, "shop": null}, "geometry": {"type": "Point", "coordinates": [112.7246336, -7.25569079999999]}}, {"type": "Feature", "properties": {"element": "node", "id": 4527662419, "amenity": "bank", "office": null, "shop": null}, "geometry": {"type": "Point", "coordinates": [112.7245895, -7.255689600000002]}}, {"type": "Feature", "properties": {"element": "node", "id": 4527662418, "amenity": "bank", "office": null, "shop": null}, "geometry": {"type": "Point", "coordinates": [112.7245465, -7.255686899999996]}}, {"type": "Feature", "properties": {"element": "node", "id": 4191032759, "amenity": null, "office": null, "shop": "mall"}, "geometry": {"type": "Point", "coordinates": [112.7340141, -7.255051200000005]}}, {"type": "Feature", "properties": {"element": "node", "id": 4190978828, "amenity": "bank", "office": null, "shop": null}, "geometry": {"type": "Point", "coordinates": [112.7316497, -7.249295800000004]}}, {"type": "Feature", "properties": {"element": "node", "id": 4189743689, "amenity": "bank", "office": null, "shop": null}, "geometry": {"type": "Point", "coordinates": [112.7318217, -7.2491321000000015]}}, {"type": "Feature", "properties": {"element": "node", "id": 4617513490, "amenity": "bank", "office": null, "shop": null}, "geometry": {"type": "Point", "coordinates": [112.7319212, -7.234360999999997]}}, {"type": "Feature", "properties": {"element": "node", "id": 4617513491, "amenity": "bank", "office": null, "shop": null}, "geometry": {"type": "Point", "coordinates": [112.7318575, -7.234353699999996]}}, {"type": "Feature", "properties": {"element": "node", "id": 5015916021, "amenity": "bank", "office": null, "shop": null}, "geometry": {"type": "Point", "coordinates": [112.7309835, -7.226001100000003]}}, {"type": "Feature", "properties": {"element": "node", "id": 11252234337, "amenity": "hospital", "office": null, "shop": null}, "geometry": {"type": "Point", "coordinates": [112.7209504, -7.164088200000001]}}, {"type": "Feature", "properties": {"element": "node", "id": 4857044351, "amenity": "bank", "office": null, "shop": null}, "geometry": {"type": "Point", "coordinates": [112.6567853, -7.284501700000003]}}, {"type": "Feature", "properties": {"element": "node", "id": 4586405594, "amenity": "bank", "office": null, "shop": null}, "geometry": {"type": "Point", "coordinates": [112.6846393, -7.280887499999991]}}, {"type": "Feature", "properties": {"element": "node", "id": 1822691956, "amenity": "hospital", "office": null, "shop": null}, "geometry": {"type": "Point", "coordinates": [112.3459082, -7.184982499999999]}}, {"type": "Feature", "properties": {"element": "node", "id": 13088579433, "amenity": "hospital", "office": null, "shop": null}, "geometry": {"type": "Point", "coordinates": [112.6491487, -7.182640499999994]}}, {"type": "Feature", "properties": {"element": "node", "id": 8505794417, "amenity": "hospital", "office": null, "shop": null}, "geometry": {"type": "Point", "coordinates": [112.6629419, -7.171667299999996]}}, {"type": "Feature", "properties": {"element": "node", "id": 4735501967, "amenity": "hospital", "office": null, "shop": null}, "geometry": {"type": "Point", "coordinates": [112.6378821, -7.145387099999992]}}, {"type": "Feature", "properties": {"element": "node", "id": 3589321850, "amenity": "hospital", "office": null, "shop": null}, "geometry": {"type": "Point", "coordinates": [112.402291, -7.120827599999995]}}, {"type": "Feature", "properties": {"element": "node", "id": 7919282285, "amenity": "bank", "office": null, "shop": null}, "geometry": {"type": "Point", "coordinates": [112.4166393, -7.114994800000008]}}, {"type": "Feature", "properties": {"element": "node", "id": 13462662907, "amenity": "university", "office": null, "shop": null}, "geometry": {"type": "Point", "coordinates": [112.5739869, -7.049533100000003]}}, {"type": "Feature", "properties": {"element": "node", "id": 2286853003, "amenity": "hospital", "office": null, "shop": null}, "geometry": {"type": "Point", "coordinates": [112.29827060000001, -6.957791299999999]}}]}