{
"type": "FeatureCollection",
"name": "UC-info-jalan-arteru",
"crs": { "type": "name", "properties": { "name": "urn:ogc:def:crs:OGC:1.3:CRS84" } },
"features": [
{ "type": "Feature", "properties": { "fid": 1 }, "geometry": { "type": "LineString", "coordinates": [ [ 112.192894875057519, -7.572474161595663 ], [ 112.202195944129727, -7.558828953520366 ], [ 112.217239003078873, -7.543734040111402 ], [ 112.224406025595314, -7.537979484472288 ], [ 112.231587026425117, -7.537242516667293 ], [ 112.235154162649096, -7.528630675143158 ], [ 112.253127708752203, -7.534314124626673 ], [ 112.256715023228821, -7.532870222021077 ], [ 112.284757622045788, -7.542824075544949 ], [ 112.316416629226339, -7.560649750141749 ], [ 112.330798267236432, -7.565623642530129 ], [ 112.330789480625143, -7.562756514555313 ], [ 112.342260345811567, -7.555553510757574 ], [ 112.350871014953299, -7.552659820110514 ], [ 112.355194167570318, -7.556947119558406 ], [ 112.369573633957131, -7.56120290692559 ], [ 112.395349568004903, -7.53531748961965 ], [ 112.408268769982172, -7.532409048297332 ], [ 112.419709317548211, -7.516603298977629 ], [ 112.430463703969863, -7.51083428325144 ], [ 112.433559719879057, -7.504362126960355 ], [ 112.43812328429604, -7.501705390997746 ], [ 112.441470152256443, -7.494969789131127 ], [ 112.44675151374831, -7.491109812182014 ], [ 112.456330711473782, -7.477148695405773 ], [ 112.457993591874455, -7.470658765457951 ], [ 112.459914592506777, -7.469451595660627 ], [ 112.459353784290016, -7.445437017394818 ], [ 112.45886303840706, -7.44255666005327 ], [ 112.460295565505419, -7.439189639270875 ], [ 112.460286037600227, -7.436307697547669 ], [ 112.463644156423811, -7.433174492280134 ], [ 112.471573628851388, -7.430026135262967 ], [ 112.475653405078532, -7.426890470141473 ], [ 112.485025410110879, -7.423496953004713 ], [ 112.490784312042052, -7.418914594744233 ], [ 112.503042229914115, -7.415270906070095 ], [ 112.519159119596949, -7.414495657932621 ], [ 112.523481410068314, -7.412079291213614 ], [ 112.528522911452058, -7.408939949270629 ], [ 112.545384522041687, -7.414885602713526 ], [ 112.547056030084036, -7.411277459565747 ], [ 112.551378084787132, -7.408860858988901 ], [ 112.566282083713475, -7.405446505199952 ], [ 112.57924836014827, -7.398436294415477 ], [ 112.59126136789952, -7.39407084800573 ], [ 112.598934441301139, -7.387079053766908 ], [ 112.605431341963325, -7.387536027772046 ], [ 112.606881653670229, -7.389451999114714 ], [ 112.617441050540762, -7.38244955831686 ], [ 112.655637541440768, -7.368381260344157 ], [ 112.673175644070838, -7.362552619777887 ], [ 112.686146614063617, -7.357701161005046 ], [ 112.698158753113859, -7.353813575267073 ], [ 112.701753014371675, -7.350197872790811 ], [ 112.706079794731679, -7.349461020446673 ], [ 112.725100938296308, -7.354431101550109 ], [ 112.72991616277389, -7.355613215263141 ], [ 112.729028508868979, -7.374827410891521 ], [ 112.741077040505118, -7.380303702186001 ], [ 112.753350263648429, -7.381696481754122 ], [ 112.769470199672043, -7.382593418757749 ] ] } },
{ "type": "Feature", "properties": { "fid": 2 }, "geometry": { "type": "LineString", "coordinates": [ [ 112.44675151374831, -7.491109812181998 ], [ 112.457832715913895, -7.494675719356453 ], [ 112.47300407493583, -7.497987471188002 ], [ 112.480944264259804, -7.497720647183052 ], [ 112.49394429270167, -7.499357808297108 ], [ 112.512717910699763, -7.500494422859772 ], [ 112.528374980793515, -7.505003252697369 ], [ 112.536808981233222, -7.508336016309299 ], [ 112.548132416633592, -7.512138721541125 ], [ 112.553187477636783, -7.512601174455643 ], [ 112.558734941305332, -7.516183808709247 ], [ 112.558024161734764, -7.519308323579324 ], [ 112.563319073536391, -7.519529636084727 ], [ 112.575125054134304, -7.523569967390837 ], [ 112.585721012418375, -7.525693116648402 ], [ 112.601618132340647, -7.529717826259811 ], [ 112.616068030470984, -7.532786655834425 ], [ 112.623297937958412, -7.535641657719302 ], [ 112.623789956181639, -7.538521578407424 ], [ 112.618306964600023, -7.552470363100173 ], [ 112.641690726899739, -7.563189532446013 ], [ 112.657099816073398, -7.565052386713943 ], [ 112.667943916100214, -7.568853278579673 ], [ 112.673479861201315, -7.569072194980849 ], [ 112.681154695967663, -7.562318778373381 ], [ 112.692713257618067, -7.564195170779934 ], [ 112.690822694500341, -7.573087584332534 ], [ 112.690869543924862, -7.585094260146056 ], [ 112.689965071879513, -7.599986277743491 ], [ 112.686406636794644, -7.613207675411548 ], [ 112.685221087481324, -7.617774899587514 ], [ 112.689385161560921, -7.636249212978037 ], [ 112.6901431097277, -7.645371440064455 ], [ 112.687297266842918, -7.656188735213247 ], [ 112.694060565279869, -7.662165600527012 ], [ 112.697202055607292, -7.665274992283845 ], [ 112.700815465187972, -7.665981135030322 ], [ 112.707621271754931, -7.682523444727379 ], [ 112.713990705062642, -7.710113388449275 ], [ 112.717395755215989, -7.718744511466579 ], [ 112.729295184329487, -7.744150425910938 ], [ 112.732712736605066, -7.755662800422935 ], [ 112.745779609884238, -7.77169800972506 ] ] } },
{ "type": "Feature", "properties": { "fid": null }, "geometry": { "type": "LineString", "coordinates": [ [ 112.745797250924795, -7.771885191631099 ], [ 112.743484054806828, -7.775961513842707 ], [ 112.740984640841319, -7.781975179157072 ], [ 112.739268257299528, -7.789534897830153 ], [ 112.737742022534633, -7.796125547733568 ], [ 112.734657527484913, -7.80156064080314 ], [ 112.730597267136375, -7.805837767806099 ], [ 112.724014903212847, -7.810706147079745 ], [ 112.713363897953101, -7.817914907878123 ], [ 112.706969008584224, -7.821233050238693 ], [ 112.703680320597925, -7.824344923058665 ], [ 112.700190323143673, -7.825714634707078 ], [ 112.697492759350695, -7.830954376121246 ], [ 112.696943892154792, -7.839284057487724 ], [ 112.69754848418934, -7.844704157212211 ], [ 112.69369733985117, -7.852853491895332 ], [ 112.689447463985616, -7.858486809437263 ] ] } },
{ "type": "Feature", "properties": { "fid": null }, "geometry": { "type": "LineString", "coordinates": [ [ 112.707742845147848, -7.511694373981142 ], [ 112.703731245539828, -7.509878248166255 ], [ 112.697247919589572, -7.516064585693996 ], [ 112.683163479459196, -7.541596528357615 ], [ 112.685032526011497, -7.550248400683124 ], [ 112.695228395947424, -7.554538465130502 ], [ 112.692431821587789, -7.5648735458634 ] ] } },
{ "type": "Feature", "properties": { "fid": null }, "geometry": { "type": "LineString", "coordinates": [ [ 112.695063473732347, -7.555038664473298 ], [ 112.707739593680969, -7.510861792078585 ], [ 112.714610585887428, -7.475866139409918 ], [ 112.716590533476236, -7.470196811981988 ], [ 112.717698602678837, -7.454872808404532 ], [ 112.717688218720838, -7.452208553286001 ], [ 112.719483740801337, -7.442043959334574 ], [ 112.72636884643245, -7.410878334779946 ], [ 112.729065996176047, -7.375233027463164 ] ] } },
{ "type": "Feature", "properties": { "fid": null }, "geometry": { "type": "LineString", "coordinates": [ [ 112.717851803196368, -7.451375325874109 ], [ 112.714846293865492, -7.450720908548544 ], [ 112.712883838238966, -7.460886158964506 ], [ 112.712922085830982, -7.470710619041552 ], [ 112.716593783895121, -7.471029391548149 ] ] } },
{ "type": "Feature", "properties": { "fid": null }, "geometry": { "type": "LineString", "coordinates": [ [ 112.690742646620407, -7.579662849149778 ], [ 112.695425626684482, -7.576912568882874 ], [ 112.701461427861972, -7.570058886791294 ], [ 112.704970848027926, -7.567313119461015 ], [ 112.716891646171305, -7.565119730263849 ], [ 112.747309488988506, -7.591343071359034 ], [ 112.787041859229106, -7.598987000334443 ] ] } },
{ "type": "Feature", "properties": { "fid": null }, "geometry": { "type": "LineString", "coordinates": [ [ 112.717088750350257, -7.565509244486905 ], [ 112.697071354552165, -7.547634074858322 ] ] } },
{ "type": "Feature", "properties": { "fid": null }, "geometry": { "type": "LineString", "coordinates": [ [ 112.687711267901491, -7.654611324008472 ], [ 112.695925077006379, -7.654188791280103 ], [ 112.701060306848703, -7.666657901805619 ] ] } },
{ "type": "Feature", "properties": { "fid": null }, "geometry": { "type": "LineString", "coordinates": [ [ 112.689984381861606, -7.857744935629857 ], [ 112.68261686916037, -7.865150877648488 ], [ 112.677810921675444, -7.872830209284167 ], [ 112.653804815974553, -7.917751783578991 ], [ 112.649583937161253, -7.929684339776179 ], [ 112.6499069710122, -7.939329210409041 ], [ 112.647090667699914, -7.946716846994014 ], [ 112.638915725837862, -7.966325262865484 ], [ 112.637841712642071, -7.982501060626356 ], [ 112.630247568923622, -8.005228031755625 ], [ 112.627473539203493, -8.023396574536045 ], [ 112.619209101783696, -8.020875739353068 ], [ 112.607619556004707, -8.041348611043155 ], [ 112.598607665442415, -8.066067049225557 ], [ 112.59294880353977, -8.074884301471689 ], [ 112.577141698657471, -8.109559147465342 ], [ 112.569542974559553, -8.132285989126247 ] ] } },
{ "type": "Feature", "properties": { "fid": null }, "geometry": { "type": "LineString", "coordinates": [ [ 112.745833468173672, -7.771065875759249 ], [ 112.755661794308082, -7.754574106984045 ], [ 112.764540944515858, -7.747956911622058 ], [ 112.775060837209764, -7.739358629203026 ], [ 112.788871848750176, -7.729101300257602 ], [ 112.819124725272403, -7.707258506577277 ], [ 112.83854883154936, -7.698950248424092 ], [ 112.877138235464898, -7.699111975006371 ], [ 112.883339260841112, -7.68427961267262 ], [ 112.892808707005031, -7.662852843489938 ] ] } }
]
}
